{
"type": "FeatureCollection",
"name": "06009",
"crs": { "type": "name", "properties": { "name": "urn:ogc:def:crs:OGC:1.3:CRS84" } },
"features": [
{ "type": "Feature", "properties": { "csb_id": "061825005113845", "acres": 2.7620906332877602, "geoid": "06009" }, "geometry": { "type": "Polygon", "coordinates": [ [ [ -120.559556025923868, 38.218085219421063 ], [ -120.55955602602198, 38.21880387088887 ], [ -120.560454341836135, 38.218803871283363 ], [ -120.560454342003723, 38.218444545074114 ], [ -120.560634004078409, 38.218444545145857 ], [ -120.560813667881334, 38.219612354644084 ], [ -120.559915352223044, 38.219612354825387 ], [ -120.55991535237618, 38.219073365910873 ], [ -120.559286532064135, 38.218983534412196 ], [ -120.559106868588913, 38.218803871360748 ], [ -120.559106868063168, 38.218444544794473 ], [ -120.559376362969815, 38.218354713117805 ], [ -120.559376362792236, 38.218085219091073 ], [ -120.559556025923868, 38.218085219421063 ] ] ] } },
{ "type": "Feature", "properties": { "csb_id": "061825005113948", "acres": 8.48349201436295, "geoid": "06009" }, "geometry": { "type": "Polygon", "coordinates": [ [ [ -120.481672091222109, 38.18835098252935 ], [ -120.481582259678689, 38.187991656710338 ], [ -120.48140259705221, 38.18799165686486 ], [ -120.481402596026953, 38.187452667929996 ], [ -120.481672091399275, 38.187093341755457 ], [ -120.482570406287479, 38.186913678140883 ], [ -120.482660238417381, 38.187093341723624 ], [ -120.482929733027106, 38.187093341515343 ], [ -120.483378890137672, 38.186913678693763 ], [ -120.48337889025953, 38.186464521004794 ], [ -120.483558553014859, 38.186284858254908 ], [ -120.484456867894238, 38.186823846690714 ], [ -120.484456868977915, 38.187093341497722 ], [ -120.483738216759548, 38.187542499136455 ], [ -120.483558552801426, 38.187991657093242 ], [ -120.482660237786888, 38.187991657163963 ], [ -120.48266023790282, 38.188620477813608 ], [ -120.481672091222109, 38.18835098252935 ] ] ] } },
{ "type": "Feature", "properties": { "csb_id": "061825005114018", "acres": 3.2506285783397, "geoid": "06009" }, "geometry": { "type": "Polygon", "coordinates": [ [ [ -120.41061535203734, 38.171462655837139 ], [ -120.409806868766253, 38.171372824110342 ], [ -120.409806868726974, 38.171013497936634 ], [ -120.410076363662341, 38.170744004535393 ], [ -120.410774662684091, 38.170431084472447 ], [ -120.411962824832955, 38.170205014521507 ], [ -120.411962825582549, 38.170744003201868 ], [ -120.411334004045358, 38.170744003052981 ], [ -120.410705184036289, 38.171193160530301 ], [ -120.41061535203734, 38.171462655837139 ] ] ] } },
{ "type": "Feature", "properties": { "csb_id": "061825005114064", "acres": 5.6351979566914796, "geoid": "06009" }, "geometry": { "type": "Polygon", "coordinates": [ [ [ -120.929572091351332, 38.161311693291339 ], [ -120.929302597252061, 38.16131169267463 ], [ -120.929302597644693, 38.160682872557196 ], [ -120.930200913159851, 38.160682873409911 ], [ -120.930200911863849, 38.160143882753403 ], [ -120.9310992276408, 38.160143882998661 ], [ -120.931099227944728, 38.160862535317889 ], [ -120.930829733956884, 38.161311693780682 ], [ -120.930829733477054, 38.161940513818088 ], [ -120.929572092148788, 38.16194051359998 ], [ -120.929572091351332, 38.161311693291339 ] ] ] } },
{ "type": "Feature", "properties": { "csb_id": "061825005114066", "acres": 20.396977060827901, "geoid": "06009" }, "geometry": { "type": "Polygon", "coordinates": [ [ [ -120.935411141474432, 38.163108323459333 ], [ -120.935411141558205, 38.162928660281516 ], [ -120.933434847809906, 38.162838828491935 ], [ -120.933255184333078, 38.162838829793394 ], [ -120.933255184250584, 38.16310832337232 ], [ -120.932626364338049, 38.163108323522408 ], [ -120.932626363946554, 38.162928660009747 ], [ -120.930560238589848, 38.162838829354889 ], [ -120.930560238444471, 38.162569334173028 ], [ -120.931099227138475, 38.161940513498898 ], [ -120.931728048930893, 38.161940514088215 ], [ -120.93235686911332, 38.161581188525282 ], [ -120.933704342546093, 38.161581187677079 ], [ -120.933884004667959, 38.161311693126557 ], [ -120.934782320215177, 38.161311693443956 ], [ -120.935231478149234, 38.161042199682782 ], [ -120.935411140827966, 38.16068287203781 ], [ -120.9359501303462, 38.160682873257826 ], [ -120.936309456504091, 38.161042197951346 ], [ -120.936309456888765, 38.162838828690262 ], [ -120.935950130572181, 38.163108323842522 ], [ -120.935411141474432, 38.163108323459333 ] ] ] } },
{ "type": "Feature", "properties": { "csb_id": "061825005114074", "acres": 3.9379300585916601, "geoid": "06009" }, "geometry": { "type": "Polygon", "coordinates": [ [ [ -120.485355183727705, 38.160143882927713 ], [ -120.48535518343202, 38.159964219945529 ], [ -120.485085688956531, 38.159784556977286 ], [ -120.485085689110392, 38.159155736729339 ], [ -120.486522993697335, 38.158886241815885 ], [ -120.486522992553276, 38.159155736591622 ], [ -120.486253498908994, 38.159515062849955 ], [ -120.486882319997562, 38.159515061929 ], [ -120.486882320169414, 38.159784556687413 ], [ -120.486433161901488, 38.160143883253745 ], [ -120.485355183727705, 38.160143882927713 ] ] ] } },
{ "type": "Feature", "properties": { "csb_id": "061825005114105", "acres": 13.6379735020935, "geoid": "06009" }, "geometry": { "type": "Polygon", "coordinates": [ [ [ -120.535032019085989, 38.156191295838489 ], [ -120.535121850518593, 38.155203149454486 ], [ -120.53503201888401, 38.155203149007988 ], [ -120.535032018894, 38.155382811997193 ], [ -120.534493029433349, 38.155203149488955 ], [ -120.534493030131145, 38.15493365479545 ], [ -120.534672693021321, 38.154753991688992 ], [ -120.536648986521996, 38.154664159624545 ], [ -120.537726964299523, 38.154933654176155 ], [ -120.537726965261939, 38.155382811597633 ], [ -120.537277807569225, 38.15538281238338 ], [ -120.537277806903958, 38.155562474782954 ], [ -120.538176122377209, 38.155652306582581 ], [ -120.538176122106961, 38.156730284675746 ], [ -120.53602016578597, 38.156730284960389 ], [ -120.535391345110895, 38.156191295553292 ], [ -120.535032019085989, 38.156191295838489 ] ] ] } },
{ "type": "Feature", "properties": { "csb_id": "061825005114106", "acres": 34.952353935937602, "geoid": "06009" }, "geometry": { "type": "Polygon", "coordinates": [ [ [ -120.532157409971632, 38.157359106045064 ], [ -120.530540442354905, 38.156909948408646 ], [ -120.529372632942795, 38.156820116491261 ], [ -120.529372633170311, 38.156460790625715 ], [ -120.524791224195852, 38.156730284832754 ], [ -120.524162403780707, 38.156460790336816 ], [ -120.524162404310104, 38.156191296064854 ], [ -120.524521730361485, 38.156191296226964 ], [ -120.52452173023083, 38.155831969716573 ], [ -120.52533021413781, 38.155652306535551 ], [ -120.52649802338729, 38.155652306357055 ], [ -120.526498023749483, 38.155382812194006 ], [ -120.527126844274719, 38.155382812030972 ], [ -120.527126843987375, 38.155652306649458 ], [ -120.527396339109458, 38.155652306988252 ], [ -120.52739633849319, 38.155023485684787 ], [ -120.530270948392186, 38.154933653944219 ], [ -120.530270946776909, 38.15520314935501 ], [ -120.530899768600761, 38.155203148657705 ], [ -120.530899769179157, 38.155023485762101 ], [ -120.531348927014648, 38.154753991649216 ], [ -120.531798083810429, 38.154933654892112 ], [ -120.532426904864565, 38.154933654360931 ], [ -120.533594714585973, 38.156191295767812 ], [ -120.533504883551672, 38.157179442871474 ], [ -120.532696399489325, 38.157179442484413 ], [ -120.532696399661134, 38.15735910516068 ], [ -120.532157409971632, 38.157359106045064 ] ], [ [ -120.52515055067181, 38.156460791477102 ], [ -120.525150550448259, 38.156281127024421 ], [ -120.524970887613208, 38.156281127450285 ], [ -120.524970887924098, 38.156460789950017 ], [ -120.52515055067181, 38.156460791477102 ] ] ] } },
{ "type": "Feature", "properties": { "csb_id": "061825005114123", "acres": 6.0725262635239901, "geoid": "06009" }, "geometry": { "type": "Polygon", "coordinates": [ [ [ -120.554525460365198, 38.151340393662281 ], [ -120.554525460263989, 38.151160730108401 ], [ -120.55506445041739, 38.151160730487881 ], [ -120.555064450105434, 38.150801403776654 ], [ -120.555423775981907, 38.150801404076013 ], [ -120.554884786415514, 38.15071157242734 ], [ -120.554884787275071, 38.150352246561752 ], [ -120.55515428135638, 38.150352246778873 ], [ -120.555154281571149, 38.150082752256807 ], [ -120.556052596874338, 38.150082751683939 ], [ -120.556052596321663, 38.149813257560872 ], [ -120.557489901665704, 38.149903088926408 ], [ -120.557489901684448, 38.150352246539533 ], [ -120.556950911626956, 38.150981066802018 ], [ -120.556052596138969, 38.15098106713053 ], [ -120.55605259623988, 38.150801404611087 ], [ -120.555783102152731, 38.150801404185707 ], [ -120.555423775754079, 38.150981067230013 ], [ -120.555423776412198, 38.151340393299876 ], [ -120.554525460365198, 38.151340393662281 ] ] ] } },
{ "type": "Feature", "properties": { "csb_id": "061825005114124", "acres": 7.2171661854381197, "geoid": "06009" }, "geometry": { "type": "Polygon", "coordinates": [ [ [ -120.552998324798779, 38.151609887442341 ], [ -120.552998324817636, 38.150711572449332 ], [ -120.552459336008567, 38.150352246586507 ], [ -120.553357650352893, 38.150352246309843 ], [ -120.553357651283093, 38.150082752065032 ], [ -120.553627145371138, 38.149813257477355 ], [ -120.554255965675011, 38.149813257176412 ], [ -120.554705124115713, 38.149903088655982 ], [ -120.554705123247345, 38.150082751598958 ], [ -120.555154281571149, 38.150082752256807 ], [ -120.55515428135638, 38.150352246778873 ], [ -120.554884787275071, 38.150352246561752 ], [ -120.554884786415514, 38.15071157242734 ], [ -120.555423775981907, 38.150801404076013 ], [ -120.555064450105434, 38.150801403776654 ], [ -120.55506445041739, 38.151160730487881 ], [ -120.554255966038568, 38.151160729779477 ], [ -120.553896639489082, 38.151609888136498 ], [ -120.552998324798779, 38.151609887442341 ] ] ] } },
{ "type": "Feature", "properties": { "csb_id": "061825005114287", "acres": 8.5584880569421706, "geoid": "06009" }, "geometry": { "type": "Polygon", "coordinates": [ [ [ -120.468646518970147, 38.128253691050276 ], [ -120.465951574017637, 38.128253690615388 ], [ -120.465951573646862, 38.127624869410091 ], [ -120.466221068149451, 38.127624869801579 ], [ -120.466221068658442, 38.12789436473907 ], [ -120.466580394023268, 38.127894364431079 ], [ -120.46684988922523, 38.12735537523767 ], [ -120.466849888740583, 38.126996048887804 ], [ -120.467658372595508, 38.126816386018746 ], [ -120.468377024891964, 38.126996048986499 ], [ -120.469275340338044, 38.127624870143329 ], [ -120.469275340282195, 38.128523186226268 ], [ -120.468826182141029, 38.128523184983742 ], [ -120.468646518970147, 38.128253691050276 ] ] ] } },
{ "type": "Feature", "properties": { "csb_id": "061825005114327", "acres": 25.846049704899499, "geoid": "06009" }, "geometry": { "type": "Polygon", "coordinates": [ [ [ -120.464154942659292, 38.129152006189443 ], [ -120.464154942602107, 38.128343522103762 ], [ -120.462897301413122, 38.127624870278751 ], [ -120.462987133351561, 38.126816386082119 ], [ -120.463166796104829, 38.126277396807822 ], [ -120.463526122748945, 38.125918070243948 ], [ -120.46352612290201, 38.125648576201137 ], [ -120.463526122535086, 38.125468913289524 ], [ -120.462897301414515, 38.125468912900274 ], [ -120.462897301348775, 38.125199418435301 ], [ -120.463346458962604, 38.125199418905957 ], [ -120.464604100429398, 38.124301103526825 ], [ -120.465322753104573, 38.124570597328848 ], [ -120.465322753404394, 38.124929924139181 ], [ -120.464873595445013, 38.125468913078009 ], [ -120.465771910534471, 38.125828238799372 ], [ -120.466221068527702, 38.125828239598 ], [ -120.466221067997495, 38.1269960489604 ], [ -120.465951573303897, 38.127355375554373 ], [ -120.465951573540153, 38.128523185533972 ], [ -120.465592247920071, 38.128523185271291 ], [ -120.465592247449152, 38.12915200595927 ], [ -120.464154942659292, 38.129152006189443 ] ] ] } },
{ "type": "Feature", "properties": { "csb_id": "061825005114423", "acres": 31.782435094980599, "geoid": "06009" }, "geometry": { "type": "Polygon", "coordinates": [ [ [ -120.473856747760607, 38.122504472746414 ], [ -120.47385674772076, 38.122145146513461 ], [ -120.473497421571523, 38.122145146342135 ], [ -120.473497421811771, 38.121246831059437 ], [ -120.474126242395869, 38.120079021914336 ], [ -120.474126242154398, 38.119719695354881 ], [ -120.473856748418712, 38.119450200478454 ], [ -120.473856748310467, 38.119001043232487 ], [ -120.474755063226738, 38.118551885366998 ], [ -120.475024557706959, 38.118012896430947 ], [ -120.475833041862131, 38.11729424428529 ], [ -120.476821188311092, 38.117473907436874 ], [ -120.47745000955068, 38.118192559074437 ], [ -120.478977145017296, 38.118551885813034 ], [ -120.478887313692269, 38.119450200717154 ], [ -120.477809335672376, 38.119719695040175 ], [ -120.476821188247683, 38.119719695796825 ], [ -120.476461863076523, 38.120348516236568 ], [ -120.475383884532107, 38.121067167901558 ], [ -120.47439573727091, 38.122504472892061 ], [ -120.473856747760607, 38.122504472746414 ] ] ] } },
{ "type": "Feature", "properties": { "csb_id": "061825005114514", "acres": 3.6203420598296101, "geoid": "06009" }, "geometry": { "type": "Polygon", "coordinates": [ [ [ -120.497751935176183, 38.109119575010823 ], [ -120.497751935194245, 38.108850080738463 ], [ -120.498740081121952, 38.108850080240117 ], [ -120.498740081459346, 38.108670419596187 ], [ -120.498380754259728, 38.108490754222949 ], [ -120.497751934476128, 38.10849075518032 ], [ -120.497751935038494, 38.107951764634279 ], [ -120.498740081219495, 38.107951765312265 ], [ -120.499638396910996, 38.108221260146578 ], [ -120.499638396529605, 38.108490754078211 ], [ -120.499279070324619, 38.108670417173471 ], [ -120.499009576343212, 38.109119574507083 ], [ -120.497751935176183, 38.109119575010823 ] ] ] } },
{ "type": "Feature", "properties": { "csb_id": "061825005114575", "acres": 15.1334311515383, "geoid": "06009" }, "geometry": { "type": "Polygon", "coordinates": [ [ [ -120.501614690899814, 38.105256819362772 ], [ -120.501614691022198, 38.104987324825942 ], [ -120.501345195706008, 38.104987324250892 ], [ -120.50116553323133, 38.105166987335132 ], [ -120.501165533025585, 38.105526313858235 ], [ -120.501435027500563, 38.105526313557675 ], [ -120.501435027167162, 38.105256819256923 ], [ -120.501614690899814, 38.105256819362772 ], [ -120.501614690655032, 38.105795808410598 ], [ -120.499009576029607, 38.107143281709533 ], [ -120.497448227565073, 38.107272545980869 ], [ -120.497555427958076, 38.106983049673069 ], [ -120.499460926639728, 38.106514110013613 ], [ -120.49967831230407, 38.106333437368612 ], [ -120.499368902484719, 38.106244965891541 ], [ -120.497751934458165, 38.106694123663516 ], [ -120.497212945878061, 38.106694123194139 ], [ -120.497482439365484, 38.106065301898937 ], [ -120.498919744823709, 38.106065303381058 ], [ -120.499279070748173, 38.105166987891941 ], [ -120.49981806001017, 38.104897492913189 ], [ -120.501165532770855, 38.104897493250412 ], [ -120.501165532669646, 38.104358503964875 ], [ -120.501345196432595, 38.104089009672364 ], [ -120.502333342724967, 38.10399917784239 ], [ -120.502243511313992, 38.10489749294122 ], [ -120.501614690899814, 38.105256819362772 ] ] ] } },
{ "type": "Feature", "properties": { "csb_id": "061825005114602", "acres": 3.2257266581700099, "geoid": "06009" }, "geometry": { "type": "Polygon", "coordinates": [ [ [ -120.502063848211165, 38.103999177576171 ], [ -120.502153679292462, 38.102472042083903 ], [ -120.502333342384745, 38.102472041724781 ], [ -120.502333342665679, 38.102741536797325 ], [ -120.502692668232271, 38.102741536607191 ], [ -120.502692668714843, 38.103011031898518 ], [ -120.50341132113202, 38.103011031402644 ], [ -120.503411321277554, 38.103370358339959 ], [ -120.502962163488448, 38.103639852081265 ], [ -120.502962163375386, 38.103999177673963 ], [ -120.502063848211165, 38.103999177576171 ] ] ] } },
{ "type": "Feature", "properties": { "csb_id": "061825005114612", "acres": 4.8534108734882198, "geoid": "06009" }, "geometry": { "type": "Polygon", "coordinates": [ [ [ -120.502692668714843, 38.103011031898518 ], [ -120.502692668232271, 38.102741536607191 ], [ -120.502333342665679, 38.102741536797325 ], [ -120.502333343352049, 38.101843222291507 ], [ -120.504040142652613, 38.101394064664817 ], [ -120.504040141626263, 38.102472042282621 ], [ -120.50341132113202, 38.103011031402644 ], [ -120.502692668714843, 38.103011031898518 ] ] ] } },
{ "type": "Feature", "properties": { "csb_id": "061825005114639", "acres": 7.0084042614233404, "geoid": "06009" }, "geometry": { "type": "Polygon", "coordinates": [ [ [ -120.497212945869663, 38.103011031184096 ], [ -120.497212945340095, 38.102741536308926 ], [ -120.497482439815627, 38.102741536153388 ], [ -120.49829092413782, 38.101394063022788 ], [ -120.497662103244579, 38.101394064131881 ], [ -120.497033282516981, 38.101663557797885 ], [ -120.497033282389125, 38.1019330527078 ], [ -120.496134966734402, 38.101843221162909 ], [ -120.49613496668681, 38.101663558055932 ], [ -120.496494293136266, 38.10166355908747 ], [ -120.49676378736136, 38.100405916560319 ], [ -120.497212945087497, 38.100316084809521 ], [ -120.497212945910547, 38.100585580625726 ], [ -120.497482439986157, 38.100944905636482 ], [ -120.498111260861123, 38.101214400381728 ], [ -120.498740081394359, 38.101214400420282 ], [ -120.498740082043568, 38.100585580767756 ], [ -120.498380755165911, 38.100585580097551 ], [ -120.498380755973258, 38.099866928392856 ], [ -120.498919744633056, 38.099866927344479 ], [ -120.498919744207015, 38.100765242728428 ], [ -120.499189238777916, 38.100765242860938 ], [ -120.499189238917609, 38.101394064045053 ], [ -120.498560418196263, 38.101394063266738 ], [ -120.49838075591822, 38.101663558059819 ], [ -120.498111260678328, 38.103011031209469 ], [ -120.497212945869663, 38.103011031184096 ] ] ] } },
{ "type": "Feature", "properties": { "csb_id": "061825005114640", "acres": 4.1157920364489797, "geoid": "06009" }, "geometry": { "type": "Polygon", "coordinates": [ [ [ -120.497212944930098, 38.100136422077469 ], [ -120.497482440369836, 38.099866927267577 ], [ -120.498111261227507, 38.09968726396928 ], [ -120.49811126121503, 38.099238106823407 ], [ -120.498380755973258, 38.099866928392856 ], [ -120.498380755165911, 38.100585580097551 ], [ -120.498740082043568, 38.100585580767756 ], [ -120.498740081394359, 38.101214400420282 ], [ -120.498111260861123, 38.101214400381728 ], [ -120.497482439986157, 38.100944905636482 ], [ -120.497212945910547, 38.100585580625726 ], [ -120.497212944930098, 38.100136422077469 ] ] ] } },
{ "type": "Feature", "properties": { "csb_id": "061825005114648", "acres": 5.6205374396396603, "geoid": "06009" }, "geometry": { "type": "Polygon", "coordinates": [ [ [ -120.495056989038957, 38.099148275468686 ], [ -120.494428167778977, 38.098519454600506 ], [ -120.494428167925207, 38.098160128968352 ], [ -120.495056988421894, 38.097890634281789 ], [ -120.496853618921264, 38.097890633638279 ], [ -120.496853619249222, 38.098160128443091 ], [ -120.496584125132784, 38.098519454629042 ], [ -120.496134967577831, 38.098609286142917 ], [ -120.496134967645276, 38.099417769959011 ], [ -120.495955304333023, 38.099417770185575 ], [ -120.49595530365913, 38.099148275241234 ], [ -120.495056989038957, 38.099148275468686 ] ], [ [ -120.495955303728209, 38.098160128671125 ], [ -120.495865472399359, 38.097980465408988 ], [ -120.495865472902722, 38.098160128368079 ], [ -120.495955303728209, 38.098160128671125 ] ] ] } },
{ "type": "Feature", "properties": { "csb_id": "061825005114649", "acres": 19.763687033846399, "geoid": "06009" }, "geometry": { "type": "Polygon", "coordinates": [ [ [ -120.485624678466465, 38.100944905867372 ], [ -120.482660238067851, 38.10121440030921 ], [ -120.482300911609997, 38.101034737091197 ], [ -120.481672091758298, 38.100585579994032 ], [ -120.481402596138324, 38.10004659089882 ], [ -120.481402596433298, 38.099687264442032 ], [ -120.481672090615177, 38.099687264516646 ], [ -120.481672091605176, 38.099148275210453 ], [ -120.485085688816, 38.098788948790904 ], [ -120.485085689273902, 38.098968611906422 ], [ -120.485355183468101, 38.099148274990313 ], [ -120.485624678610975, 38.099148275005696 ], [ -120.485624678466465, 38.100944905867372 ] ] ] } },
{ "type": "Feature", "properties": { "csb_id": "061825005114651", "acres": 7.9113534492720596, "geoid": "06009" }, "geometry": { "type": "Polygon", "coordinates": [ [ [ -120.488678950256457, 38.100046590200556 ], [ -120.488678949974812, 38.099687264915673 ], [ -120.488229792584036, 38.099687264379277 ], [ -120.487511140454885, 38.100046590613857 ], [ -120.485624677982116, 38.100046590598716 ], [ -120.485624678610975, 38.099148275005696 ], [ -120.486253499493159, 38.098968612562601 ], [ -120.487511140470531, 38.098968612491966 ], [ -120.48903827631554, 38.099148275585257 ], [ -120.489038276523473, 38.099417770067738 ], [ -120.48930777062732, 38.099687264501163 ], [ -120.489577265929853, 38.099687264503807 ], [ -120.489487434482214, 38.100046590036342 ], [ -120.488678950256457, 38.100046590200556 ] ], [ [ -120.489217939699728, 38.099687264504595 ], [ -120.489038276731364, 38.099687264541501 ], [ -120.489038276225628, 38.099866927958288 ], [ -120.489217939632283, 38.099866927921347 ], [ -120.489217939699728, 38.099687264504595 ] ] ] } },
{ "type": "Feature", "properties": { "csb_id": "061825005114663", "acres": 2.9219352084827701, "geoid": "06009" }, "geometry": { "type": "Polygon", "coordinates": [ [ [ -120.499009575718475, 38.098160128147327 ], [ -120.498740081907442, 38.096992318892383 ], [ -120.499907891972086, 38.09699231969352 ], [ -120.499818060191643, 38.09816012848097 ], [ -120.499009575718475, 38.098160128147327 ] ] ] } },
{ "type": "Feature", "properties": { "csb_id": "061825005114665", "acres": 2.70837449402645, "geoid": "06009" }, "geometry": { "type": "Polygon", "coordinates": [ [ [ -120.500806207067839, 38.09798046521049 ], [ -120.499907891292821, 38.097890634212781 ], [ -120.499907891972086, 38.09699231969352 ], [ -120.501165532207494, 38.096992318619186 ], [ -120.501165532615673, 38.097710971263929 ], [ -120.500806207067839, 38.09798046521049 ] ] ] } },
{ "type": "Feature", "properties": { "csb_id": "061825005114666", "acres": 2.4948146283222501, "geoid": "06009" }, "geometry": { "type": "Polygon", "coordinates": [ [ [ -120.494428167925207, 38.098160128968352 ], [ -120.494428166811019, 38.097441477022045 ], [ -120.49505698850011, 38.096992319057023 ], [ -120.495685809305542, 38.096992319032985 ], [ -120.495685809631027, 38.097890633896888 ], [ -120.495056988421894, 38.097890634281789 ], [ -120.494428167925207, 38.098160128968352 ] ] ] } },
{ "type": "Feature", "properties": { "csb_id": "061825005114747", "acres": 16.318601186984498, "geoid": "06009" }, "geometry": { "type": "Polygon", "coordinates": [ [ [ -120.536648986659671, 38.093758383803525 ], [ -120.536020165649234, 38.09330922598032 ], [ -120.536020165657249, 38.091512594975306 ], [ -120.535571008087217, 38.090883774485967 ], [ -120.536289660264231, 38.089985459440562 ], [ -120.537547302177586, 38.089985459011444 ], [ -120.537816796565437, 38.090614279691565 ], [ -120.538445617419782, 38.090614279913822 ], [ -120.538445617472192, 38.090883774764009 ], [ -120.537996459360869, 38.092141416722527 ], [ -120.537547301759631, 38.09277023677371 ], [ -120.537098144616678, 38.093039731209039 ], [ -120.537098144494749, 38.093488889360607 ], [ -120.536648986659671, 38.093758383803525 ] ] ] } },
{ "type": "Feature", "properties": { "csb_id": "061825011823111", "acres": 3.1980096075934799, "geoid": "06009" }, "geometry": { "type": "Polygon", "coordinates": [ [ [ -120.439870581532148, 38.129078860545086 ], [ -120.43987058111216, 38.128809365914577 ], [ -120.44014007512537, 38.128719534823666 ], [ -120.440140075946516, 38.128450039728513 ], [ -120.439601086935951, 38.128450039695792 ], [ -120.439601087502496, 38.128180545046391 ], [ -120.439870582281529, 38.128180545563282 ], [ -120.43987058135032, 38.127821219427133 ], [ -120.440768896568869, 38.127821219508469 ], [ -120.441038391334246, 38.128450040287795 ], [ -120.441397718239415, 38.128450040177334 ], [ -120.441397718094706, 38.128719534227592 ], [ -120.440768897284443, 38.128719534616089 ], [ -120.440677047420209, 38.129018154532922 ], [ -120.439870581532148, 38.129078860545086 ] ] ] } },
{ "type": "Feature", "properties": { "csb_id": "061825011823112", "acres": 2.3870470954782599, "geoid": "06009" }, "geometry": { "type": "Polygon", "coordinates": [ [ [ -120.436726478314839, 38.128180545381532 ], [ -120.435019679226784, 38.128180545627394 ], [ -120.435019678361613, 38.128450039688722 ], [ -120.434390858966665, 38.128450039852424 ], [ -120.434390856938492, 38.127821219514296 ], [ -120.436726478794085, 38.127911051040542 ], [ -120.436726478314839, 38.128180545381532 ] ] ] } },
{ "type": "Feature", "properties": { "csb_id": "061825011823113", "acres": 4.0365931049918302, "geoid": "06009" }, "geometry": { "type": "Polygon", "coordinates": [ [ [ -120.446428283217415, 38.129168692074117 ], [ -120.447057103580775, 38.129168692147438 ], [ -120.447057104444937, 38.128809365917931 ], [ -120.446428283516354, 38.128809365662761 ], [ -120.446428283217415, 38.129168692074117 ], [ -120.445889294342308, 38.129078860594866 ], [ -120.445799462408601, 38.129438187073404 ], [ -120.445799462646022, 38.128809365862558 ], [ -120.446518114681297, 38.127821219280854 ], [ -120.446877440449427, 38.127821219331452 ], [ -120.447146935920969, 38.12845003994682 ], [ -120.447416430206687, 38.128539871478914 ], [ -120.447326598106741, 38.130336502279349 ], [ -120.44714693591358, 38.130336502112883 ], [ -120.447057104046436, 38.129438186583123 ], [ -120.446428283901824, 38.129438186918698 ], [ -120.446428283217415, 38.129168692074117 ] ], [ [ -120.446877440844929, 38.128719534932117 ], [ -120.446877440743947, 38.128450039611991 ], [ -120.446518114427207, 38.128450039970261 ], [ -120.446518115440426, 38.128719534836392 ], [ -120.446877440844929, 38.128719534932117 ] ] ] } },
{ "type": "Feature", "properties": { "csb_id": "061825011823114", "acres": 17.223598616216599, "geoid": "06009" }, "geometry": { "type": "Polygon", "coordinates": [ [ [ -120.435917996135856, 38.129977176014869 ], [ -120.435917991673875, 38.129348355467584 ], [ -120.436187487730507, 38.1290788607322 ], [ -120.436187488167135, 38.128180545744442 ], [ -120.436546813818438, 38.128180545992528 ], [ -120.436546815178986, 38.128719534832371 ], [ -120.436816307754384, 38.129168692361134 ], [ -120.436995970206979, 38.129168692262986 ], [ -120.436995970243359, 38.127911050969693 ], [ -120.436816308071016, 38.127551724646068 ], [ -120.436816310599383, 38.127012735464241 ], [ -120.437445129680384, 38.126294083564275 ], [ -120.438523107439138, 38.126294083681302 ], [ -120.438523107891115, 38.126922904257825 ], [ -120.438792603391164, 38.127821219256163 ], [ -120.439601087886629, 38.127821218910228 ], [ -120.439601084890754, 38.128539871621939 ], [ -120.437265464705192, 38.129438187446937 ], [ -120.437085801683423, 38.129617850591977 ], [ -120.43708580410329, 38.130246670800773 ], [ -120.43654681360151, 38.130246670655644 ], [ -120.435917996135856, 38.129977176014869 ] ], [ [ -120.437624791707449, 38.128270377709811 ], [ -120.437265465559918, 38.128270376940954 ], [ -120.437265464826069, 38.128539871724946 ], [ -120.437624790882253, 38.128539871857839 ], [ -120.437624791707449, 38.128270377709811 ] ] ] } },
{ "type": "Feature", "properties": { "csb_id": "061825011823115", "acres": 2.8542446294319199, "geoid": "06009" }, "geometry": { "type": "Polygon", "coordinates": [ [ [ -120.489008427768155, 38.091529281380978 ], [ -120.488738932445315, 38.091169955841664 ], [ -120.488379605933929, 38.091169956394715 ], [ -120.488379606501709, 38.090541134686056 ], [ -120.488559268801893, 38.090271640425989 ], [ -120.489277922425771, 38.090181808554391 ], [ -120.489277921177035, 38.09054113516455 ], [ -120.489637248231219, 38.090900460706663 ], [ -120.489637248735377, 38.091259787285082 ], [ -120.489277922810132, 38.091529281533603 ], [ -120.489008427768155, 38.091529281380978 ] ] ] } },
{ "type": "Feature", "properties": { "csb_id": "061825011823122", "acres": 2.9626848364309502, "geoid": "06009" }, "geometry": { "type": "Polygon", "coordinates": [ [ [ -120.628157465433915, 38.048679642446942 ], [ -120.628516791802795, 38.048949137507428 ], [ -120.628516791803349, 38.05020677836248 ], [ -120.627977801728676, 38.050206778921627 ], [ -120.627977802070973, 38.049847452268061 ], [ -120.627618476401722, 38.049577957789886 ], [ -120.627169318955779, 38.049577957720366 ], [ -120.627348981842601, 38.049038968705894 ], [ -120.627798138522593, 38.049038968521998 ], [ -120.628157465433915, 38.048679642446942 ] ] ] } },
{ "type": "Feature", "properties": { "csb_id": "061825011823130", "acres": 3.01207701760341, "geoid": "06009" }, "geometry": { "type": "Polygon", "coordinates": [ [ [ -120.474096393463014, 38.029635358640689 ], [ -120.473557404893043, 38.029276032655432 ], [ -120.473108245840152, 38.029276032426807 ], [ -120.47247942683255, 38.028916706088445 ], [ -120.472479426394486, 38.028647212305252 ], [ -120.47409639459363, 38.028647211984953 ], [ -120.474096394336868, 38.029006538193784 ], [ -120.474276057423339, 38.029276032947607 ], [ -120.474635383037267, 38.029365863774146 ], [ -120.474635383666367, 38.029545526976193 ], [ -120.474455720295424, 38.029815022131608 ], [ -120.474096393890704, 38.029815021608584 ], [ -120.474096393463014, 38.029635358640689 ] ] ] } },
{ "type": "Feature", "properties": { "csb_id": "061825011823133", "acres": 16.4210231498936, "geoid": "06009" }, "geometry": { "type": "Polygon", "coordinates": [ [ [ -120.474455719833898, 38.026850581504554 ], [ -120.474276056473755, 38.02694041264634 ], [ -120.477150666036152, 38.026940414056007 ], [ -120.477689655871146, 38.027209908796799 ], [ -120.477779486624243, 38.02783872884298 ], [ -120.476881171648756, 38.028916705977593 ], [ -120.476611677200893, 38.028916706774261 ], [ -120.476611676497185, 38.028737043509992 ], [ -120.475623530805777, 38.028647213032997 ], [ -120.47553369808486, 38.028108223191566 ], [ -120.474904877797414, 38.027838728422779 ], [ -120.474635383720326, 38.027838728369204 ], [ -120.474455720081295, 38.028018391472322 ], [ -120.474455720170781, 38.028377717077703 ], [ -120.474006562082764, 38.028377717373289 ], [ -120.473737068335652, 38.027748896964454 ], [ -120.473737068058284, 38.026850581407182 ], [ -120.473377741774257, 38.026491255230262 ], [ -120.473557404392324, 38.025952266051341 ], [ -120.474725214429967, 38.025952265688097 ], [ -120.474725214999353, 38.026221760302462 ], [ -120.474455719867194, 38.026221760354289 ], [ -120.474455719833898, 38.026850581504554 ] ] ] } },
{ "type": "Feature", "properties": { "csb_id": "061825011823134", "acres": 10.586435226621401, "geoid": "06009" }, "geometry": { "type": "Polygon", "coordinates": [ [ [ -120.478677802107597, 38.028916706571891 ], [ -120.478677801655223, 38.027748896968212 ], [ -120.478408307494249, 38.027748896995128 ], [ -120.478498138809684, 38.026491255555179 ], [ -120.478677801725539, 38.026221760833714 ], [ -120.47957611771217, 38.025952265866806 ], [ -120.479935443103088, 38.025592940382346 ], [ -120.479935443456583, 38.024694624671021 ], [ -120.48020493821987, 38.024694624415559 ], [ -120.480204937629892, 38.024964119718042 ], [ -120.480474432266192, 38.024964119096964 ], [ -120.480474432231432, 38.025592939779507 ], [ -120.480204937520753, 38.025592939945973 ], [ -120.479935443675586, 38.025952265935096 ], [ -120.479935443212568, 38.026221760961938 ], [ -120.480204937704627, 38.026221760980135 ], [ -120.480204938478508, 38.026581086727923 ], [ -120.480204937595488, 38.026850581095168 ], [ -120.479935443322063, 38.026850581485107 ], [ -120.479935443678201, 38.027120075387394 ], [ -120.481103252857864, 38.02712007630398 ], [ -120.481103252741349, 38.027389570242335 ], [ -120.48047443265915, 38.027389570541175 ], [ -120.480474432283259, 38.027838728489144 ], [ -120.479306622434748, 38.02783872861464 ], [ -120.479306623046881, 38.028647211628687 ], [ -120.479037127533417, 38.028647211721619 ], [ -120.479037128528191, 38.0289167065987 ], [ -120.478677802107597, 38.028916706571891 ] ], [ [ -120.479216791675313, 38.02774889663408 ], [ -120.479216791428911, 38.027479402347709 ], [ -120.479037128355017, 38.027479401572272 ], [ -120.47903712823765, 38.027748896721398 ], [ -120.479216791675313, 38.02774889663408 ] ] ] } }
]
}
