{
"type": "FeatureCollection",
"name": "06007",
"crs": { "type": "name", "properties": { "name": "urn:ogc:def:crs:OGC:1.3:CRS84" } },
"features": [
{ "type": "Feature", "properties": { "csb_id": "061825007808514", "acres": 4.7252356843578296, "geoid": "06007" }, "geometry": { "type": "Polygon", "coordinates": [ [ [ -121.955136360018813, 39.88428794529684 ], [ -121.954866865518753, 39.884198113990514 ], [ -121.954866865369368, 39.883569293313457 ], [ -121.955136359977985, 39.883569293143736 ], [ -121.955226191073251, 39.883120135873192 ], [ -121.95459737041628, 39.883120135395735 ], [ -121.954597370658774, 39.882760809528385 ], [ -121.955495686067039, 39.882760809580454 ], [ -121.955495685800912, 39.882491314830474 ], [ -121.956483832136868, 39.882491315155022 ], [ -121.956483832979131, 39.883120135601636 ], [ -121.956124506246098, 39.883120135210717 ], [ -121.955855011707698, 39.883389630228478 ], [ -121.955765180074479, 39.884198114248491 ], [ -121.955405853842677, 39.884557440235895 ], [ -121.955136360073908, 39.884557440020728 ], [ -121.955136360018813, 39.88428794529684 ] ], [ [ -121.955405854302271, 39.884018451198266 ], [ -121.955495685666264, 39.883659124374397 ], [ -121.955405853911728, 39.883659124465645 ], [ -121.955405854302271, 39.884018451198266 ] ] ] } },
{ "type": "Feature", "properties": { "csb_id": "061825007808840", "acres": 60.058874052143203, "geoid": "06007" }, "geometry": { "type": "Polygon", "coordinates": [ [ [ -122.010921738781732, 39.868657259583024 ], [ -122.00948443358898, 39.868747090841758 ], [ -122.009125108180129, 39.868477596096348 ], [ -122.009125107712094, 39.868657259531084 ], [ -122.008855613687302, 39.868657259350094 ], [ -122.008855612879117, 39.868387765665595 ], [ -122.008496286860534, 39.868387764640495 ], [ -122.008586119087624, 39.866321639249144 ], [ -122.008945444503553, 39.86632163980606 ], [ -122.00894544454566, 39.865423324657471 ], [ -122.008316624158255, 39.865063998421832 ], [ -122.008316624286422, 39.86416568263666 ], [ -122.008586119371131, 39.863806356649015 ], [ -122.008586118286757, 39.862638547008721 ], [ -122.007957298150799, 39.86263854660222 ], [ -122.007867466319425, 39.862369052022032 ], [ -122.00786746652301, 39.862189389804946 ], [ -122.008496286821554, 39.862279221044417 ], [ -122.008586118526836, 39.860482590481773 ], [ -122.00921493948556, 39.859943600940603 ], [ -122.009214939451311, 39.859314780635657 ], [ -122.009394602552305, 39.859314780512129 ], [ -122.009394602757695, 39.859494443227788 ], [ -122.009753929040698, 39.859494443310062 ], [ -122.010023423854591, 39.859853769598985 ], [ -122.010023423826851, 39.860482590639528 ], [ -122.011041046304456, 39.861261598235814 ], [ -122.011550559129219, 39.862279220885988 ], [ -122.012628537663971, 39.863806357091093 ], [ -122.011640391149953, 39.863896188296877 ], [ -122.011370895579333, 39.864165682764188 ], [ -122.01137089687461, 39.866321639775165 ], [ -122.011640391190781, 39.866321639126717 ], [ -122.011640391176513, 39.867489449367049 ], [ -122.012898031642862, 39.867489449454176 ], [ -122.012898032068975, 39.867848775263212 ], [ -122.011370896135872, 39.867848775371904 ], [ -122.011370895737443, 39.868926754192607 ], [ -122.010921739065694, 39.868926754128601 ], [ -122.010921738781732, 39.868657259583024 ] ] ] } },
{ "type": "Feature", "properties": { "csb_id": "061825007808970", "acres": 11.7855331795931, "geoid": "06007" }, "geometry": { "type": "Polygon", "coordinates": [ [ [ -121.914981666486455, 39.851319774452328 ], [ -121.911927394072919, 39.851319774136435 ], [ -121.911927394581994, 39.851679100714939 ], [ -121.911657899267979, 39.851679100361146 ], [ -121.911657899677252, 39.850421459041122 ], [ -121.911298573408729, 39.850421459444405 ], [ -121.911298573065309, 39.849882469872441 ], [ -121.912196888702653, 39.849882470152288 ], [ -121.912196889118491, 39.849523143372302 ], [ -121.912556214757984, 39.849523144215247 ], [ -121.91282570989695, 39.849882470178805 ], [ -121.914981666411137, 39.849882470190785 ], [ -121.914981666013489, 39.850421459274308 ], [ -121.914622339658621, 39.850421459013113 ], [ -121.914622340186611, 39.851050279357807 ], [ -121.914981665958607, 39.851050279480596 ], [ -121.914981666486455, 39.851319774452328 ] ] ] } },
{ "type": "Feature", "properties": { "csb_id": "061825007808995", "acres": 36.559157028772297, "geoid": "06007" }, "geometry": { "type": "Polygon", "coordinates": [ [ [ -122.001758922365283, 39.854643540654706 ], [ -122.000680944661042, 39.854733372107326 ], [ -122.000680944311881, 39.854913035520809 ], [ -121.999692797040922, 39.854913035284142 ], [ -121.999153808806994, 39.854643540533957 ], [ -121.999153808491457, 39.854104552191643 ], [ -121.999333471464539, 39.854104551673892 ], [ -121.999153808797985, 39.852846910522707 ], [ -121.99915380832833, 39.849882470355936 ], [ -121.999692797957607, 39.848624828194936 ], [ -122.000052123554909, 39.848624828889015 ], [ -122.000052123845535, 39.848355334130382 ], [ -121.999782628837508, 39.847996008010341 ], [ -122.000321618364836, 39.847726513127817 ], [ -122.000860607547523, 39.84772651319507 ], [ -122.001219933199224, 39.847906176371055 ], [ -122.001579259706688, 39.848534997006404 ], [ -122.00157925927337, 39.849523143754283 ], [ -122.001309765153977, 39.850151964129779 ], [ -122.001309765267166, 39.851050279901159 ], [ -122.001579259983075, 39.851679100818437 ], [ -122.001489428065724, 39.853385899212945 ], [ -122.001758922630472, 39.853385899221884 ], [ -122.001848754785769, 39.854374046315137 ], [ -122.001758922365283, 39.854643540654706 ] ] ] } },
{ "type": "Feature", "properties": { "csb_id": "061825007809029", "acres": 4.8887800454018899, "geoid": "06007" }, "geometry": { "type": "Polygon", "coordinates": [ [ [ -121.953429559945704, 39.847726512904806 ], [ -121.953429560389608, 39.847367187303924 ], [ -121.952082087238068, 39.847367187379866 ], [ -121.951543098395973, 39.847097692994687 ], [ -121.951543098871809, 39.846468871862932 ], [ -121.952441413380896, 39.846468872003292 ], [ -121.95342956018554, 39.84619937751777 ], [ -121.953429560295518, 39.846468871946996 ], [ -121.953968549933535, 39.846828197860034 ], [ -121.954327875352874, 39.846828197769412 ], [ -121.954327875422393, 39.847097692993849 ], [ -121.953968549792151, 39.847097692843711 ], [ -121.953699055428899, 39.847367187320472 ], [ -121.953699055195898, 39.847726513161994 ], [ -121.953429559945704, 39.847726512904806 ] ], [ [ -121.953339728300861, 39.847277355448966 ], [ -121.953339728527496, 39.847007860925785 ], [ -121.953609223355869, 39.847007860894415 ], [ -121.953609223708199, 39.84673836616188 ], [ -121.95298040246675, 39.846738366756334 ], [ -121.952980403045203, 39.847277355908659 ], [ -121.953339728300861, 39.847277355448966 ] ] ] } },
{ "type": "Feature", "properties": { "csb_id": "061825007809341", "acres": 2.9377068939525399, "geoid": "06007" }, "geometry": { "type": "Polygon", "coordinates": [ [ [ -121.981456996842397, 39.830928017341819 ], [ -121.981456997420523, 39.831556838558249 ], [ -121.980828176773201, 39.831826333040809 ], [ -121.979929861046912, 39.831826333146061 ], [ -121.979660366566407, 39.831556838007273 ], [ -121.979660367179235, 39.831197512090249 ], [ -121.980558681864068, 39.831197512467632 ], [ -121.980558682159625, 39.83092801761817 ], [ -121.981456996842397, 39.830928017341819 ] ] ] } },
{ "type": "Feature", "properties": { "csb_id": "061825007809356", "acres": 3.8477437318571699, "geoid": "06007" }, "geometry": { "type": "Polygon", "coordinates": [ [ [ -121.911927394218338, 39.831556838215675 ], [ -121.911568067586671, 39.832634816374409 ], [ -121.911298573002725, 39.832634816296292 ], [ -121.911029078387259, 39.832455153314335 ], [ -121.911029078532778, 39.831197511784566 ], [ -121.910400258819067, 39.831197511998703 ], [ -121.910400258789494, 39.830928017322407 ], [ -121.911029079376206, 39.83029919692693 ], [ -121.91129857347552, 39.830299196760727 ], [ -121.91165790006994, 39.830658523192902 ], [ -121.911657899634434, 39.830928017080574 ], [ -121.911298574055408, 39.830928017561227 ], [ -121.911298573182464, 39.831556837911009 ], [ -121.911927394218338, 39.831556838215675 ] ] ] } },
{ "type": "Feature", "properties": { "csb_id": "061825007809460", "acres": 14.054395107866201, "geoid": "06007" }, "geometry": { "type": "Polygon", "coordinates": [ [ [ -121.979929860788729, 39.827873745263425 ], [ -121.979031545448166, 39.828143239777049 ], [ -121.97903154573639, 39.828502566222788 ], [ -121.97840272524067, 39.828502566532762 ], [ -121.978402725294416, 39.82787374517833 ], [ -121.977773904121008, 39.8278737455027 ], [ -121.977773904564216, 39.828143240411379 ], [ -121.976246768038195, 39.828143239982822 ], [ -121.975617947697273, 39.827873745737946 ], [ -121.975617947798881, 39.827244925073373 ], [ -121.976246768239179, 39.827244925268893 ], [ -121.976246768658072, 39.826975430567366 ], [ -121.976606094770915, 39.826705935934307 ], [ -121.97777390424433, 39.826705935699074 ], [ -121.978402725509795, 39.826346609476253 ], [ -121.978672220468397, 39.826346609638399 ], [ -121.978672220181792, 39.826975430207483 ], [ -121.979031546044297, 39.826975430040441 ], [ -121.979031546066793, 39.826705936020296 ], [ -121.979660366707577, 39.826705935684366 ], [ -121.979660366770474, 39.82697543018638 ], [ -121.979301040271423, 39.826975430434757 ], [ -121.97930104012336, 39.827244924726713 ], [ -121.979660366538823, 39.827604250891362 ], [ -121.980199355800508, 39.82760425108399 ], [ -121.980558682376056, 39.827873745174145 ], [ -121.980828177096839, 39.82814324033103 ], [ -121.980828176323143, 39.828502566126417 ], [ -121.979929861777592, 39.828502566449373 ], [ -121.979929860788729, 39.827873745263425 ] ] ] } },
{ "type": "Feature", "properties": { "csb_id": "061825007809517", "acres": 3.4688147492098498, "geoid": "06007" }, "geometry": { "type": "Polygon", "coordinates": [ [ [ -121.869167586385373, 39.823831327150693 ], [ -121.86925741761641, 39.823292337539264 ], [ -121.869167587057362, 39.823022842584535 ], [ -121.868538765664951, 39.822573685071255 ], [ -121.868628598033183, 39.822124527308702 ], [ -121.87006590210396, 39.822124527272862 ], [ -121.870065902010936, 39.822573685462565 ], [ -121.869437081597326, 39.822573685606436 ], [ -121.869437080449245, 39.823202506083803 ], [ -121.870335396554864, 39.823651663323361 ], [ -121.870155733308493, 39.823831326398931 ], [ -121.869167586385373, 39.823831327150693 ] ] ] } },
{ "type": "Feature", "properties": { "csb_id": "061825007809573", "acres": 3.8101430479566498, "geoid": "06007" }, "geometry": { "type": "Polygon", "coordinates": [ [ [ -121.9216291990071, 39.820777054550582 ], [ -121.921090209627337, 39.820866886232409 ], [ -121.919473242429305, 39.820507559864396 ], [ -121.919473242423123, 39.820238065696479 ], [ -121.919742737884732, 39.819878739593975 ], [ -121.920371557907217, 39.819878739217756 ], [ -121.920641052291288, 39.820507560003591 ], [ -121.92100037889422, 39.82050756046533 ], [ -121.921000378932789, 39.820148233598751 ], [ -121.921269873549221, 39.820148233519468 ], [ -121.92216818897856, 39.820507560250256 ], [ -121.922168188611565, 39.821046549327342 ], [ -121.921629199960222, 39.821046549362819 ], [ -121.9216291990071, 39.820777054550582 ] ] ] } },
{ "type": "Feature", "properties": { "csb_id": "061825007809615", "acres": 20.586172866761, "geoid": "06007" }, "geometry": { "type": "Polygon", "coordinates": [ [ [ -121.975977274265219, 39.822663516541269 ], [ -121.975977273398541, 39.822124528079222 ], [ -121.976246768612754, 39.82212452725679 ], [ -121.976606094102465, 39.821765201370859 ], [ -121.976875589703397, 39.821136381189902 ], [ -121.976875589821503, 39.819609244698157 ], [ -121.97750440954664, 39.819609244970827 ], [ -121.977504410042755, 39.819070255413855 ], [ -121.978133231188195, 39.819070255869192 ], [ -121.978133230707328, 39.81933975025489 ], [ -121.978402724846205, 39.819339750232643 ], [ -121.978402725398453, 39.818710929358943 ], [ -121.981097670717944, 39.818710928552335 ], [ -121.981097670807898, 39.818980424206352 ], [ -121.981636659872734, 39.819070255749921 ], [ -121.980558682190065, 39.819339750570393 ], [ -121.980558681864778, 39.819968570928644 ], [ -121.980199356344656, 39.820238065875941 ], [ -121.979660367054478, 39.820238065354992 ], [ -121.979031546067588, 39.820597391945512 ], [ -121.978402725693428, 39.820597391139664 ], [ -121.978402725615553, 39.821136380530369 ], [ -121.977773904709991, 39.82113638124833 ], [ -121.9777739043368, 39.821765201561732 ], [ -121.978133230102515, 39.821765201243458 ], [ -121.978133230599852, 39.822394022205891 ], [ -121.976875589282315, 39.822394022288996 ], [ -121.976875588948843, 39.822663516948879 ], [ -121.975977274265219, 39.822663516541269 ] ] ] } },
{ "type": "Feature", "properties": { "csb_id": "061825007809617", "acres": 14.2360104630751, "geoid": "06007" }, "geometry": { "type": "Polygon", "coordinates": [ [ [ -121.876803266819792, 39.820148234403703 ], [ -121.876803267320028, 39.819878739701792 ], [ -121.876443940461968, 39.819878739461018 ], [ -121.876443940886446, 39.820148233682922 ], [ -121.876803266819792, 39.820148234403703 ], [ -121.876803267076809, 39.820507559907604 ], [ -121.875635456793248, 39.82059739128492 ], [ -121.875545624800296, 39.820777054813483 ], [ -121.874287984055968, 39.820777055099299 ], [ -121.872491352838267, 39.820507560070759 ], [ -121.872491353230416, 39.82014823434897 ], [ -121.873748993489016, 39.820148234091434 ], [ -121.873748994577625, 39.819878739830443 ], [ -121.873120173582123, 39.819878739435531 ], [ -121.873120173960785, 39.819249918760157 ], [ -121.873748994318788, 39.819249919054663 ], [ -121.87383882598678, 39.819070255688636 ], [ -121.877342255660892, 39.81898042449501 ], [ -121.8774320875265, 39.819878739417511 ], [ -121.876803266819792, 39.820148234403703 ] ], [ [ -121.875006635981876, 39.819968570996203 ], [ -121.875006635799394, 39.819609244675497 ], [ -121.874287984354837, 39.819609245013297 ], [ -121.87428798414976, 39.819878739483634 ], [ -121.874647309929671, 39.820148234380213 ], [ -121.875365962533593, 39.82014823380473 ], [ -121.875365961703551, 39.8199685710537 ], [ -121.875006635981876, 39.819968570996203 ] ], [ [ -121.875365962314135, 39.819609245112545 ], [ -121.875545625571533, 39.819609244945369 ], [ -121.875545625924175, 39.819339750405263 ], [ -121.875365961887439, 39.819339749952931 ], [ -121.875365962314135, 39.819609245112545 ] ] ] } },
{ "type": "Feature", "properties": { "csb_id": "061825007809860", "acres": 15.6970285106623, "geoid": "06007" }, "geometry": { "type": "Polygon", "coordinates": [ [ [ -121.86090308664501, 39.810446429266392 ], [ -121.860903086316526, 39.810176934528052 ], [ -121.860723423616435, 39.810176934346849 ], [ -121.86072342327202, 39.810446429085232 ], [ -121.86090308664501, 39.810446429266392 ], [ -121.860903085849898, 39.810985418214727 ], [ -121.861172580657509, 39.810985418483995 ], [ -121.861172580716371, 39.811344744677143 ], [ -121.860274265256393, 39.811344744167926 ], [ -121.860274265343307, 39.810536260079502 ], [ -121.860126710018264, 39.810311286873478 ], [ -121.857938645780479, 39.810087103073677 ], [ -121.857938645245383, 39.809907440024844 ], [ -121.858567465852516, 39.809907439772957 ], [ -121.858567466499949, 39.809548113616145 ], [ -121.858208140903088, 39.809458282330148 ], [ -121.858208140879654, 39.809009124681992 ], [ -121.858567466824937, 39.808649798270729 ], [ -121.860094601845233, 39.808649798516406 ], [ -121.860094602423914, 39.808020977954016 ], [ -121.860723422649372, 39.8080209773955 ], [ -121.860723423052534, 39.808380303522199 ], [ -121.861262412585091, 39.80838030385415 ], [ -121.86126241207765, 39.808020978107322 ], [ -121.861531906950205, 39.808020978024949 ], [ -121.861531907535607, 39.810176934616223 ], [ -121.861172580569189, 39.810446429295801 ], [ -121.86090308664501, 39.810446429266392 ] ] ] } },
{ "type": "Feature", "properties": { "csb_id": "061825007810031", "acres": 8.3147580577691205, "geoid": "06007" }, "geometry": { "type": "Polygon", "coordinates": [ [ [ -121.871952364430896, 39.799846308625462 ], [ -121.870784554040185, 39.799846308279541 ], [ -121.870784554162029, 39.798319173069864 ], [ -121.87096421693029, 39.798319172959907 ], [ -121.870964217811334, 39.797600520333212 ], [ -121.87159303816351, 39.797600520161097 ], [ -121.871862532603359, 39.797331025687129 ], [ -121.872311690114984, 39.797331026128496 ], [ -121.872311691069783, 39.800115803299668 ], [ -121.871952363681501, 39.800025972099711 ], [ -121.871952364430896, 39.799846308625462 ] ] ] } },
{ "type": "Feature", "properties": { "csb_id": "061825007810463", "acres": 15.6147729257035, "geoid": "06007" }, "geometry": { "type": "Polygon", "coordinates": [ [ [ -121.889649175847026, 39.784215622887459 ], [ -121.889379681034171, 39.783676633535364 ], [ -121.889918669762736, 39.783047813125179 ], [ -121.890277995667077, 39.783047812994859 ], [ -121.890277995609566, 39.78241899258029 ], [ -121.890547490972452, 39.782149497504605 ], [ -121.89090681674773, 39.782149497431405 ], [ -121.890906817032885, 39.781251181989759 ], [ -121.891086479905624, 39.781161350640389 ], [ -121.891086479598883, 39.779903708923435 ], [ -121.891445805961013, 39.779903709442827 ], [ -121.891445805517236, 39.780891856382972 ], [ -121.892972942219799, 39.781520676400461 ], [ -121.892972942103881, 39.781969834072584 ], [ -121.893194055909206, 39.782442239245903 ], [ -121.890367827016476, 39.784215622964147 ], [ -121.889649175847026, 39.784215622887459 ] ] ] } },
{ "type": "Feature", "properties": { "csb_id": "061825007810540", "acres": 5.0643251637565001, "geoid": "06007" }, "geometry": { "type": "Polygon", "coordinates": [ [ [ -121.846080883422033, 39.77783758427303 ], [ -121.845721557751588, 39.777837583715204 ], [ -121.845721557188099, 39.778196910120073 ], [ -121.846080884335677, 39.778196909818284 ], [ -121.846080883422033, 39.77783758427303 ], [ -121.846350378195936, 39.777837584600761 ], [ -121.846350378185207, 39.778196910625496 ], [ -121.846979198680444, 39.778196909938032 ], [ -121.846979199273221, 39.777837584053707 ], [ -121.846619872969811, 39.777837584349641 ], [ -121.846619873387482, 39.777568089566046 ], [ -121.84715886186693, 39.777568089905728 ], [ -121.847518188176636, 39.778107078621879 ], [ -121.847787682639279, 39.778107078920307 ], [ -121.847877514500524, 39.777568089255489 ], [ -121.848147009531445, 39.777568089162145 ], [ -121.848506335591495, 39.77783758415265 ], [ -121.848506335496253, 39.778196910615819 ], [ -121.847608019623266, 39.778196910636424 ], [ -121.847608020318845, 39.778466405109135 ], [ -121.845092737312584, 39.778466404415013 ], [ -121.844823242603667, 39.778196910310271 ], [ -121.844823242795471, 39.777837584004651 ], [ -121.845092736764286, 39.77756809001059 ], [ -121.846080883587916, 39.777568089968874 ], [ -121.846080883422033, 39.77783758427303 ] ] ] } },
{ "type": "Feature", "properties": { "csb_id": "061825007811013", "acres": 7.9304694370840698, "geoid": "06007" }, "geometry": { "type": "Polygon", "coordinates": [ [ [ -121.935014097116706, 39.760589930835231 ], [ -121.933217465825209, 39.760500098865315 ], [ -121.933846287258675, 39.760050941865835 ], [ -121.93384628750826, 39.7586136365654 ], [ -121.935373422885959, 39.758523805247123 ], [ -121.935373422031077, 39.759871278482677 ], [ -121.935642917650497, 39.759871278259041 ], [ -121.93564291806463, 39.76041026765472 ], [ -121.935014097116706, 39.760589930835231 ] ] ] } },
{ "type": "Feature", "properties": { "csb_id": "061825012210608", "acres": 14.825688380362999, "geoid": "06007" }, "geometry": { "type": "Polygon", "coordinates": [ [ [ -121.658332953827895, 39.855898279672374 ], [ -121.65833295313783, 39.855628784740254 ], [ -121.658153290782025, 39.855538954315534 ], [ -121.657524470576476, 39.855538955107498 ], [ -121.657524470510012, 39.855808449553024 ], [ -121.657165144008744, 39.855808448053281 ], [ -121.657165143644974, 39.855628785976869 ], [ -121.656626154835564, 39.855269459573883 ], [ -121.656626154629336, 39.854281313251207 ], [ -121.658153290977637, 39.85428131139868 ], [ -121.65842278475219, 39.853742321730245 ], [ -121.659590595850858, 39.853742323344399 ], [ -121.659590595256347, 39.85401181838612 ], [ -121.659949921102921, 39.854281311989688 ], [ -121.660848236469775, 39.854281311842691 ], [ -121.659680426644485, 39.855628785206157 ], [ -121.659500763095934, 39.856257605531113 ], [ -121.658602448830067, 39.856167773982847 ], [ -121.658332953827895, 39.855898279672374 ] ] ] } },
{ "type": "Feature", "properties": { "csb_id": "061825012210609", "acres": 9.1796762815653903, "geoid": "06007" }, "geometry": { "type": "Polygon", "coordinates": [ [ [ -121.654919355833187, 39.855359290465088 ], [ -121.654919355661434, 39.85499996399983 ], [ -121.655278681289772, 39.854999963854318 ], [ -121.655548176496296, 39.854730469383469 ], [ -121.655548175770321, 39.854371143400343 ], [ -121.654649860811787, 39.854371143279891 ], [ -121.654649860773588, 39.854730469409176 ], [ -121.653482050927906, 39.854730469156571 ], [ -121.653122725035473, 39.854281311862515 ], [ -121.654200703915592, 39.854281311830285 ], [ -121.654200702991417, 39.854011817601048 ], [ -121.655727839271421, 39.854011817205475 ], [ -121.655727839758555, 39.853742322439793 ], [ -121.656895649691577, 39.85374232250544 ], [ -121.65689564968153, 39.85338299696835 ], [ -121.659500763746919, 39.853472827822891 ], [ -121.659590594766755, 39.853203333831502 ], [ -121.659590595850858, 39.853742323344399 ], [ -121.65842278475219, 39.853742321730245 ], [ -121.65833295335085, 39.85401181767547 ], [ -121.657973627103132, 39.853472828421211 ], [ -121.657344806656624, 39.853472828443515 ], [ -121.657344806710597, 39.854281310674125 ], [ -121.656805817256483, 39.854281311917376 ], [ -121.656805817647708, 39.85383215446975 ], [ -121.656176997397637, 39.853832154427316 ], [ -121.656176997142552, 39.854101648581342 ], [ -121.655907502423943, 39.854101648514266 ], [ -121.655907502610091, 39.854371143321906 ], [ -121.656626154960009, 39.854371143137072 ], [ -121.656626154835564, 39.855269459573883 ], [ -121.657165143644974, 39.855628785976869 ], [ -121.656176997293542, 39.855628784850872 ], [ -121.656176997548641, 39.855359290518315 ], [ -121.654919355833187, 39.855359290465088 ] ] ] } },
{ "type": "Feature", "properties": { "csb_id": "061825012210610", "acres": 4.5493243616223999, "geoid": "06007" }, "geometry": { "type": "Polygon", "coordinates": [ [ [ -121.661027899340183, 39.854281311825446 ], [ -121.659949921102921, 39.854281311989688 ], [ -121.659590595256347, 39.85401181838612 ], [ -121.659590594766755, 39.853203333831502 ], [ -121.660399078584774, 39.853113502498935 ], [ -121.660578742153561, 39.853382996134293 ], [ -121.661477056771957, 39.853382996703637 ], [ -121.66147705774577, 39.853113502027199 ], [ -121.661746552028617, 39.853113502421706 ], [ -121.661686196121209, 39.853681967134683 ], [ -121.661027899340183, 39.854281311825446 ] ] ] } },
{ "type": "Feature", "properties": { "csb_id": "061825012210611", "acres": 4.8314932417623204, "geoid": "06007" }, "geometry": { "type": "Polygon", "coordinates": [ [ [ -121.655727839758555, 39.853742322439793 ], [ -121.65572783975864, 39.853113501680355 ], [ -121.655997333361967, 39.853113502517047 ], [ -121.655997332142178, 39.852484681690868 ], [ -121.656266826717314, 39.852215187269941 ], [ -121.656266827113384, 39.852484682095302 ], [ -121.657165142574399, 39.852844007958289 ], [ -121.658153289792011, 39.852844007930074 ], [ -121.658422786121406, 39.853113502231082 ], [ -121.658422784560386, 39.85338299648518 ], [ -121.65689564968153, 39.85338299696835 ], [ -121.656895649691577, 39.85374232250544 ], [ -121.655727839758555, 39.853742322439793 ] ] ] } },
{ "type": "Feature", "properties": { "csb_id": "061825012210612", "acres": 13.4196701475695, "geoid": "06007" }, "geometry": { "type": "Polygon", "coordinates": [ [ [ -121.655727839271421, 39.854011817205475 ], [ -121.654200702991417, 39.854011817601048 ], [ -121.654200703915592, 39.854281311830285 ], [ -121.653122725035473, 39.854281311862515 ], [ -121.653090266369688, 39.853637139382364 ], [ -121.652943061355217, 39.853562659672583 ], [ -121.652943061393131, 39.854281311843678 ], [ -121.652673567380702, 39.854281311955702 ], [ -121.65204474673348, 39.854011817197247 ], [ -121.651954915663993, 39.853382996881088 ], [ -121.652044746989475, 39.853203333583458 ], [ -121.653122723428865, 39.85311350260519 ], [ -121.654200702916057, 39.852215186775496 ], [ -121.655727839109247, 39.852215186742782 ], [ -121.655727839758683, 39.852484681092172 ], [ -121.655997332142178, 39.852484681690868 ], [ -121.655997333361967, 39.853113502517047 ], [ -121.65572783975864, 39.853113501680355 ], [ -121.655727839271421, 39.854011817205475 ] ] ] } },
{ "type": "Feature", "properties": { "csb_id": "061825012210613", "acres": 13.2820459161155, "geoid": "06007" }, "geometry": { "type": "Polygon", "coordinates": [ [ [ -121.66057874214296, 39.852484681231779 ], [ -121.660578741622231, 39.852215186752339 ], [ -121.660219415661132, 39.852215186526927 ], [ -121.660219416286438, 39.852484681628418 ], [ -121.66057874214296, 39.852484681231779 ], [ -121.66057874142669, 39.852844007857371 ], [ -121.659500763650641, 39.852933839233003 ], [ -121.658422784560386, 39.85338299648518 ], [ -121.658422786121406, 39.853113502231082 ], [ -121.658153289792011, 39.852844007930074 ], [ -121.657165142574399, 39.852844007958289 ], [ -121.656266827113384, 39.852484682095302 ], [ -121.656266828083503, 39.851855860488349 ], [ -121.657793964630898, 39.851855860511279 ], [ -121.657793964583021, 39.852215186762784 ], [ -121.658422784698246, 39.852215186887669 ], [ -121.658422785328455, 39.851855860782081 ], [ -121.658602448607041, 39.851676197505519 ], [ -121.659321099980914, 39.851586366279342 ], [ -121.661477057161719, 39.851586366165215 ], [ -121.66201604618621, 39.851855860451678 ], [ -121.662016046339403, 39.852215186449527 ], [ -121.66057874214296, 39.852484681231779 ] ] ] } },
{ "type": "Feature", "properties": { "csb_id": "061825012210614", "acres": 2.76634801700038, "geoid": "06007" }, "geometry": { "type": "Polygon", "coordinates": [ [ [ -121.661477057161719, 39.851586366165215 ], [ -121.659770257881334, 39.851586365687425 ], [ -121.659770258143382, 39.851406703371595 ], [ -121.660668573587373, 39.851406702528735 ], [ -121.660668573032808, 39.851047377224845 ], [ -121.661027899540201, 39.850777881907057 ], [ -121.661656720513108, 39.85077788247218 ], [ -121.661656720212591, 39.851047376876124 ], [ -121.662016046772521, 39.85104737719719 ], [ -121.66201604618621, 39.851855860451678 ], [ -121.661477057161719, 39.851586366165215 ] ] ] } },
{ "type": "Feature", "properties": { "csb_id": "061825012210687", "acres": 2.9640267379934802, "geoid": "06007" }, "geometry": { "type": "Polygon", "coordinates": [ [ [ -121.625364782636609, 39.657909590693052 ], [ -121.625274951414241, 39.657370602562139 ], [ -121.624376636146422, 39.657370601582947 ], [ -121.624376635246534, 39.657550265807799 ], [ -121.624196972926754, 39.657550266072349 ], [ -121.624017309332118, 39.657280770578382 ], [ -121.624017309989554, 39.656741781762094 ], [ -121.62464613018679, 39.656741780547996 ], [ -121.624646130589142, 39.656472286134694 ], [ -121.625544444416903, 39.656651950500382 ], [ -121.625274951130208, 39.656741781575278 ], [ -121.625274951420266, 39.657101106750744 ], [ -121.625993603404581, 39.657550265115979 ], [ -121.625813940605511, 39.657640096495328 ], [ -121.625813940853746, 39.657909590877821 ], [ -121.625364782636609, 39.657909590693052 ] ] ] } },
{ "type": "Feature", "properties": { "csb_id": "061825012210699", "acres": 6.4578611484133299, "geoid": "06007" }, "geometry": { "type": "Polygon", "coordinates": [ [ [ -121.647104012103654, 39.644973850551203 ], [ -121.647104013081886, 39.644614524256397 ], [ -121.647373506809515, 39.644345030171365 ], [ -121.647643002236521, 39.644075535679249 ], [ -121.648002328430465, 39.644075535609673 ], [ -121.648092159772119, 39.64299755714643 ], [ -121.647822664701309, 39.642728062788194 ], [ -121.647463339240943, 39.642728062671758 ], [ -121.647463339041764, 39.642458567618029 ], [ -121.648900642553585, 39.642458567826147 ], [ -121.64917013787263, 39.642728062271956 ], [ -121.649080306684041, 39.64344671496832 ], [ -121.648092159189716, 39.64497385030694 ], [ -121.647104012103654, 39.644973850551203 ] ] ] } },
{ "type": "Feature", "properties": { "csb_id": "061825012210721", "acres": 6.1306369949355597, "geoid": "06007" }, "geometry": { "type": "Polygon", "coordinates": [ [ [ -121.636773386319334, 39.622515968511216 ], [ -121.636773386665425, 39.622246474435869 ], [ -121.637042882056761, 39.622246474348941 ], [ -121.637042881995669, 39.621887147857734 ], [ -121.635964903016429, 39.621797316054895 ], [ -121.635964902553468, 39.6221566424434 ], [ -121.636324229423238, 39.622156642640434 ], [ -121.636324228845467, 39.622426137329349 ], [ -121.635695408909783, 39.622426136765483 ], [ -121.635695408324381, 39.621527821864397 ], [ -121.636773386846514, 39.621617653307709 ], [ -121.636773386994733, 39.621258327135166 ], [ -121.636144565788243, 39.621258327527379 ], [ -121.636144565590868, 39.620988832328784 ], [ -121.637671702170138, 39.620988832636705 ], [ -121.637941196686612, 39.621258327388119 ], [ -121.637941196669871, 39.623144788921586 ], [ -121.637671702141432, 39.623144789130947 ], [ -121.637671701527509, 39.62278546290861 ], [ -121.636773386319334, 39.622515968511216 ] ] ] } },
{ "type": "Feature", "properties": { "csb_id": "061825012210857", "acres": 5.8604680137494203, "geoid": "06007" }, "geometry": { "type": "Polygon", "coordinates": [ [ [ -121.491964962860621, 39.515975775915493 ], [ -121.491425974759792, 39.514807966831036 ], [ -121.491425973791607, 39.514179145280671 ], [ -121.491695468361726, 39.513909650685044 ], [ -121.491964962671673, 39.51390965095716 ], [ -121.493222603790642, 39.514538471151461 ], [ -121.493162248834295, 39.514927273331004 ], [ -121.492593784198831, 39.515526617951089 ], [ -121.492593783600327, 39.515706281445013 ], [ -121.492324289584261, 39.515975775466885 ], [ -121.491964962860621, 39.515975775915493 ] ] ] } },
{ "type": "Feature", "properties": { "csb_id": "061825012210867", "acres": 3.7509976376032999, "geoid": "06007" }, "geometry": { "type": "Polygon", "coordinates": [ [ [ -121.482891979133896, 39.507801106693307 ], [ -121.48073602177945, 39.507801106481622 ], [ -121.480736022065855, 39.507262117691795 ], [ -121.481364842768286, 39.507262117763403 ], [ -121.481544505740402, 39.506992622855584 ], [ -121.482891978340717, 39.50699262292374 ], [ -121.482891979133896, 39.507801106693307 ] ] ] } },
{ "type": "Feature", "properties": { "csb_id": "061825012210875", "acres": 3.2660655377632599, "geoid": "06007" }, "geometry": { "type": "Polygon", "coordinates": [ [ [ -121.473369836879897, 39.494506040649512 ], [ -121.473369836281123, 39.49432637750548 ], [ -121.473818993745141, 39.493967051233817 ], [ -121.474986804616037, 39.493967051204471 ], [ -121.474986804019309, 39.495134861145765 ], [ -121.474627478231795, 39.495134860971739 ], [ -121.473369836879897, 39.494506040649512 ] ] ] } },
{ "type": "Feature", "properties": { "csb_id": "061825012211193", "acres": 5.8026027237558804, "geoid": "06007" }, "geometry": { "type": "Polygon", "coordinates": [ [ [ -121.704775854383072, 39.450219096974969 ], [ -121.70297922373544, 39.45021909717147 ], [ -121.702889391918262, 39.449410613688883 ], [ -121.703428381032921, 39.449410613346892 ], [ -121.703428381376753, 39.449141118433289 ], [ -121.705314843297259, 39.449141118266375 ], [ -121.705135179362486, 39.450398759922003 ], [ -121.704775854174997, 39.450398760082713 ], [ -121.704775854383072, 39.450219096974969 ] ] ] } },
{ "type": "Feature", "properties": { "csb_id": "061825012211581", "acres": 3.9172425891581599, "geoid": "06007" }, "geometry": { "type": "Polygon", "coordinates": [ [ [ -121.35425322983086, 39.426952731626749 ], [ -121.354522724681885, 39.426952731219203 ], [ -121.355421040016537, 39.42785104643076 ], [ -121.355421040236251, 39.428210372963783 ], [ -121.355151545735595, 39.428210372412543 ], [ -121.354882050703281, 39.428479867319105 ], [ -121.354882050507129, 39.428839193448347 ], [ -121.354253230162911, 39.428839192922993 ], [ -121.353893903542115, 39.428479867735 ], [ -121.353893904362863, 39.428210372401288 ], [ -121.354253229881309, 39.428210373026474 ], [ -121.35425322983086, 39.426952731626749 ] ] ] } },
{ "type": "Feature", "properties": { "csb_id": "061825012212255", "acres": 3.95022976736335, "geoid": "06007" }, "geometry": { "type": "Polygon", "coordinates": [ [ [ -121.416057321835069, 39.40000327293486 ], [ -121.417584457345328, 39.400003272564277 ], [ -121.418123447056644, 39.400632093583894 ], [ -121.41873086254536, 39.400952206082515 ], [ -121.418842099032403, 39.401260914121323 ], [ -121.417584457352007, 39.401260914239579 ], [ -121.417584457394369, 39.40090158812334 ], [ -121.417314962881861, 39.400632093428939 ], [ -121.416416647450745, 39.400632093627415 ], [ -121.416416647021776, 39.400272767033776 ], [ -121.416057321999034, 39.400272766915649 ], [ -121.416057321835069, 39.40000327293486 ] ] ] } },
{ "type": "Feature", "properties": { "csb_id": "061825014736114", "acres": 6.4328014783146896, "geoid": "06007" }, "geometry": { "type": "Polygon", "coordinates": [ [ [ -121.962371034949044, 39.748366780421442 ], [ -121.962371035365365, 39.748007454614417 ], [ -121.962640529864743, 39.748007453917367 ], [ -121.962640529811821, 39.747109139143589 ], [ -121.962999856061813, 39.7471091390886 ], [ -121.962999856516319, 39.745671834482074 ], [ -121.963538845635341, 39.745671834409571 ], [ -121.963808339396422, 39.746210823590481 ], [ -121.963808339243172, 39.746839644025414 ], [ -121.964437160856917, 39.746839643936646 ], [ -121.964706655333245, 39.747109138524728 ], [ -121.964706654595844, 39.747468464892258 ], [ -121.963538845336487, 39.74746846438736 ], [ -121.963269350414549, 39.74773795969265 ], [ -121.963269350408453, 39.748366780406407 ], [ -121.962371034949044, 39.748366780421442 ] ] ] } },
{ "type": "Feature", "properties": { "csb_id": "061825014736985", "acres": 9.1026624568598198, "geoid": "06007" }, "geometry": { "type": "Polygon", "coordinates": [ [ [ -121.915568809293489, 39.718812207601879 ], [ -121.915568808820936, 39.717913891581688 ], [ -121.915838303341033, 39.717913892527619 ], [ -121.9158383040117, 39.717554565554906 ], [ -121.917994260477258, 39.717554565672714 ], [ -121.917994260321919, 39.716656250098808 ], [ -121.918263754307191, 39.716656250505977 ], [ -121.918263755115106, 39.718183386411013 ], [ -121.918623078473971, 39.718452881536813 ], [ -121.91862308116977, 39.719081701607031 ], [ -121.917994260741324, 39.719081702868678 ], [ -121.91799426037764, 39.718812207144026 ], [ -121.915568809293489, 39.718812207601879 ] ] ] } },
{ "type": "Feature", "properties": { "csb_id": "061825014737764", "acres": 4.7096252961382303, "geoid": "06007" }, "geometry": { "type": "Polygon", "coordinates": [ [ [ -121.812172719587792, 39.69401870519382 ], [ -121.812172719896211, 39.693479715791575 ], [ -121.812442214401315, 39.693479715903919 ], [ -121.812442214334695, 39.693120390397269 ], [ -121.811813393389912, 39.693120390604641 ], [ -121.811813393802851, 39.692581401006017 ], [ -121.813610024836294, 39.6925814008993 ], [ -121.813610024615002, 39.692222074318551 ], [ -121.813969350139942, 39.692850895997026 ], [ -121.813969350404733, 39.693120390097597 ], [ -121.813610024349188, 39.693479716396652 ], [ -121.813071034894108, 39.693479716077675 ], [ -121.81271170850053, 39.693749210602817 ], [ -121.812711709228211, 39.694018705557163 ], [ -121.812172719587792, 39.69401870519382 ] ] ] } },
{ "type": "Feature", "properties": { "csb_id": "061825014738592", "acres": 3.4954742196264998, "geoid": "06007" }, "geometry": { "type": "Polygon", "coordinates": [ [ [ -121.976474585578757, 39.669045540751469 ], [ -121.976474585259353, 39.668416719497387 ], [ -121.976744079578182, 39.667787899035844 ], [ -121.977642395508198, 39.667787899370566 ], [ -121.978271215394287, 39.668147225451619 ], [ -121.97827121548319, 39.66841672034441 ], [ -121.977642394867274, 39.668416720067633 ], [ -121.977103405741119, 39.669045540739155 ], [ -121.976474585578757, 39.669045540751469 ] ] ] } },
{ "type": "Feature", "properties": { "csb_id": "061825014739260", "acres": 3.6864694069744002, "geoid": "06007" }, "geometry": { "type": "Polygon", "coordinates": [ [ [ -121.802111588920113, 39.649102941012131 ], [ -121.802111588686429, 39.648474120556799 ], [ -121.803908220182507, 39.648474121790734 ], [ -121.803908219713264, 39.649372435846459 ], [ -121.802470914941537, 39.64937243564269 ], [ -121.802111588920113, 39.649102941012131 ] ] ] } },
{ "type": "Feature", "properties": { "csb_id": "061825014739313", "acres": 3.5630192164216701, "geoid": "06007" }, "geometry": { "type": "Polygon", "coordinates": [ [ [ -121.795464055366494, 39.647935131199965 ], [ -121.795464055437463, 39.647306310224501 ], [ -121.79582338126589, 39.647575805538246 ], [ -121.795823382147518, 39.647306310653462 ], [ -121.79618270772464, 39.647306310290745 ], [ -121.796182707578765, 39.647036816292236 ], [ -121.797440348699439, 39.647036815761993 ], [ -121.797530181263411, 39.647935131369636 ], [ -121.795464055366494, 39.647935131199965 ] ], [ [ -121.796991191881787, 39.647306310922971 ], [ -121.796721696469788, 39.647306310512263 ], [ -121.796721696364116, 39.647575805015855 ], [ -121.79699119133501, 39.647575804806138 ], [ -121.796991191881787, 39.647306310922971 ] ] ] } },
{ "type": "Feature", "properties": { "csb_id": "061825014739690", "acres": 4.7703958171381, "geoid": "06007" }, "geometry": { "type": "Polygon", "coordinates": [ [ [ -121.765011167638846, 39.638233326002656 ], [ -121.765011167529252, 39.637963831539473 ], [ -121.764831504745118, 39.637963831866919 ], [ -121.764831503957851, 39.63733501138055 ], [ -121.765370493579638, 39.636706190570123 ], [ -121.765729819276856, 39.636436695563006 ], [ -121.766268809246398, 39.636436695527486 ], [ -121.766268809208967, 39.636706189937513 ], [ -121.766897629603093, 39.636706190498984 ], [ -121.766897629019098, 39.63733501122671 ], [ -121.765729818732851, 39.637335010890098 ], [ -121.765639987809408, 39.637963831491994 ], [ -121.765370494046678, 39.638233326532884 ], [ -121.765011167638846, 39.638233326002656 ] ] ] } },
{ "type": "Feature", "properties": { "csb_id": "061825014739716", "acres": 4.7038666739674104, "geoid": "06007" }, "geometry": { "type": "Polygon", "coordinates": [ [ [ -121.91736543939858, 39.638233325936753 ], [ -121.917365439983627, 39.637963831292275 ], [ -121.916826450040674, 39.637963831748387 ], [ -121.916826450881487, 39.637335011196001 ], [ -121.916197629388492, 39.637335011326734 ], [ -121.916197629416658, 39.636706190400751 ], [ -121.917994260186319, 39.636706190147002 ], [ -121.917994260616183, 39.63796383127633 ], [ -121.9177247653611, 39.638233326623315 ], [ -121.91736543939858, 39.638233325936753 ] ] ] } },
{ "type": "Feature", "properties": { "csb_id": "061825014739774", "acres": 14.739030047587301, "geoid": "06007" }, "geometry": { "type": "Polygon", "coordinates": [ [ [ -121.914131504195623, 39.637694337055834 ], [ -121.913143357395271, 39.637065516578161 ], [ -121.913143357240827, 39.636436695844623 ], [ -121.913502684040395, 39.636436695450413 ], [ -121.913502684520608, 39.636167201287449 ], [ -121.912873863238858, 39.636167200741689 ], [ -121.912873862920833, 39.635807875173732 ], [ -121.914311167730943, 39.635807874836878 ], [ -121.914311167362968, 39.635448548733144 ], [ -121.915568808654712, 39.635268885561089 ], [ -121.917724765390005, 39.634640065638706 ], [ -121.917724766147572, 39.634909559958466 ], [ -121.917365439941435, 39.634909560058823 ], [ -121.917095944893219, 39.635538380092456 ], [ -121.917095945586382, 39.63616720133502 ], [ -121.91619762930506, 39.636167200781387 ], [ -121.916197629547369, 39.635807875286318 ], [ -121.915568808913093, 39.635807874903051 ], [ -121.915568808716316, 39.637065516044494 ], [ -121.914670494239672, 39.637065516602604 ], [ -121.914670493340097, 39.637963831959091 ], [ -121.914131504932669, 39.637963831608324 ], [ -121.914131504195623, 39.637694337055834 ] ] ] } },
{ "type": "Feature", "properties": { "csb_id": "061825014739799", "acres": 8.5717219388109491, "geoid": "06007" }, "geometry": { "type": "Polygon", "coordinates": [ [ [ -121.91772476553389, 39.636436695975689 ], [ -121.917724765653361, 39.635807875188725 ], [ -121.917095944750244, 39.635807875118928 ], [ -121.917365439941435, 39.634909560058823 ], [ -121.917724766147572, 39.634909559958466 ], [ -121.917724765390005, 39.634640065638706 ], [ -121.918533249094324, 39.634640064994649 ], [ -121.918533249029494, 39.634370570839401 ], [ -121.91916206962712, 39.634370570361881 ], [ -121.919162069776888, 39.634640064997861 ], [ -121.91889257522466, 39.634640064980509 ], [ -121.918892575499783, 39.634909559402438 ], [ -121.919162069099627, 39.635268886444166 ], [ -121.919790891368706, 39.635268885969644 ], [ -121.920060384982975, 39.635538380219387 ], [ -121.919521396458194, 39.635538380070237 ], [ -121.919521396375728, 39.636436695534833 ], [ -121.91772476553389, 39.636436695975689 ] ] ] } },
{ "type": "Feature", "properties": { "csb_id": "061825014740473", "acres": 4.8434913192423803, "geoid": "06007" }, "geometry": { "type": "Polygon", "coordinates": [ [ [ -121.785852082413257, 39.611733025091858 ], [ -121.784953766609632, 39.611733026304329 ], [ -121.784684271840334, 39.611373699800865 ], [ -121.78468427275709, 39.610834710759569 ], [ -121.784953766545868, 39.610475383137278 ], [ -121.785902787804403, 39.610514511176078 ], [ -121.786450725312179, 39.611853035192034 ], [ -121.786480903242776, 39.612272014811325 ], [ -121.785941913129534, 39.612272014968475 ], [ -121.785852082413257, 39.611733025091858 ] ] ] } },
{ "type": "Feature", "properties": { "csb_id": "061825014742341", "acres": 4.7668226852166402, "geoid": "06007" }, "geometry": { "type": "Polygon", "coordinates": [ [ [ -121.96021507844867, 39.550467923319509 ], [ -121.960215078200733, 39.549569607762493 ], [ -121.960843899630675, 39.549300112771576 ], [ -121.961472720127063, 39.549300112784159 ], [ -121.961742214144294, 39.54894078713572 ], [ -121.961742214355027, 39.548671292601142 ], [ -121.962011708594233, 39.548671292466977 ], [ -121.962371035674224, 39.54894078730571 ], [ -121.962371034958906, 39.549569607958603 ], [ -121.961742213923912, 39.549569607444113 ], [ -121.961742215151148, 39.550198428503229 ], [ -121.96084389915201, 39.550198428214316 ], [ -121.960843899614773, 39.550467923882763 ], [ -121.96021507844867, 39.550467923319509 ] ] ] } },
{ "type": "Feature", "properties": { "csb_id": "061825014742358", "acres": 7.4879760941899303, "geoid": "06007" }, "geometry": { "type": "Polygon", "coordinates": [ [ [ -121.958418448131525, 39.551096744055179 ], [ -121.95841844793874, 39.550467923188585 ], [ -121.9577896278156, 39.550467923182431 ], [ -121.957789627694936, 39.549300113348679 ], [ -121.958059122243583, 39.549300112898351 ], [ -121.958059122351287, 39.548940787355171 ], [ -121.958418447909978, 39.54894078712303 ], [ -121.958777774395372, 39.54840179770995 ], [ -121.959047269120234, 39.548401798085834 ], [ -121.959047268229682, 39.549300113221911 ], [ -121.958777773714885, 39.549569607985362 ], [ -121.958777774382341, 39.549839101911935 ], [ -121.959316763749484, 39.549839102531159 ], [ -121.959316763332097, 39.549569608123136 ], [ -121.959945584454687, 39.549569607840006 ], [ -121.959945583509665, 39.549839102111065 ], [ -121.960215078261442, 39.549839102033474 ], [ -121.96021507844867, 39.550467923319509 ], [ -121.958957437339876, 39.550467922641559 ], [ -121.958957437386189, 39.551096743611808 ], [ -121.958418448131525, 39.551096744055179 ] ] ] } }
]
}
