{
"type": "FeatureCollection",
"name": "06015",
"crs": { "type": "name", "properties": { "name": "urn:ogc:def:crs:OGC:1.3:CRS84" } },
"features": [
{ "type": "Feature", "properties": { "csb_id": "061825000413860", "acres": 3.5283537178219202, "geoid": "06015" }, "geometry": { "type": "Polygon", "coordinates": [ [ [ -124.053825578822767, 41.56565599918499 ], [ -124.053825578302479, 41.566284819525926 ], [ -124.053196757931275, 41.566284819898257 ], [ -124.053196757895023, 41.567183135137277 ], [ -124.052298442285405, 41.567183135265019 ], [ -124.052298441991866, 41.566015325031827 ], [ -124.052927263521056, 41.566015325451538 ], [ -124.052927263034206, 41.565655998799642 ], [ -124.053825578822767, 41.56565599918499 ] ] ] } },
{ "type": "Feature", "properties": { "csb_id": "061825000413861", "acres": 2.4495968014839802, "geoid": "06015" }, "geometry": { "type": "Polygon", "coordinates": [ [ [ -124.019330270992441, 41.515530005976686 ], [ -124.019330271285455, 41.514541859793482 ], [ -124.020587913338105, 41.514541859657655 ], [ -124.021216734152219, 41.514901185648668 ], [ -124.021216733311761, 41.515170680160104 ], [ -124.020318417826033, 41.5151706797798 ], [ -124.020318418292234, 41.514901185192308 ], [ -124.019959092006431, 41.514901185851535 ], [ -124.019689598232631, 41.515170680349499 ], [ -124.019689597478859, 41.515530005886681 ], [ -124.019330270992441, 41.515530005976686 ] ] ] } }
]
}
