{
"type": "FeatureCollection",
"name": "06027",
"crs": { "type": "name", "properties": { "name": "urn:ogc:def:crs:OGC:1.3:CRS84" } },
"features": [
{ "type": "Feature", "properties": { "csb_id": "061825015958058", "acres": 3.4661005253415702, "geoid": "06027" }, "geometry": { "type": "Polygon", "coordinates": [ [ [ -118.385278916043148, 37.0167893114413 ], [ -118.385278916264269, 37.017058805384295 ], [ -118.385548410505407, 37.017058805498245 ], [ -118.385548411519196, 37.016789311138673 ], [ -118.385278916043148, 37.0167893114413 ], [ -118.385278916585321, 37.015621501253221 ], [ -118.385817905163108, 37.01562150074097 ], [ -118.385817905976538, 37.01625032162778 ], [ -118.386177231304984, 37.016250321512445 ], [ -118.386177231604805, 37.016789310744436 ], [ -118.38581790589204, 37.016789310443194 ], [ -118.385817905602224, 37.017418131213432 ], [ -118.385009421463877, 37.017418131322891 ], [ -118.384650095235628, 37.017058805441941 ], [ -118.384650095913443, 37.016789310839485 ], [ -118.385278916043148, 37.0167893114413 ] ] ] } }
]
}
