{
"type": "FeatureCollection",
"name": "06021",
"crs": { "type": "name", "properties": { "name": "urn:ogc:def:crs:OGC:1.3:CRS84" } },
"features": [
{ "type": "Feature", "properties": { "csb_id": "061825007810433", "acres": 2.7596060695109301, "geoid": "06021" }, "geometry": { "type": "Polygon", "coordinates": [ [ [ -122.098148152202839, 39.78232916053868 ], [ -122.098237984747939, 39.781520676978488 ], [ -122.100034614258504, 39.781790171425143 ], [ -122.100034615216217, 39.782059665788516 ], [ -122.099675288472923, 39.78205966635776 ], [ -122.099675289219363, 39.782329160508908 ], [ -122.098148152202839, 39.78232916053868 ] ] ] } },
{ "type": "Feature", "properties": { "csb_id": "061825007811155", "acres": 6.2994018090002504, "geoid": "06021" }, "geometry": { "type": "Polygon", "coordinates": [ [ [ -122.010113255058045, 39.753762734910438 ], [ -122.01011325529295, 39.753493240013142 ], [ -122.010742075447155, 39.753493240058916 ], [ -122.010742075692747, 39.75313391415726 ], [ -122.009843760537038, 39.753133913424051 ], [ -122.009484434361724, 39.752864419113521 ], [ -122.009484433763575, 39.752235598752129 ], [ -122.009843760630659, 39.752235598610042 ], [ -122.009843759622498, 39.752594924518014 ], [ -122.010742075175926, 39.75259492466315 ], [ -122.010742075842103, 39.752864418845498 ], [ -122.011640390998096, 39.752864418917177 ], [ -122.011640390490754, 39.753133914093418 ], [ -122.011370896250227, 39.75313391400438 ], [ -122.011370896556315, 39.753493239529284 ], [ -122.011909885459161, 39.753493239610748 ], [ -122.011909885960364, 39.753762734854888 ], [ -122.012269211834663, 39.753762734230257 ], [ -122.012269211882128, 39.754571218524681 ], [ -122.011909885375161, 39.754571218425575 ], [ -122.011909885192296, 39.754301723953333 ], [ -122.011550559214527, 39.754301723925117 ], [ -122.0113708964804, 39.754122060147672 ], [ -122.010382749792157, 39.754122060875403 ], [ -122.010113255058045, 39.753762734910438 ] ] ] } },
{ "type": "Feature", "properties": { "csb_id": "061825014735521", "acres": 19.718434547692201, "geoid": "06021" }, "geometry": { "type": "Polygon", "coordinates": [ [ [ -122.227733370085318, 39.794540186139137 ], [ -122.227733369952347, 39.794180859394842 ], [ -122.225577413202416, 39.794091028145729 ], [ -122.225307919197064, 39.793282543835986 ], [ -122.225936739556275, 39.793282544462556 ], [ -122.225936739238449, 39.792653723392917 ], [ -122.225667245279993, 39.792653723647007 ], [ -122.225667245712827, 39.792384229179802 ], [ -122.225936739219733, 39.792114734245303 ], [ -122.228901179408666, 39.792114734365136 ], [ -122.229529998037805, 39.792384229309114 ], [ -122.229799495084677, 39.793013050041516 ], [ -122.229799495707084, 39.793552038971931 ], [ -122.229530000554462, 39.793911365457468 ], [ -122.228991011719927, 39.79418085951702 ], [ -122.228901180420891, 39.794540185443545 ], [ -122.227733370085318, 39.794540186139137 ] ], [ [ -122.227104547893575, 39.793013049810455 ], [ -122.226565559081649, 39.793013049733403 ], [ -122.226565560878669, 39.793282544513872 ], [ -122.227104547986499, 39.793282544461789 ], [ -122.227104547893575, 39.793013049810455 ] ] ] } },
{ "type": "Feature", "properties": { "csb_id": "061825014735537", "acres": 2.8256060078611198, "geoid": "06021" }, "geometry": { "type": "Polygon", "coordinates": [ [ [ -122.22953000058034, 39.791216419387453 ], [ -122.22926050652535, 39.79121641925893 ], [ -122.229260506112666, 39.791485913695084 ], [ -122.22979949557876, 39.791755408326011 ], [ -122.229799494859989, 39.792114734322645 ], [ -122.228452022487218, 39.791755407866468 ], [ -122.228631684920941, 39.790857092709196 ], [ -122.229799495354058, 39.790857093073846 ], [ -122.229619832486804, 39.79148591381896 ], [ -122.22953000058034, 39.791216419387453 ] ] ] } },
{ "type": "Feature", "properties": { "csb_id": "061825014735560", "acres": 3.1480701243118898, "geoid": "06021" }, "geometry": { "type": "Polygon", "coordinates": [ [ [ -122.228362190694199, 39.790318103894272 ], [ -122.228362191144129, 39.789958777906001 ], [ -122.228002865100279, 39.789958777600248 ], [ -122.228002865021381, 39.789329957180705 ], [ -122.228631685120803, 39.789329957355747 ], [ -122.228631685299447, 39.789060462786985 ], [ -122.229530000835595, 39.789060462043579 ], [ -122.229530001143686, 39.789689283351038 ], [ -122.228991011068828, 39.789958777496203 ], [ -122.228901180504508, 39.790318103768541 ], [ -122.228362190694199, 39.790318103894272 ] ] ] } },
{ "type": "Feature", "properties": { "csb_id": "061825014735563", "acres": 2.8541282140445001, "geoid": "06021" }, "geometry": { "type": "Polygon", "coordinates": [ [ [ -122.227104549231882, 39.79031810446174 ], [ -122.226835054785823, 39.789958777527858 ], [ -122.226835054659219, 39.789060462509411 ], [ -122.227463875012504, 39.789060462412543 ], [ -122.227733369242443, 39.788790968069222 ], [ -122.22773336942241, 39.789060462737091 ], [ -122.228002866099686, 39.789060461996485 ], [ -122.228002865021381, 39.789329957180705 ], [ -122.22773336960239, 39.789329957434902 ], [ -122.228002865366022, 39.789689283447984 ], [ -122.228002865100279, 39.789958777600248 ], [ -122.227463876185112, 39.789958778889925 ], [ -122.227463875785304, 39.790318103905484 ], [ -122.227104549231882, 39.79031810446174 ] ] ] } },
{ "type": "Feature", "properties": { "csb_id": "061825014735773", "acres": 3.8413094860510002, "geoid": "06021" }, "geometry": { "type": "Polygon", "coordinates": [ [ [ -122.250370914844225, 39.771004324991353 ], [ -122.250370915969441, 39.770644999453602 ], [ -122.250640409749579, 39.770644998982526 ], [ -122.25064041039245, 39.770106010101536 ], [ -122.25153872488211, 39.77010600992039 ], [ -122.252257377336406, 39.770375504881834 ], [ -122.252167546060704, 39.771273820217331 ], [ -122.251538725600014, 39.771273819823342 ], [ -122.251538725146759, 39.771004325671051 ], [ -122.250370914844225, 39.771004324991353 ] ] ] } },
{ "type": "Feature", "properties": { "csb_id": "061825014735774", "acres": 8.4507958889860397, "geoid": "06021" }, "geometry": { "type": "Polygon", "coordinates": [ [ [ -122.230787641703486, 39.770644999451065 ], [ -122.23168595734063, 39.770644998869152 ], [ -122.232314778755423, 39.771004325434362 ], [ -122.234111409039642, 39.771004324999929 ], [ -122.234111408330165, 39.771273820237504 ], [ -122.233482588289519, 39.771902640633463 ], [ -122.232314778629885, 39.771902640189673 ], [ -122.232045283562528, 39.77217213489233 ], [ -122.231416462846667, 39.77190264101106 ], [ -122.230158821338676, 39.77190264013165 ], [ -122.23015882150473, 39.77100432557522 ], [ -122.230518148072363, 39.771004325265288 ], [ -122.230518147425158, 39.771543314469064 ], [ -122.231416462786584, 39.771543314571396 ], [ -122.231416462741521, 39.77127381977607 ], [ -122.230787642304222, 39.771273820167991 ], [ -122.230787641703486, 39.770644999451065 ] ] ] } },
{ "type": "Feature", "properties": { "csb_id": "061825014735788", "acres": 4.1449117046258097, "geoid": "06021" }, "geometry": { "type": "Polygon", "coordinates": [ [ [ -122.24552001335266, 39.769746684857836 ], [ -122.245520012780645, 39.769477189243162 ], [ -122.245789507231521, 39.769477189762931 ], [ -122.245879339789312, 39.768848369649511 ], [ -122.246777653730888, 39.768848368774862 ], [ -122.246687823032403, 39.768219549017751 ], [ -122.247316644069443, 39.768219548397681 ], [ -122.247316643894592, 39.768848369970208 ], [ -122.247675969108826, 39.768848368579079 ], [ -122.247675969987554, 39.769117863009321 ], [ -122.246687822477881, 39.769746683902049 ], [ -122.24552001335266, 39.769746684857836 ] ] ] } },
{ "type": "Feature", "properties": { "csb_id": "061825014735816", "acres": 19.928258029764301, "geoid": "06021" }, "geometry": { "type": "Polygon", "coordinates": [ [ [ -122.244621697366895, 39.768848368666767 ], [ -122.244891192221516, 39.76884836866931 ], [ -122.244891191736684, 39.768578873639498 ], [ -122.24462169789085, 39.768578873636962 ], [ -122.244621697366895, 39.768848368666767 ], [ -122.24399287565565, 39.768848368655895 ], [ -122.243992876266745, 39.768578874112698 ], [ -122.243723381117817, 39.768578875242582 ], [ -122.243723382261038, 39.767680558751806 ], [ -122.243453887886872, 39.767680558930799 ], [ -122.243453887859388, 39.766782243740252 ], [ -122.243992877403272, 39.76615342270307 ], [ -122.245609844900116, 39.766153422479825 ], [ -122.247047148811262, 39.767051738044515 ], [ -122.247047148790699, 39.76732123289375 ], [ -122.246687822622789, 39.767321232469861 ], [ -122.246777653730888, 39.768848368774862 ], [ -122.245250516641846, 39.768848368831101 ], [ -122.245250518150499, 39.769117863031795 ], [ -122.245520013201713, 39.769117862785308 ], [ -122.245520012780645, 39.769477189243162 ], [ -122.244621697604984, 39.769477188967237 ], [ -122.244621697366895, 39.768848368666767 ] ] ] } },
{ "type": "Feature", "properties": { "csb_id": "061825014735827", "acres": 4.0122742837093801, "geoid": "06021" }, "geometry": { "type": "Polygon", "coordinates": [ [ [ -122.305257978870131, 39.767321232227047 ], [ -122.30525797934159, 39.766782243399703 ], [ -122.30471899067129, 39.766782244642542 ], [ -122.304718990280662, 39.766422917388979 ], [ -122.304988485131389, 39.766422917120515 ], [ -122.30498848524276, 39.766153423033998 ], [ -122.305257979320473, 39.765883927885511 ], [ -122.305527473930553, 39.765883927932009 ], [ -122.305527473547968, 39.765524601794361 ], [ -122.306156294776045, 39.765524601657283 ], [ -122.306156294575842, 39.765883927668177 ], [ -122.305886799643886, 39.765883928114306 ], [ -122.305886799495724, 39.766153422903038 ], [ -122.30588680048065, 39.766422917477279 ], [ -122.306246125484762, 39.766422917361844 ], [ -122.306156295230011, 39.767321232848715 ], [ -122.305257978870131, 39.767321232227047 ] ] ] } },
{ "type": "Feature", "properties": { "csb_id": "061825014736193", "acres": 3.3209765617928202, "geoid": "06021" }, "geometry": { "type": "Polygon", "coordinates": [ [ [ -122.215067124617988, 39.743246382854579 ], [ -122.213899315191782, 39.743246382949486 ], [ -122.213899314557935, 39.742348067704782 ], [ -122.215067124296979, 39.742348068127846 ], [ -122.215067124625847, 39.74171924687078 ], [ -122.21533661908758, 39.741719246936768 ], [ -122.21533661908407, 39.742887056787445 ], [ -122.215067124617988, 39.743246382854579 ] ] ] } },
{ "type": "Feature", "properties": { "csb_id": "061825014736319", "acres": 24.5099043225682, "geoid": "06021" }, "geometry": { "type": "Polygon", "coordinates": [ [ [ -122.235279218141329, 39.741719247170487 ], [ -122.235279218370593, 39.741449752440879 ], [ -122.234021576765329, 39.741449752364353 ], [ -122.234021577147317, 39.740551437474224 ], [ -122.233482587991006, 39.74055143738623 ], [ -122.233482588142124, 39.739563290517644 ], [ -122.234021577021977, 39.73956329000486 ], [ -122.23438090280635, 39.739293795913134 ], [ -122.234380903109141, 39.738125986313619 ], [ -122.234650397416971, 39.737766659631902 ], [ -122.234650397407805, 39.73722767030084 ], [ -122.236177533038116, 39.737227670490903 ], [ -122.236177532771492, 39.737497165499683 ], [ -122.236447027727266, 39.737766660123135 ], [ -122.236806354363196, 39.73776665997697 ], [ -122.23680635481881, 39.739293795941009 ], [ -122.235908039233678, 39.739293795635234 ], [ -122.235908039713962, 39.739922616211814 ], [ -122.236447028015832, 39.739922616177218 ], [ -122.236447028349374, 39.740551437024799 ], [ -122.236716523474826, 39.740551437362107 ], [ -122.237075848821533, 39.74082093202145 ], [ -122.236806354132042, 39.741090426131343 ], [ -122.23680635438366, 39.741449752053953 ], [ -122.235908038757643, 39.741449751548274 ], [ -122.235908039748395, 39.741719246521164 ], [ -122.235279218141329, 39.741719247170487 ] ] ] } },
{ "type": "Feature", "properties": { "csb_id": "061825014736381", "acres": 3.9380962464435201, "geoid": "06021" }, "geometry": { "type": "Polygon", "coordinates": [ [ [ -122.261510023539302, 39.736868345079252 ], [ -122.261510023311345, 39.736598850286974 ], [ -122.260611709479491, 39.736598850156945 ], [ -122.260611709565396, 39.735970029402701 ], [ -122.260881204087184, 39.735700534735301 ], [ -122.262138845806106, 39.73570053414079 ], [ -122.262138846121346, 39.735970029324413 ], [ -122.262408339803301, 39.735970029505388 ], [ -122.262408339391882, 39.736598849990699 ], [ -122.262138845943895, 39.736598850181281 ], [ -122.262138845937884, 39.73686834460198 ], [ -122.261510023539302, 39.736868345079252 ] ] ] } },
{ "type": "Feature", "properties": { "csb_id": "061825014736409", "acres": 8.6580637118668005, "geoid": "06021" }, "geometry": { "type": "Polygon", "coordinates": [ [ [ -122.25532568561303, 39.736894837435329 ], [ -122.253155692447166, 39.736868344289974 ], [ -122.253155692240441, 39.736329355129847 ], [ -122.252796366733946, 39.736598849494378 ], [ -122.252796366380394, 39.736868344825645 ], [ -122.252437041176648, 39.737048007782207 ], [ -122.252437041200011, 39.736598850102276 ], [ -122.252167545756208, 39.736598849696506 ], [ -122.252167545695755, 39.73623952373034 ], [ -122.252796366123178, 39.736239523899975 ], [ -122.252796366540622, 39.735341208791617 ], [ -122.253335356098319, 39.735341208294543 ], [ -122.253964176531554, 39.735970029434952 ], [ -122.253964176506813, 39.736239523712364 ], [ -122.253694681584321, 39.736329355650511 ], [ -122.254323503099585, 39.73632935551656 ], [ -122.254233671525697, 39.735341208608894 ], [ -122.25396417691617, 39.735341208258852 ], [ -122.253964176940883, 39.735071714077002 ], [ -122.254862491745726, 39.735071713935405 ], [ -122.254952323661627, 39.735880198008957 ], [ -122.255491312664589, 39.736598850118284 ], [ -122.25532568561303, 39.736894837435329 ] ] ] } },
{ "type": "Feature", "properties": { "csb_id": "061825014736682", "acres": 14.7862766820361, "geoid": "06021" }, "geometry": { "type": "Polygon", "coordinates": [ [ [ -122.201772058704861, 39.729053001987474 ], [ -122.201502562830953, 39.728783507742342 ], [ -122.201502562883292, 39.728154686560231 ], [ -122.201772057959232, 39.72815468621571 ], [ -122.201772057248149, 39.727885192206891 ], [ -122.201143236743789, 39.72779535987781 ], [ -122.201143236722444, 39.726897045148093 ], [ -122.202400878237668, 39.726627550522807 ], [ -122.202670372740272, 39.726358056133861 ], [ -122.20267037410801, 39.725998729590493 ], [ -122.203299195811184, 39.725998729460045 ], [ -122.2032991924751, 39.726897044794931 ], [ -122.203928013598571, 39.726897045171341 ], [ -122.203928015943632, 39.726358055035185 ], [ -122.204197510260627, 39.726358055617432 ], [ -122.204467003679227, 39.726897045383673 ], [ -122.204467004327213, 39.727256369833604 ], [ -122.203928013331861, 39.727256371095585 ], [ -122.203928012725669, 39.727525866122882 ], [ -122.203568686744063, 39.727525866335817 ], [ -122.203568687265729, 39.72815468647061 ], [ -122.204197509984553, 39.72815468658024 ], [ -122.204197510066052, 39.728424180843767 ], [ -122.203568686448094, 39.728424181349872 ], [ -122.203568689235354, 39.72905300122035 ], [ -122.201772058704861, 39.729053001987474 ] ], [ [ -122.203029699224942, 39.72752586534002 ], [ -122.203029697527853, 39.727256371527467 ], [ -122.20267037353149, 39.727256370883119 ], [ -122.202670375337618, 39.727525865311343 ], [ -122.203029699224942, 39.72752586534002 ] ] ] } },
{ "type": "Feature", "properties": { "csb_id": "061825014736747", "acres": 7.0066213622070697, "geoid": "06021" }, "geometry": { "type": "Polygon", "coordinates": [ [ [ -122.269145704385394, 39.726627550091116 ], [ -122.268876210217201, 39.725729234906822 ], [ -122.269961908698235, 39.724882853841549 ], [ -122.270583009518532, 39.724830919371968 ], [ -122.270583009466847, 39.725459740310491 ], [ -122.270942335188565, 39.725729235396372 ], [ -122.27094233536576, 39.726358055326166 ], [ -122.271750819483813, 39.726358055134227 ], [ -122.271750819210766, 39.72662754976524 ], [ -122.269145704385394, 39.726627550091116 ] ] ] } },
{ "type": "Feature", "properties": { "csb_id": "061825014736761", "acres": 2.7618691001080098, "geoid": "06021" }, "geometry": { "type": "Polygon", "coordinates": [ [ [ -122.199705933160473, 39.72510041471417 ], [ -122.199077112766162, 39.724830919529161 ], [ -122.199166944211285, 39.724202099300385 ], [ -122.200604248915482, 39.724202099595601 ], [ -122.200604248459356, 39.72483092006371 ], [ -122.200244922625203, 39.724830921020725 ], [ -122.200244921342062, 39.72510041483693 ], [ -122.199705933160473, 39.72510041471417 ] ] ] } },
{ "type": "Feature", "properties": { "csb_id": "061825014736767", "acres": 4.46019744528048, "geoid": "06021" }, "geometry": { "type": "Polygon", "coordinates": [ [ [ -122.266630421594925, 39.726178392400165 ], [ -122.266630421903031, 39.725729235180467 ], [ -122.267259242344068, 39.725459740342309 ], [ -122.267888063535324, 39.724561425403067 ], [ -122.268786378603011, 39.724830920049492 ], [ -122.268786378075504, 39.725100414044348 ], [ -122.268516884502645, 39.725100414030415 ], [ -122.268516884689063, 39.72572923481605 ], [ -122.26809667596919, 39.726042943434734 ], [ -122.266630421594925, 39.726178392400165 ] ] ] } },
{ "type": "Feature", "properties": { "csb_id": "061825014736860", "acres": 3.49285100087612, "geoid": "06021" }, "geometry": { "type": "Polygon", "coordinates": [ [ [ -122.17733788245323, 39.721776647316858 ], [ -122.177427714550547, 39.72123765862365 ], [ -122.177337883229228, 39.721237658584378 ], [ -122.177337882274841, 39.721507153057829 ], [ -122.176798893355979, 39.721237658341032 ], [ -122.176798893334748, 39.720608837957386 ], [ -122.17706838802458, 39.720608837453959 ], [ -122.177068387721548, 39.720339343560362 ], [ -122.177966703154411, 39.72033934289388 ], [ -122.177966703931332, 39.721237658123471 ], [ -122.178236198676075, 39.721507153372734 ], [ -122.178236198496307, 39.721776647501194 ], [ -122.17733788245323, 39.721776647316858 ] ] ] } },
{ "type": "Feature", "properties": { "csb_id": "061825014736940", "acres": 22.019861379128901, "geoid": "06021" }, "geometry": { "type": "Polygon", "coordinates": [ [ [ -122.267888063665154, 39.723932604161803 ], [ -122.266360927457384, 39.723932604762297 ], [ -122.265462612337586, 39.723303783838581 ], [ -122.26546261201014, 39.721237658379323 ], [ -122.265193117184722, 39.721237658307089 ], [ -122.265193117713991, 39.720608838216357 ], [ -122.265462612452083, 39.720608837801556 ], [ -122.265462611791577, 39.719710522308084 ], [ -122.265732107209161, 39.719710522300439 ], [ -122.265732106431386, 39.719081701853355 ], [ -122.266091433325329, 39.719351196394328 ], [ -122.266091432973511, 39.719710522939501 ], [ -122.266989747781793, 39.719710522728391 ], [ -122.267618569051479, 39.720339342772235 ], [ -122.267618568516639, 39.720608838139306 ], [ -122.267259243035198, 39.720878332134262 ], [ -122.266989748523784, 39.722405467861982 ], [ -122.267888063964236, 39.723034289141701 ], [ -122.268786378468107, 39.723034288744138 ], [ -122.268786378194406, 39.722405468133942 ], [ -122.269145704605563, 39.722405468335211 ], [ -122.269145704610978, 39.722674963176701 ], [ -122.269415199455622, 39.722674963324536 ], [ -122.269415198913066, 39.723303783501592 ], [ -122.267888063665154, 39.723932604161803 ] ] ] } },
{ "type": "Feature", "properties": { "csb_id": "061825014737189", "acres": 3.9490263611513998, "geoid": "06021" }, "geometry": { "type": "Polygon", "coordinates": [ [ [ -122.216234935117484, 39.711266358631086 ], [ -122.216234934835555, 39.710008718136528 ], [ -122.217492576436371, 39.710008718528314 ], [ -122.217492576398357, 39.710907034931758 ], [ -122.217762070875054, 39.710907033796559 ], [ -122.217762070558351, 39.711266359314543 ], [ -122.216234935117484, 39.711266358631086 ] ] ] } },
{ "type": "Feature", "properties": { "csb_id": "061825014737314", "acres": 6.0851149674006901, "geoid": "06021" }, "geometry": { "type": "Polygon", "coordinates": [ [ [ -122.073941793577177, 39.709110402043272 ], [ -122.071875668861949, 39.709110402005827 ], [ -122.071785836938361, 39.708840907225479 ], [ -122.072055330168823, 39.708840908288238 ], [ -122.072145162832541, 39.707942592416202 ], [ -122.072414657345476, 39.707313771881985 ], [ -122.072773983733384, 39.707044277315902 ], [ -122.073043477998425, 39.707044277380447 ], [ -122.073043478524923, 39.707673097280463 ], [ -122.073312973194831, 39.707673098108032 ], [ -122.073941793577177, 39.709110402043272 ] ] ] } },
{ "type": "Feature", "properties": { "csb_id": "061825014737545", "acres": 24.98896535878, "geoid": "06021" }, "geometry": { "type": "Polygon", "coordinates": [ [ [ -122.064509483401977, 39.700127249398292 ], [ -122.065138303183218, 39.700127249149858 ], [ -122.065138303594097, 39.69949842890658 ], [ -122.064868809640089, 39.699228934170087 ], [ -122.064599314443058, 39.699228934087571 ], [ -122.064509482594673, 39.698869608043957 ], [ -122.065228135938327, 39.69886960807267 ], [ -122.065228135712644, 39.698600113145879 ], [ -122.067563754597657, 39.698600113535392 ], [ -122.067653586704196, 39.699228933714608 ], [ -122.068462070564138, 39.699228934210659 ], [ -122.068462069772536, 39.700127249073837 ], [ -122.069360385849478, 39.700127249564062 ], [ -122.069360385104289, 39.701025564334998 ], [ -122.069719712191201, 39.701025564285594 ], [ -122.069719711649128, 39.701564553705033 ], [ -122.066395944573372, 39.701564553626099 ], [ -122.066395945725048, 39.701025564746068 ], [ -122.065497630136349, 39.70102556461611 ], [ -122.065138303776791, 39.700666238245965 ], [ -122.06450948187674, 39.700666238869985 ], [ -122.064509483401977, 39.700127249398292 ] ] ] } },
{ "type": "Feature", "properties": { "csb_id": "061825014737697", "acres": 4.6019799642111803, "geoid": "06021" }, "geometry": { "type": "Polygon", "coordinates": [ [ [ -122.292951060052758, 39.695276346783167 ], [ -122.292951060531948, 39.694647526328211 ], [ -122.292591733185048, 39.694647526035432 ], [ -122.292322239461569, 39.694378031798585 ], [ -122.292322239124687, 39.693749211060954 ], [ -122.292591733240215, 39.693569547930529 ], [ -122.294029038180497, 39.693928873575757 ], [ -122.293849374523958, 39.694018705316608 ], [ -122.293759543488221, 39.695276346788127 ], [ -122.292951060052758, 39.695276346783167 ] ] ] } },
{ "type": "Feature", "properties": { "csb_id": "061825014737806", "acres": 16.0294529898161, "geoid": "06021" }, "geometry": { "type": "Polygon", "coordinates": [ [ [ -122.2938493754109, 39.693749211004231 ], [ -122.290615439932097, 39.692581400571811 ], [ -122.290795103633855, 39.691683086183481 ], [ -122.291154429951774, 39.69168308588408 ], [ -122.291154429804493, 39.690694938952007 ], [ -122.29205274469939, 39.690515276017265 ], [ -122.292232407383807, 39.690784770330609 ], [ -122.292861228179902, 39.69078477072209 ], [ -122.292951060163929, 39.691323759556241 ], [ -122.293579880645851, 39.691323759277076 ], [ -122.293759544138695, 39.691952580247687 ], [ -122.294388364601232, 39.691952580807744 ], [ -122.29438836459785, 39.692222075179458 ], [ -122.294118869154076, 39.692222074520444 ], [ -122.293579880473104, 39.692581400938764 ], [ -122.293579880722461, 39.693120390337022 ], [ -122.293849374844427, 39.693479716104832 ], [ -122.2938493754109, 39.693749211004231 ] ] ] } },
{ "type": "Feature", "properties": { "csb_id": "061825014737807", "acres": 2.6279073810391802, "geoid": "06021" }, "geometry": { "type": "Polygon", "coordinates": [ [ [ -122.289178135535806, 39.69078477085786 ], [ -122.28962729350512, 39.690784770027477 ], [ -122.289627293611005, 39.691323759216466 ], [ -122.290256113731417, 39.69195257998264 ], [ -122.290795103609682, 39.691952580421606 ], [ -122.290615439932097, 39.692581400571811 ], [ -122.290206811936201, 39.692506833654427 ], [ -122.289477632590419, 39.69194275479169 ], [ -122.289239193308845, 39.691515529146116 ], [ -122.289178135535806, 39.69078477085786 ] ] ] } },
{ "type": "Feature", "properties": { "csb_id": "061825014737810", "acres": 42.460648843433297, "geoid": "06021" }, "geometry": { "type": "Polygon", "coordinates": [ [ [ -122.286303526515852, 39.696174662274181 ], [ -122.286303526162229, 39.695545841284286 ], [ -122.286573021304363, 39.695545841083828 ], [ -122.286573019863638, 39.694647526051661 ], [ -122.28630352581672, 39.694647526739466 ], [ -122.286303526667709, 39.695006851810454 ], [ -122.286034030903963, 39.695276347378339 ], [ -122.285674706360382, 39.695276346381185 ], [ -122.285674706380661, 39.693749210372957 ], [ -122.286034031555445, 39.693749210522789 ], [ -122.286034032421242, 39.693120390358281 ], [ -122.285674705532386, 39.693120390324786 ], [ -122.28567470643857, 39.691683085720278 ], [ -122.28603403231385, 39.691323759919307 ], [ -122.286303527347741, 39.691323759705732 ], [ -122.286303526256162, 39.69168308566757 ], [ -122.286573021823102, 39.691683085976571 ], [ -122.286573021060732, 39.691054264717124 ], [ -122.28594420010586, 39.691054264765292 ], [ -122.286034030881908, 39.690605107644465 ], [ -122.288998472964551, 39.690605107650534 ], [ -122.289050757420966, 39.691507983933697 ], [ -122.289361132666812, 39.692079256535571 ], [ -122.289986619111559, 39.692581401310306 ], [ -122.292591733240215, 39.693569547930529 ], [ -122.292232408059917, 39.694018705383115 ], [ -122.291693418744785, 39.694018704894859 ], [ -122.291693417995134, 39.693749210815668 ], [ -122.291064598151252, 39.69374921084863 ], [ -122.29106459800289, 39.694018705542582 ], [ -122.290256113932244, 39.694018704312562 ], [ -122.290256114603906, 39.694378031723531 ], [ -122.289896788110042, 39.694647525943928 ], [ -122.288728978483789, 39.694647526169454 ], [ -122.28872897781801, 39.694018705695214 ], [ -122.287471336955136, 39.69437803191159 ], [ -122.286932347754984, 39.695276346964249 ], [ -122.286932346239894, 39.696174661957322 ], [ -122.286303526515852, 39.696174662274181 ] ] ] } },
{ "type": "Feature", "properties": { "csb_id": "061825014737842", "acres": 8.2750809800599399, "geoid": "06021" }, "geometry": { "type": "Polygon", "coordinates": [ [ [ -122.263396487324457, 39.691054264553841 ], [ -122.261959182438261, 39.690515275595033 ], [ -122.26133036123187, 39.689796623404007 ], [ -122.263935476023562, 39.689796623435313 ], [ -122.263935476226649, 39.690155949956754 ], [ -122.264833791214201, 39.69015594992198 ], [ -122.26483379177418, 39.69069493886736 ], [ -122.264564296718888, 39.690694938869697 ], [ -122.264564296772022, 39.691413590848931 ], [ -122.263665981414789, 39.691503423076426 ], [ -122.263396487324457, 39.691054264553841 ] ] ] } },
{ "type": "Feature", "properties": { "csb_id": "061825014737968", "acres": 5.5647734042271297, "geoid": "06021" }, "geometry": { "type": "Polygon", "coordinates": [ [ [ -122.281811949969352, 39.686203362423505 ], [ -122.281722118775363, 39.685305047248015 ], [ -122.282620434571228, 39.685305047507455 ], [ -122.282620433972113, 39.685035552315391 ], [ -122.282979760170704, 39.68503555257869 ], [ -122.28297976066024, 39.685305047155985 ], [ -122.283878075951918, 39.685305046856001 ], [ -122.283788243966654, 39.685933867939411 ], [ -122.283249254465105, 39.686203362369497 ], [ -122.282710266131829, 39.686203362514981 ], [ -122.282710265711202, 39.686562688415606 ], [ -122.282979760089489, 39.68656268887635 ], [ -122.282979760257732, 39.686832182750869 ], [ -122.282350938924608, 39.686832182982251 ], [ -122.281811949969352, 39.686203362423505 ] ] ] } },
{ "type": "Feature", "properties": { "csb_id": "061825014738015", "acres": 2.86789866132774, "geoid": "06021" }, "geometry": { "type": "Polygon", "coordinates": [ [ [ -122.084452082866108, 39.684406731489894 ], [ -122.084452082684891, 39.684137237524205 ], [ -122.085350398322035, 39.684137237603423 ], [ -122.085350397155381, 39.684676226396483 ], [ -122.086248713176929, 39.68467622602325 ], [ -122.086248712674475, 39.685305046829512 ], [ -122.085080903724744, 39.685305047282775 ], [ -122.085080903457452, 39.685035552741752 ], [ -122.084452082866108, 39.684406731489894 ] ] ] } },
{ "type": "Feature", "properties": { "csb_id": "061825014738022", "acres": 2.9723544381836899, "geoid": "06021" }, "geometry": { "type": "Polygon", "coordinates": [ [ [ -122.282620433972113, 39.685035552315391 ], [ -122.282620433708686, 39.684676226866152 ], [ -122.282889929277857, 39.684676226672856 ], [ -122.282979760211418, 39.68440673298737 ], [ -122.284417064244849, 39.684406732331666 ], [ -122.284417065259646, 39.684676226961095 ], [ -122.284147570347812, 39.684676225659373 ], [ -122.284147570629912, 39.685305048366274 ], [ -122.28297976066024, 39.685305047155985 ], [ -122.282979760170704, 39.68503555257869 ], [ -122.282620433972113, 39.685035552315391 ] ] ] } },
{ "type": "Feature", "properties": { "csb_id": "061825014738055", "acres": 14.4154300622439, "geoid": "06021" }, "geometry": { "type": "Polygon", "coordinates": [ [ [ -122.318912372051741, 39.6868321832536 ], [ -122.318912372071509, 39.685574541893423 ], [ -122.31918186606157, 39.685305047517048 ], [ -122.319451360427777, 39.685305047375927 ], [ -122.319451360621557, 39.685035552958851 ], [ -122.318553045975534, 39.685035552846891 ], [ -122.318553046133587, 39.684676226750426 ], [ -122.318283551045027, 39.684676226549819 ], [ -122.317924224919878, 39.685305047170893 ], [ -122.3173852350441, 39.685305047044807 ], [ -122.316397088386324, 39.685035552432005 ], [ -122.31639708846339, 39.684676226814553 ], [ -122.317654729652261, 39.684676226197773 ], [ -122.317654730583143, 39.684406732206405 ], [ -122.318553045476847, 39.68350841659867 ], [ -122.319451360806156, 39.683508417098622 ], [ -122.319451361206603, 39.682879596036145 ], [ -122.31981068678634, 39.682879596102445 ], [ -122.319810686953559, 39.683777911299963 ], [ -122.320080181101915, 39.683777911405429 ], [ -122.320349675805048, 39.684137237755266 ], [ -122.320349676384851, 39.684406731710339 ], [ -122.320080181017104, 39.684406731940534 ], [ -122.320080180932294, 39.68503555262518 ], [ -122.320349675866495, 39.686472857107951 ], [ -122.319451361246962, 39.686562688598961 ], [ -122.319451361053197, 39.686832183171752 ], [ -122.318912372051741, 39.6868321832536 ] ] ] } },
{ "type": "Feature", "properties": { "csb_id": "061825014738140", "acres": 5.1281982215059099, "geoid": "06021" }, "geometry": { "type": "Polygon", "coordinates": [ [ [ -122.338136318947306, 39.682879595505774 ], [ -122.336339688394574, 39.682879595872095 ], [ -122.336339686534387, 39.682610101515529 ], [ -122.336070193255551, 39.682610100954442 ], [ -122.335800698202263, 39.682879596375301 ], [ -122.335800697241197, 39.683238922389563 ], [ -122.335441373340871, 39.683238921972254 ], [ -122.33517187792404, 39.68287959615796 ], [ -122.335171877844914, 39.682610101431266 ], [ -122.335800699167024, 39.682610100916264 ], [ -122.336339688203438, 39.682250774854168 ], [ -122.33633968747489, 39.681981280317359 ], [ -122.336609182119446, 39.681981280424587 ], [ -122.336609182968431, 39.681711786285241 ], [ -122.337238003067526, 39.681711786407355 ], [ -122.337866823595121, 39.682250775105409 ], [ -122.338136319081343, 39.682250774747054 ], [ -122.338136318947306, 39.682879595505774 ] ] ] } },
{ "type": "Feature", "properties": { "csb_id": "061825014738166", "acres": 6.2013741059052796, "geoid": "06021" }, "geometry": { "type": "Polygon", "coordinates": [ [ [ -122.334453225962932, 39.682610100975772 ], [ -122.334543057604648, 39.680813470704535 ], [ -122.335082046414797, 39.680813470721091 ], [ -122.335082046158064, 39.681082965265119 ], [ -122.335980361637183, 39.681352460263241 ], [ -122.336339688199828, 39.681711786422092 ], [ -122.336339688203438, 39.682250774854168 ], [ -122.335800699167024, 39.682610100916264 ], [ -122.334453225962932, 39.682610100975772 ] ] ] } },
{ "type": "Feature", "properties": { "csb_id": "061825014738965", "acres": 7.6568565035977398, "geoid": "06021" }, "geometry": { "type": "Polygon", "coordinates": [ [ [ -122.077265559675226, 39.659703061383141 ], [ -122.07726555951055, 39.659343735312483 ], [ -122.077894381125489, 39.658445419809688 ], [ -122.078163875117738, 39.658445420186524 ], [ -122.078163874911894, 39.658804746246084 ], [ -122.07879269600511, 39.65880474670508 ], [ -122.078792696473613, 39.658445419920064 ], [ -122.079960505923466, 39.658445420273054 ], [ -122.079960506108776, 39.65880474630741 ], [ -122.080319832009494, 39.65880474626605 ], [ -122.080319832508977, 39.659703061118755 ], [ -122.077265559675226, 39.659703061383141 ] ] ] } },
{ "type": "Feature", "properties": { "csb_id": "061825014738976", "acres": 9.2528364423072205, "geoid": "06021" }, "geometry": { "type": "Polygon", "coordinates": [ [ [ -122.188207497741885, 39.660601376538516 ], [ -122.188207497567333, 39.659703061932703 ], [ -122.187758339752392, 39.659703061655009 ], [ -122.18775833994097, 39.657906430987957 ], [ -122.187938003256022, 39.657816599438789 ], [ -122.187938003711352, 39.657547104946715 ], [ -122.188297329592316, 39.657547104411563 ], [ -122.188297329506696, 39.658175925706644 ], [ -122.188566823881246, 39.658175925604425 ], [ -122.188566824200151, 39.657547104682443 ], [ -122.189105812604041, 39.657547104586108 ], [ -122.189195644551447, 39.659074241025181 ], [ -122.189465139208309, 39.659074240577311 ], [ -122.189465138652139, 39.660242050643632 ], [ -122.188836318427448, 39.660242050318836 ], [ -122.188836318688388, 39.660601376828282 ], [ -122.188207497741885, 39.660601376538516 ] ] ] } },
{ "type": "Feature", "properties": { "csb_id": "061825014738992", "acres": 2.3369920367552202, "geoid": "06021" }, "geometry": { "type": "Polygon", "coordinates": [ [ [ -122.19009395973886, 39.6575471046609 ], [ -122.190093959566696, 39.657277610456127 ], [ -122.191261769191897, 39.657277610229407 ], [ -122.191261769854336, 39.658804746075717 ], [ -122.190722780806524, 39.658804746151887 ], [ -122.190722780672758, 39.657547104605413 ], [ -122.19009395973886, 39.6575471046609 ] ] ] } },
{ "type": "Feature", "properties": { "csb_id": "061825014739019", "acres": 5.7475344653029801, "geoid": "06021" }, "geometry": { "type": "Polygon", "coordinates": [ [ [ -122.280913635137679, 39.658445419950745 ], [ -122.280913635428874, 39.65817592586459 ], [ -122.281183129699045, 39.65817592591781 ], [ -122.28118312979332, 39.657906430756491 ], [ -122.280284814442254, 39.657906430524605 ], [ -122.280284814518893, 39.657547104659152 ], [ -122.280823803694744, 39.657547104814924 ], [ -122.280823802018205, 39.6566487902437 ], [ -122.28118313015942, 39.656379294834466 ], [ -122.282350939222383, 39.656379294655075 ], [ -122.282350939777459, 39.656648789536952 ], [ -122.282081445404813, 39.6566487895373 ], [ -122.281811949893921, 39.65691828472486 ], [ -122.28181195080019, 39.657547104735833 ], [ -122.282081444814935, 39.657547105187902 ], [ -122.282350939355666, 39.657906431157834 ], [ -122.282350938458166, 39.658175925576892 ], [ -122.281452623969201, 39.658175925391149 ], [ -122.281452624561069, 39.658445419720884 ], [ -122.280913635137679, 39.658445419950745 ] ] ] } },
{ "type": "Feature", "properties": { "csb_id": "061825014739056", "acres": 4.9591402639253701, "geoid": "06021" }, "geometry": { "type": "Polygon", "coordinates": [ [ [ -122.191621095807932, 39.656648790045317 ], [ -122.190992274809219, 39.65664878981417 ], [ -122.190992274623611, 39.656918283826151 ], [ -122.190363454006615, 39.656918284488562 ], [ -122.190093959484571, 39.656379294673741 ], [ -122.190093959894583, 39.655750474073869 ], [ -122.190722780021147, 39.65575047453919 ], [ -122.190722780893921, 39.655480979784592 ], [ -122.189465139511015, 39.655480979729859 ], [ -122.189465139511626, 39.655121653171669 ], [ -122.190093959812415, 39.654852158797425 ], [ -122.190722780667031, 39.654852159280331 ], [ -122.190992275499156, 39.655121653335669 ], [ -122.190992274815585, 39.656019969412178 ], [ -122.191261769421573, 39.656379294967749 ], [ -122.191621095586711, 39.656379294715769 ], [ -122.191621095807932, 39.656648790045317 ] ] ] } },
{ "type": "Feature", "properties": { "csb_id": "061825014739082", "acres": 7.5717993837815802, "geoid": "06021" }, "geometry": { "type": "Polygon", "coordinates": [ [ [ -122.122181324397658, 39.655480979325432 ], [ -122.122181324452967, 39.653953843425157 ], [ -122.122450818806868, 39.653953844045198 ], [ -122.122450819160278, 39.653594517770145 ], [ -122.122540650635472, 39.653953844042285 ], [ -122.12281014570442, 39.654223338472441 ], [ -122.123708460701309, 39.654223338097573 ], [ -122.124067786382213, 39.654582664589299 ], [ -122.124247449493041, 39.656019968503905 ], [ -122.12343896607814, 39.656019968838514 ], [ -122.123438965595938, 39.655750474451168 ], [ -122.12254065046811, 39.655750474413047 ], [ -122.122181324397658, 39.655480979325432 ] ] ] } },
{ "type": "Feature", "properties": { "csb_id": "061825014739235", "acres": 7.00220838593415, "geoid": "06021" }, "geometry": { "type": "Polygon", "coordinates": [ [ [ -122.166827593857732, 39.651258897998765 ], [ -122.16682759422973, 39.65089957200189 ], [ -122.167186920313554, 39.650630077332586 ], [ -122.167366583570697, 39.650001256045911 ], [ -122.16799540280752, 39.649731761872353 ], [ -122.167995402207012, 39.649372435965148 ], [ -122.168624223022292, 39.649372436082942 ], [ -122.168624224997515, 39.650899571944464 ], [ -122.168264898760398, 39.651258897964617 ], [ -122.168264898120569, 39.651797887514903 ], [ -122.167097088241263, 39.651797887141683 ], [ -122.167097089048383, 39.651258897572241 ], [ -122.166827593857732, 39.651258897998765 ] ] ] } },
{ "type": "Feature", "properties": { "csb_id": "061825014739434", "acres": 4.1998008149157497, "geoid": "06021" }, "geometry": { "type": "Polygon", "coordinates": [ [ [ -122.000369772265657, 39.64488085945586 ], [ -122.000369771673178, 39.644252038443668 ], [ -122.000010445751542, 39.644252038695875 ], [ -122.000010445364907, 39.643982543805102 ], [ -122.00180707642167, 39.643982544398035 ], [ -122.001807076093669, 39.644252039017154 ], [ -122.002435896838108, 39.644252038991532 ], [ -122.002435896874871, 39.644880859324651 ], [ -122.000369772265657, 39.64488085945586 ] ] ] } },
{ "type": "Feature", "properties": { "csb_id": "061825014739521", "acres": 6.6134384412479399, "geoid": "06021" }, "geometry": { "type": "Polygon", "coordinates": [ [ [ -121.999381624601739, 39.643084228869384 ], [ -121.996147690318068, 39.643084228986744 ], [ -121.996147689826998, 39.642814734526318 ], [ -121.996417184881551, 39.642814734984604 ], [ -121.996417185194517, 39.642455409822361 ], [ -121.996417184828545, 39.64218591518258 ], [ -121.996147690356267, 39.642185913247083 ], [ -121.996147690182838, 39.641916419734017 ], [ -121.997315499483079, 39.641916419004254 ], [ -121.997315500127101, 39.64218591519996 ], [ -121.998842636488448, 39.642185913618199 ], [ -121.998842636860701, 39.642455410186578 ], [ -121.999112131028767, 39.64245540938208 ], [ -121.999112130736421, 39.642814734618767 ], [ -121.999381625750488, 39.642814735193703 ], [ -121.999381624601739, 39.643084228869384 ] ] ] } },
{ "type": "Feature", "properties": { "csb_id": "061825014739723", "acres": 16.2119084980583, "geoid": "06021" }, "geometry": { "type": "Polygon", "coordinates": [ [ [ -122.015461467922023, 39.637784169016527 ], [ -122.012407196805796, 39.63778416821809 ], [ -122.0124071968891, 39.637065516017266 ], [ -122.01150888175971, 39.636436695823569 ], [ -122.01141905000064, 39.635807874719823 ], [ -122.01088006079884, 39.635807874610045 ], [ -122.010880060014685, 39.635538380321073 ], [ -122.011419050382301, 39.63526888582129 ], [ -122.013305511709248, 39.635268885509049 ], [ -122.013934333001856, 39.635538380094779 ], [ -122.013934333137996, 39.636706190525778 ], [ -122.015371637409274, 39.636706190622874 ], [ -122.015461467922023, 39.637784169016527 ] ] ] } },
{ "type": "Feature", "properties": { "csb_id": "061825014739917", "acres": 2.9270802055399399, "geoid": "06021" }, "geometry": { "type": "Polygon", "coordinates": [ [ [ -122.128828856966749, 39.631316298449491 ], [ -122.130086499176215, 39.631316298627674 ], [ -122.130086499335476, 39.631945119114597 ], [ -122.130984814252471, 39.631945119347797 ], [ -122.1309848144938, 39.632214613772739 ], [ -122.130086498802754, 39.63221461391376 ], [ -122.129727172067064, 39.632484108171361 ], [ -122.129188183720188, 39.632484107962568 ], [ -122.129188183258378, 39.631945119175015 ], [ -122.129457677840676, 39.631945119514263 ], [ -122.12945767769898, 39.631585793391181 ], [ -122.128828857712051, 39.631585792834983 ], [ -122.128828856966749, 39.631316298449491 ] ] ] } },
{ "type": "Feature", "properties": { "csb_id": "061825014740618", "acres": 9.0883480123970308, "geoid": "06021" }, "geometry": { "type": "Polygon", "coordinates": [ [ [ -122.022019170243553, 39.609577068617646 ], [ -122.022019170320448, 39.608678753414175 ], [ -122.022917485474139, 39.608678753337188 ], [ -122.023186979399924, 39.608049932523535 ], [ -122.023546306090466, 39.608049932819419 ], [ -122.023546306493586, 39.60867875353042 ], [ -122.023815800589588, 39.60867875330942 ], [ -122.023815800254624, 39.607780438343148 ], [ -122.024444621009778, 39.60778043797135 ], [ -122.024444621077919, 39.60751094374168 ], [ -122.025073441887258, 39.607510943405885 ], [ -122.025073441922274, 39.608049932856161 ], [ -122.025432767760037, 39.608409258987628 ], [ -122.025432767670281, 39.60867875316773 ], [ -122.025073442528921, 39.609038079714672 ], [ -122.025073442228575, 39.60930757371333 ], [ -122.024714115428267, 39.609307574635352 ], [ -122.024175127335027, 39.608678753383145 ], [ -122.023905631789646, 39.608678753759996 ], [ -122.023815800924567, 39.609577068560974 ], [ -122.022019170243553, 39.609577068617646 ] ] ] } },
{ "type": "Feature", "properties": { "csb_id": "061825014740676", "acres": 5.21932294518031, "geoid": "06021" }, "geometry": { "type": "Polygon", "coordinates": [ [ [ -122.024444621158878, 39.605983807233166 ], [ -122.025971757593155, 39.605983807246041 ], [ -122.025971757932766, 39.605714312839609 ], [ -122.026600578213674, 39.605714312727308 ], [ -122.0268700730891, 39.605983807720932 ], [ -122.02687007307793, 39.606612627751538 ], [ -122.02570226323428, 39.606612628461747 ], [ -122.025702263019596, 39.606882122712207 ], [ -122.025073441575188, 39.606882122876954 ], [ -122.02507344155768, 39.606612628250133 ], [ -122.024444621152469, 39.606612628315702 ], [ -122.024444621084328, 39.606882122459922 ], [ -122.024175127087702, 39.606882122664075 ], [ -122.024175126430492, 39.605714312625594 ], [ -122.024444621227047, 39.60571431317436 ], [ -122.024444621158878, 39.605983807233166 ] ] ] } },
{ "type": "Feature", "properties": { "csb_id": "061825014740713", "acres": 33.026927953715102, "geoid": "06021" }, "geometry": { "type": "Polygon", "coordinates": [ [ [ -122.023546306090466, 39.608049932819419 ], [ -122.023186979399924, 39.608049932523535 ], [ -122.022917485474139, 39.608678753337188 ], [ -122.022019170320448, 39.608678753414175 ], [ -122.022019169936257, 39.609038079165913 ], [ -122.021120855342261, 39.608409259060906 ], [ -122.020581866188095, 39.608409259074932 ], [ -122.020222539080592, 39.608049932782237 ], [ -122.019953045349652, 39.608049933104702 ], [ -122.01995304449548, 39.607510943644201 ], [ -122.019324224346576, 39.607510943140639 ], [ -122.019054728718245, 39.607151617254203 ], [ -122.019054729224436, 39.606882122649694 ], [ -122.020581865361166, 39.606882123027091 ], [ -122.020581866138883, 39.606612628100834 ], [ -122.018425908498017, 39.606612628661928 ], [ -122.018425908489007, 39.60598380764592 ], [ -122.018785234718209, 39.605714313293745 ], [ -122.019953045254539, 39.605714312698773 ], [ -122.019953044791052, 39.605354986962851 ], [ -122.019324224055921, 39.60535498688327 ], [ -122.019324224186704, 39.604815997799854 ], [ -122.02022253898906, 39.604815997615461 ], [ -122.020851359103375, 39.604456672125735 ], [ -122.021390349561855, 39.60445667179183 ], [ -122.021390348605991, 39.605085492622948 ], [ -122.020222538318606, 39.60508549298882 ], [ -122.020222539593348, 39.605354987046198 ], [ -122.020492034148802, 39.60571431300896 ], [ -122.020851360879163, 39.605714312991317 ], [ -122.020851360785869, 39.60535498714939 ], [ -122.021390348267161, 39.605354987027617 ], [ -122.021749676019283, 39.60598380717942 ], [ -122.023546306362448, 39.605983807739044 ], [ -122.02417512717976, 39.606253302004426 ], [ -122.024175127462343, 39.607151617451734 ], [ -122.024444621334013, 39.607151617488874 ], [ -122.024444621009778, 39.60778043797135 ], [ -122.023815800254624, 39.607780438343148 ], [ -122.023815800589588, 39.60867875330942 ], [ -122.023546306493586, 39.60867875353042 ], [ -122.023546306090466, 39.608049932819419 ] ] ] } },
{ "type": "Feature", "properties": { "csb_id": "061825014740727", "acres": 4.5064004621104203, "geoid": "06021" }, "geometry": { "type": "Polygon", "coordinates": [ [ [ -122.025612431058974, 39.605354986473721 ], [ -122.025612430710027, 39.604815997670876 ], [ -122.025342937183638, 39.604815997300669 ], [ -122.025342936785947, 39.604187176886505 ], [ -122.026510746620104, 39.60418717671935 ], [ -122.027229398864918, 39.6044566713027 ], [ -122.027229398908702, 39.605085492578027 ], [ -122.026870072782401, 39.605354986970617 ], [ -122.025612431058974, 39.605354986473721 ] ] ] } },
{ "type": "Feature", "properties": { "csb_id": "061825014740759", "acres": 13.6999544282054, "geoid": "06021" }, "geometry": { "type": "Polygon", "coordinates": [ [ [ -122.024444621483141, 39.605354987149198 ], [ -122.024444621233457, 39.605085492290968 ], [ -122.023186980024875, 39.605085492413977 ], [ -122.022647991379614, 39.604456671497339 ], [ -122.022647990902115, 39.603288862128359 ], [ -122.022917485174716, 39.602929535468846 ], [ -122.023546305977419, 39.602929535218372 ], [ -122.023546306409344, 39.603288861689684 ], [ -122.02561243142496, 39.603288861840191 ], [ -122.025612431192627, 39.603558356634167 ], [ -122.0259717570936, 39.603827850616668 ], [ -122.026510746274624, 39.603827850674946 ], [ -122.026510746620104, 39.60418717671935 ], [ -122.025342936785947, 39.604187176886505 ], [ -122.025342937183638, 39.604815997300669 ], [ -122.025612430710027, 39.604815997670876 ], [ -122.025612431609147, 39.605085492368353 ], [ -122.025073441729688, 39.60508549214812 ], [ -122.025073441747196, 39.60535498662987 ], [ -122.024444621483141, 39.605354987149198 ] ] ] } },
{ "type": "Feature", "properties": { "csb_id": "061825014740781", "acres": 5.0199502909934202, "geoid": "06021" }, "geometry": { "type": "Polygon", "coordinates": [ [ [ -122.027139567168987, 39.602660041745338 ], [ -122.025612430941621, 39.602660041281219 ], [ -122.025612431840699, 39.602929535774337 ], [ -122.0250734420854, 39.602929535254987 ], [ -122.025073442050385, 39.602390546776995 ], [ -122.024175127302115, 39.602390546496828 ], [ -122.024175126319591, 39.602031220515507 ], [ -122.027229398574519, 39.602031220200885 ], [ -122.02722939906063, 39.601761726063032 ], [ -122.027409061489692, 39.601761725735152 ], [ -122.027498893731277, 39.603288861214459 ], [ -122.027409061523869, 39.602929536176468 ], [ -122.027139567168987, 39.602660041745338 ] ] ] } },
{ "type": "Feature", "properties": { "csb_id": "061825014740800", "acres": 29.206463784346798, "geoid": "06021" }, "geometry": { "type": "Polygon", "coordinates": [ [ [ -122.023546306362448, 39.605983807739044 ], [ -122.021749676019283, 39.60598380717942 ], [ -122.021390348267161, 39.605354987027617 ], [ -122.020851360785869, 39.60535498714939 ], [ -122.020851360879163, 39.605714312991317 ], [ -122.020492034148802, 39.60571431300896 ], [ -122.020222539593348, 39.605354987046198 ], [ -122.020222538318606, 39.60508549298882 ], [ -122.021390348605991, 39.605085492622948 ], [ -122.021480180530645, 39.604187176739032 ], [ -122.021210686873644, 39.604187177268933 ], [ -122.021210686122458, 39.603827851378909 ], [ -122.021390349386238, 39.603827851341123 ], [ -122.021749675038819, 39.603288861756731 ], [ -122.021749675254469, 39.602390546450167 ], [ -122.02121068619428, 39.602390546690181 ], [ -122.021210686256751, 39.602031219926808 ], [ -122.021749674082173, 39.60203122030461 ], [ -122.021749675470062, 39.601492231427137 ], [ -122.023186980657542, 39.601492232087736 ], [ -122.023186980318542, 39.602031221177398 ], [ -122.024175126319591, 39.602031220515507 ], [ -122.024175127302115, 39.602390546496828 ], [ -122.025073442050385, 39.602390546776995 ], [ -122.0250734420854, 39.602929535254987 ], [ -122.025612431840699, 39.602929535774337 ], [ -122.025612430941621, 39.602660041281219 ], [ -122.026870072998932, 39.602660040956849 ], [ -122.027139567168987, 39.602660041745338 ], [ -122.027409061523869, 39.602929536176468 ], [ -122.02749889377003, 39.604456671665169 ], [ -122.026510746620104, 39.60418717671935 ], [ -122.026510746274624, 39.603827850674946 ], [ -122.0259717570936, 39.603827850616668 ], [ -122.025612431192627, 39.603558356634167 ], [ -122.02561243142496, 39.603288861840191 ], [ -122.023546306409344, 39.603288861689684 ], [ -122.023546305977419, 39.602929535218372 ], [ -122.022917485174716, 39.602929535468846 ], [ -122.022647990902115, 39.603288862128359 ], [ -122.022647991379614, 39.604456671497339 ], [ -122.023186980024875, 39.605085492413977 ], [ -122.024175126522579, 39.605085492224937 ], [ -122.024175126897191, 39.605354986841789 ], [ -122.02390563226966, 39.605714313214833 ], [ -122.023546305755644, 39.605714312685933 ], [ -122.023546306362448, 39.605983807739044 ] ] ] } },
{ "type": "Feature", "properties": { "csb_id": "061825014740910", "acres": 8.8043159199883103, "geoid": "06021" }, "geometry": { "type": "Polygon", "coordinates": [ [ [ -122.101969230925889, 39.600863410077764 ], [ -122.10196923058237, 39.600593915921614 ], [ -122.101070915795475, 39.60059391615944 ], [ -122.101070915131942, 39.600234590113516 ], [ -122.100801420194372, 39.599965095157842 ], [ -122.100531926276304, 39.599965094710306 ], [ -122.100531925759043, 39.599066779679099 ], [ -122.101070915440758, 39.599066780017601 ], [ -122.101430240892299, 39.59870745371699 ], [ -122.101430241360347, 39.597539643894578 ], [ -122.101969230596865, 39.597539643581527 ], [ -122.101969230421474, 39.59816846439994 ], [ -122.102328556258698, 39.598168464567252 ], [ -122.102328556229665, 39.600593915932549 ], [ -122.10223872463051, 39.600863410975151 ], [ -122.101969230925889, 39.600863410077764 ] ] ] } },
{ "type": "Feature", "properties": { "csb_id": "061825014741113", "acres": 6.2188804097114998, "geoid": "06021" }, "geometry": { "type": "Polygon", "coordinates": [ [ [ -122.100801419973692, 39.592419246675405 ], [ -122.100801421091703, 39.592149752080878 ], [ -122.101070915349325, 39.591790426065394 ], [ -122.101699734646701, 39.591790426147917 ], [ -122.101699735401837, 39.591161605253085 ], [ -122.101430240952638, 39.591161605544301 ], [ -122.101430241461856, 39.591520931794435 ], [ -122.101070915460951, 39.591520931529857 ], [ -122.101070914532258, 39.590263290081019 ], [ -122.101699736182425, 39.59026328959402 ], [ -122.102059060404045, 39.589993795644006 ], [ -122.102328556508866, 39.59044295353516 ], [ -122.102328554781309, 39.592419246788964 ], [ -122.100801419973692, 39.592419246675405 ] ] ] } },
{ "type": "Feature", "properties": { "csb_id": "061825014741293", "acres": 40.9195977524626, "geoid": "06021" }, "geometry": { "type": "Polygon", "coordinates": [ [ [ -122.137273021027454, 39.589364975255648 ], [ -122.137273020267855, 39.588825985532843 ], [ -122.137542513207393, 39.588466659727423 ], [ -122.137542515938733, 39.588197164518597 ], [ -122.137542515739625, 39.587568344489199 ], [ -122.137273021665905, 39.587568344104056 ], [ -122.137273020828403, 39.586041208568851 ], [ -122.137632346998075, 39.586041208402122 ], [ -122.137901842179232, 39.585502219064345 ], [ -122.138800154332188, 39.585502219806436 ], [ -122.138800157108534, 39.585771713662545 ], [ -122.140237459701424, 39.585771714521108 ], [ -122.140596785477854, 39.584244578052811 ], [ -122.141495103524932, 39.584244578008949 ], [ -122.141854427146143, 39.584873399164969 ], [ -122.14176459760084, 39.586400534504754 ], [ -122.141135777431572, 39.586400534608771 ], [ -122.141135776534298, 39.586939523925743 ], [ -122.141764597688038, 39.586939523690091 ], [ -122.141764597122972, 39.587927670482962 ], [ -122.141495101097007, 39.587927670976896 ], [ -122.141495102801727, 39.588197164664237 ], [ -122.141764595310775, 39.588197165139881 ], [ -122.141854428674563, 39.588825985780304 ], [ -122.141495101280412, 39.588825986090022 ], [ -122.141495102985161, 39.589095479861392 ], [ -122.141135777149188, 39.589095480372123 ], [ -122.140866282730798, 39.589364974672883 ], [ -122.137273021027454, 39.589364975255648 ] ] ] } },
{ "type": "Feature", "properties": { "csb_id": "061825014741793", "acres": 5.0032677918097601, "geoid": "06021" }, "geometry": { "type": "Polygon", "coordinates": [ [ [ -122.205724645565581, 39.570680017470124 ], [ -122.205724645674422, 39.56978170138008 ], [ -122.205185656065126, 39.56978170172971 ], [ -122.205185656909649, 39.568883386270933 ], [ -122.206083972281732, 39.568883386461259 ], [ -122.206083971995838, 39.569512207386097 ], [ -122.206353466999232, 39.569512207162134 ], [ -122.206353466881453, 39.569152880939953 ], [ -122.206712792886336, 39.568883385942961 ], [ -122.206982287312286, 39.568883385838667 ], [ -122.20698228687985, 39.569781701377735 ], [ -122.206083971815261, 39.570680016632508 ], [ -122.205724645565581, 39.570680017470124 ] ] ] } },
{ "type": "Feature", "properties": { "csb_id": "061825014742255", "acres": 3.0446161225292001, "geoid": "06021" }, "geometry": { "type": "Polygon", "coordinates": [ [ [ -122.17221748506708, 39.551725564327782 ], [ -122.172217485904127, 39.550467923309107 ], [ -122.173115801126443, 39.550467922826243 ], [ -122.173475127856221, 39.550827250317084 ], [ -122.173475127166654, 39.551366237570186 ], [ -122.17221748506708, 39.551725564327782 ] ] ] } },
{ "type": "Feature", "properties": { "csb_id": "061825014742256", "acres": 6.4127243240949499, "geoid": "06021" }, "geometry": { "type": "Polygon", "coordinates": [ [ [ -122.170780180243824, 39.552264553462486 ], [ -122.170780181372265, 39.551995059415781 ], [ -122.171049675474606, 39.551995059268876 ], [ -122.171049674147739, 39.551725564630509 ], [ -122.170690348782472, 39.551725564653758 ], [ -122.170510686580656, 39.550467922764106 ], [ -122.171049674834762, 39.550467924302041 ], [ -122.171049675473, 39.549569607689683 ], [ -122.171409001558274, 39.549569607885118 ], [ -122.171409002083678, 39.550198428279472 ], [ -122.171947990414324, 39.550198428279572 ], [ -122.172217485904127, 39.550467923309107 ], [ -122.172217486050656, 39.5510967436309 ], [ -122.171947989503124, 39.551096743829923 ], [ -122.172217485765984, 39.55136623856707 ], [ -122.17221748506708, 39.551725564327782 ], [ -122.171319170779427, 39.552264553446669 ], [ -122.170780180243824, 39.552264553462486 ] ], [ [ -122.17158866468921, 39.551725564442798 ], [ -122.171588665178845, 39.551096744100477 ], [ -122.17131917032772, 39.550827249376717 ], [ -122.171319169823875, 39.551725564276303 ], [ -122.17158866468921, 39.551725564442798 ] ] ] } },
{ "type": "Feature", "properties": { "csb_id": "061825014742309", "acres": 2.9970954383969199, "geoid": "06021" }, "geometry": { "type": "Polygon", "coordinates": [ [ [ -122.171947990414324, 39.550198428279572 ], [ -122.171947991165183, 39.549569607530628 ], [ -122.172307317078349, 39.549569607963967 ], [ -122.172217486007582, 39.549300112688229 ], [ -122.172846306049834, 39.54894078730301 ], [ -122.172846306219824, 39.549300113257495 ], [ -122.173115800410486, 39.549300112970947 ], [ -122.173115800898842, 39.549569607371758 ], [ -122.17284630628707, 39.550467923243474 ], [ -122.172217485904127, 39.550467923309107 ], [ -122.171947990414324, 39.550198428279572 ] ] ] } },
{ "type": "Feature", "properties": { "csb_id": "061825014742329", "acres": 3.0256762374197699, "geoid": "06021" }, "geometry": { "type": "Polygon", "coordinates": [ [ [ -122.171588664760591, 39.54956960802506 ], [ -122.171588664812518, 39.549300112877454 ], [ -122.171049675276322, 39.549300113027371 ], [ -122.171049675497173, 39.548940787054093 ], [ -122.171319170779071, 39.548940787334843 ], [ -122.171319170706667, 39.548671292486517 ], [ -122.171947990946265, 39.548671292681696 ], [ -122.171947991106592, 39.548401798231026 ], [ -122.17284630676528, 39.548401797780237 ], [ -122.172846306049834, 39.54894078730301 ], [ -122.172217486007582, 39.549300112688229 ], [ -122.17194799132551, 39.54930011299912 ], [ -122.171947991165183, 39.549569607530628 ], [ -122.171588664760591, 39.54956960802506 ] ] ] } },
{ "type": "Feature", "properties": { "csb_id": "061825014742405", "acres": 3.5490877342168998, "geoid": "06021" }, "geometry": { "type": "Polygon", "coordinates": [ [ [ -122.171678496585599, 39.547772977085621 ], [ -122.17167849662161, 39.547503482958433 ], [ -122.171049676380633, 39.547503483592159 ], [ -122.171049675790329, 39.546245841602925 ], [ -122.17221748584349, 39.546245841003596 ], [ -122.172217485463932, 39.546605167008259 ], [ -122.171947991160167, 39.54660516754295 ], [ -122.17194799099984, 39.546874661832057 ], [ -122.172217485179289, 39.546874661540009 ], [ -122.172217485964509, 39.547503482824311 ], [ -122.171947991857422, 39.547772977859609 ], [ -122.171678496585599, 39.547772977085621 ] ] ] } },
{ "type": "Feature", "properties": { "csb_id": "061825014742735", "acres": 4.66306721721456, "geoid": "06021" }, "geometry": { "type": "Polygon", "coordinates": [ [ [ -122.203299192721872, 39.53690336222666 ], [ -122.203299194955306, 39.535106731683868 ], [ -122.203568688758651, 39.534837236992338 ], [ -122.203928015399427, 39.534837237302632 ], [ -122.203928015679011, 39.5353762267398 ], [ -122.204467003853821, 39.535376226054538 ], [ -122.204287341308088, 39.53600504652173 ], [ -122.204467003944103, 39.536633869040493 ], [ -122.204197509219156, 39.536903362523091 ], [ -122.203299192721872, 39.53690336222666 ] ] ] } },
{ "type": "Feature", "properties": { "csb_id": "061825014742765", "acres": 13.4466759611844, "geoid": "06021" }, "geometry": { "type": "Polygon", "coordinates": [ [ [ -122.264204970975271, 39.537532183188333 ], [ -122.26330665551427, 39.53753218266349 ], [ -122.263306654632444, 39.536274542403817 ], [ -122.263665979211922, 39.5360050472257 ], [ -122.263935474268735, 39.535376226947861 ], [ -122.263935476145136, 39.534477910836159 ], [ -122.264564296319136, 39.534477911196269 ], [ -122.264564296338094, 39.535106731484397 ], [ -122.265462611608072, 39.535106731353238 ], [ -122.265462612052602, 39.536633867974892 ], [ -122.265821938077295, 39.536633867771251 ], [ -122.2658219386784, 39.537172856741954 ], [ -122.265462612231232, 39.537172856458625 ], [ -122.265462611434302, 39.537532182983561 ], [ -122.265732105755902, 39.537532183228876 ], [ -122.265732105721227, 39.537801677782198 ], [ -122.264204971210546, 39.537801677382717 ], [ -122.264204970975271, 39.537532183188333 ] ] ] } },
{ "type": "Feature", "properties": { "csb_id": "061825014742911", "acres": 3.9210952073037002, "geoid": "06021" }, "geometry": { "type": "Polygon", "coordinates": [ [ [ -122.017258099611226, 39.530884650108334 ], [ -122.016359783804575, 39.530884649378315 ], [ -122.01635978389271, 39.529716839822676 ], [ -122.017168267482802, 39.529716840433061 ], [ -122.017168267316762, 39.529986334725585 ], [ -122.018066583532857, 39.529986334589836 ], [ -122.018156414931838, 39.530615154925961 ], [ -122.017258099611226, 39.530884650108334 ] ] ] } },
{ "type": "Feature", "properties": { "csb_id": "061825014743057", "acres": 11.8213351878029, "geoid": "06021" }, "geometry": { "type": "Polygon", "coordinates": [ [ [ -122.012047870845407, 39.525764251972568 ], [ -122.012047870898712, 39.525404926662077 ], [ -122.009622417790339, 39.525404926485066 ], [ -122.009622418669949, 39.524506611329429 ], [ -122.009352924133978, 39.524506611022922 ], [ -122.009352925217172, 39.523967622737153 ], [ -122.009622419232301, 39.523608295577823 ], [ -122.009981745587254, 39.523338801765625 ], [ -122.010520734313445, 39.523338801935324 ], [ -122.010520734985775, 39.523608295754968 ], [ -122.010880060954179, 39.523608295757818 ], [ -122.010880060317064, 39.524237116827464 ], [ -122.012676690710052, 39.524237116619943 ], [ -122.012676691538431, 39.525764252900572 ], [ -122.012047870845407, 39.525764251972568 ] ] ] } },
{ "type": "Feature", "properties": { "csb_id": "061825014743117", "acres": 11.631210954100901, "geoid": "06021" }, "geometry": { "type": "Polygon", "coordinates": [ [ [ -122.012676691514159, 39.524506612206928 ], [ -122.012676690710052, 39.524237116619943 ], [ -122.010880060317064, 39.524237116827464 ], [ -122.010880060708587, 39.522709980811427 ], [ -122.011149554704289, 39.522440485833478 ], [ -122.01114955507667, 39.522170991392727 ], [ -122.013305512010746, 39.522170991827053 ], [ -122.013305511390485, 39.522709980431394 ], [ -122.013575006104844, 39.522709980944555 ], [ -122.013575006549374, 39.523069306527361 ], [ -122.013305512514336, 39.523338801739804 ], [ -122.012946185347928, 39.523338801834988 ], [ -122.012946185286921, 39.523967621930694 ], [ -122.013305511873284, 39.523967621700073 ], [ -122.013305511315366, 39.524237117127903 ], [ -122.012946185693536, 39.524506610986016 ], [ -122.012676691514159, 39.524506612206928 ] ] ] } },
{ "type": "Feature", "properties": { "csb_id": "061825014743278", "acres": 3.5125580045473899, "geoid": "06021" }, "geometry": { "type": "Polygon", "coordinates": [ [ [ -122.175631083342736, 39.516421774147297 ], [ -122.175631083686966, 39.516062448064233 ], [ -122.175900578218403, 39.515523458152565 ], [ -122.176439567525534, 39.51552345811362 ], [ -122.176529398685375, 39.515164132646042 ], [ -122.176798893828575, 39.515523459248172 ], [ -122.176798893438132, 39.5169607627966 ], [ -122.176170073108253, 39.516960762858503 ], [ -122.176170073332528, 39.516691267820619 ], [ -122.175900578914522, 39.516691268417617 ], [ -122.175631083342736, 39.516421774147297 ] ] ] } },
{ "type": "Feature", "properties": { "csb_id": "061825014743398", "acres": 36.858365791523099, "geoid": "06021" }, "geometry": { "type": "Polygon", "coordinates": [ [ [ -121.975306775401222, 39.514445480304445 ], [ -121.967760926008822, 39.513816660062389 ], [ -121.968030421603103, 39.513726827924117 ], [ -121.968030420356754, 39.513367501862845 ], [ -121.967760926329746, 39.513367502204304 ], [ -121.968299915042039, 39.512199692145842 ], [ -121.968659241792324, 39.512199691878259 ], [ -121.968659241922765, 39.511660703031716 ], [ -121.974408459457706, 39.511660702423129 ], [ -121.974408460355335, 39.513996322734101 ], [ -121.975306775241378, 39.51399632265462 ], [ -121.975306775401222, 39.514445480304445 ] ] ] } },
{ "type": "Feature", "properties": { "csb_id": "061825014744357", "acres": 25.618738683361201, "geoid": "06021" }, "geometry": { "type": "Polygon", "coordinates": [ [ [ -122.266989747798434, 39.458480438082276 ], [ -122.266899916946102, 39.458210942898724 ], [ -122.266360927472377, 39.457851617256722 ], [ -122.265462612708419, 39.457851617542275 ], [ -122.265462611187161, 39.457582122962833 ], [ -122.265193117471199, 39.457582122315401 ], [ -122.265103285405146, 39.457312627861512 ], [ -122.26483379188538, 39.457312627540695 ], [ -122.264833791477784, 39.45695330182329 ], [ -122.265193117432744, 39.456414313179224 ], [ -122.265193117270925, 39.455515997129005 ], [ -122.264923623357859, 39.455515997604522 ], [ -122.264923622671617, 39.454887176866457 ], [ -122.265193117945813, 39.454887176518938 ], [ -122.265193118009094, 39.454527850579574 ], [ -122.264564297216609, 39.454527850524478 ], [ -122.2645642964671, 39.454258355845944 ], [ -122.264923623113688, 39.454258356005035 ], [ -122.265193117330583, 39.453360040810473 ], [ -122.265462610449461, 39.453360042828315 ], [ -122.266899914871644, 39.454258356597293 ], [ -122.267528738120944, 39.454258357770669 ], [ -122.26761856674311, 39.455426166076442 ], [ -122.267888061391801, 39.455785492179707 ], [ -122.267888062865651, 39.457312629054911 ], [ -122.267528737172682, 39.457312628376997 ], [ -122.267528737841843, 39.458210943651331 ], [ -122.267259242758385, 39.458210943540699 ], [ -122.267259242437959, 39.458480438159377 ], [ -122.266989747798434, 39.458480438082276 ] ] ] } },
{ "type": "Feature", "properties": { "csb_id": "061825014744366", "acres": 5.1544431474789398, "geoid": "06021" }, "geometry": { "type": "Polygon", "coordinates": [ [ [ -122.265462610449461, 39.453360042828315 ], [ -122.265193117330583, 39.453360040810473 ], [ -122.265193117942175, 39.453090546355419 ], [ -122.266091432680255, 39.453090546378156 ], [ -122.266091433280494, 39.452192230516147 ], [ -122.26663042224753, 39.452192231336234 ], [ -122.266899917083762, 39.452461725493045 ], [ -122.26689991675326, 39.453090545986939 ], [ -122.267259242630573, 39.453988861158905 ], [ -122.267528737925076, 39.453988861537674 ], [ -122.267528738120944, 39.454258357770669 ], [ -122.266899914871644, 39.454258356597293 ], [ -122.265462610449461, 39.453360042828315 ] ] ] } },
{ "type": "Feature", "properties": { "csb_id": "061825014744376", "acres": 8.4987530450448503, "geoid": "06021" }, "geometry": { "type": "Polygon", "coordinates": [ [ [ -122.267259242630573, 39.453988861158905 ], [ -122.26689991675326, 39.453090545986939 ], [ -122.266899917083762, 39.452461725493045 ], [ -122.26663042224753, 39.452192231336234 ], [ -122.266360927199898, 39.452192231338621 ], [ -122.266360927100962, 39.451832904475452 ], [ -122.265732107045025, 39.451832904996067 ], [ -122.265732106417232, 39.451204084357819 ], [ -122.266001601125893, 39.451024420862197 ], [ -122.267888063228284, 39.451114252345384 ], [ -122.267259243106267, 39.451293915594931 ], [ -122.267259243105883, 39.451563410505912 ], [ -122.267528737453972, 39.451832905215092 ], [ -122.268157558453794, 39.451832904720703 ], [ -122.268427052694577, 39.452192230754967 ], [ -122.268427052213752, 39.452461725854853 ], [ -122.268157558266267, 39.452461725569528 ], [ -122.26788806327734, 39.452731220439503 ], [ -122.267888063002587, 39.453360040972434 ], [ -122.267618568603538, 39.453360040753978 ], [ -122.267528737925076, 39.453988861537674 ], [ -122.267259242630573, 39.453988861158905 ] ] ] } },
{ "type": "Feature", "properties": { "csb_id": "061825014744696", "acres": 3.2787075670699601, "geoid": "06021" }, "geometry": { "type": "Polygon", "coordinates": [ [ [ -122.283518748912513, 39.427758055507837 ], [ -122.28351874941292, 39.427398729426159 ], [ -122.285045885513185, 39.427398729282942 ], [ -122.285045885674435, 39.426859739755749 ], [ -122.285315379319471, 39.426859739638651 ], [ -122.285315379429392, 39.426500413663312 ], [ -122.285944200439801, 39.426500414240401 ], [ -122.285944201131585, 39.427398728873506 ], [ -122.285405211440406, 39.427398729036341 ], [ -122.285405211776776, 39.427758055106814 ], [ -122.283518748912513, 39.427758055507837 ] ] ] } },
{ "type": "Feature", "properties": { "csb_id": "061825014744702", "acres": 3.6313747948287398, "geoid": "06021" }, "geometry": { "type": "Polygon", "coordinates": [ [ [ -122.283788243785622, 39.427398729171657 ], [ -122.283788243880807, 39.427129234942761 ], [ -122.283518749064285, 39.427129234582559 ], [ -122.283518747739592, 39.426230919245221 ], [ -122.283878074799517, 39.426230919112633 ], [ -122.283878075359169, 39.42650041412859 ], [ -122.284776391433539, 39.426500414046785 ], [ -122.284776391230395, 39.426230919158314 ], [ -122.285045884788133, 39.426230919135534 ], [ -122.285315379429392, 39.426500413663312 ], [ -122.285315379319471, 39.426859739638651 ], [ -122.285045885674435, 39.426859739755749 ], [ -122.285045885513185, 39.427398729282942 ], [ -122.283788243785622, 39.427398729171657 ] ], [ [ -122.283788242528047, 39.426859740120548 ], [ -122.283788242817479, 39.426500413890416 ], [ -122.283608580309831, 39.426500413591206 ], [ -122.283608580575773, 39.426859740436065 ], [ -122.283788242528047, 39.426859740120548 ] ] ] } },
{ "type": "Feature", "properties": { "csb_id": "061825014745081", "acres": 3.45174355007644, "geoid": "06021" }, "geometry": { "type": "Polygon", "coordinates": [ [ [ -122.256120132625597, 39.396676346196699 ], [ -122.25612013284865, 39.39631702033973 ], [ -122.256479459562286, 39.396047525830859 ], [ -122.257287942960517, 39.39631701990006 ], [ -122.257647268867032, 39.397574661887411 ], [ -122.257018448087578, 39.397574662065786 ], [ -122.25647945976506, 39.397215335730586 ], [ -122.256479458954402, 39.396676346081847 ], [ -122.256120132625597, 39.396676346196699 ] ] ] } }
]
}
