{
"type": "FeatureCollection",
"name": "06037",
"crs": { "type": "name", "properties": { "name": "urn:ogc:def:crs:OGC:1.3:CRS84" } },
"features": [
{ "type": "Feature", "properties": { "csb_id": "061825005237123", "acres": 5.1592928154421198, "geoid": "06037" }, "geometry": { "type": "Polygon", "coordinates": [ [ [ -118.026360480966531, 34.68090047944343 ], [ -118.025192671438916, 34.67973266878645 ], [ -118.025731660083039, 34.679642837895855 ], [ -118.025462165994043, 34.679014016448278 ], [ -118.02654014345336, 34.679014016864613 ], [ -118.026360481082065, 34.679103848470795 ], [ -118.026360480529547, 34.679463174681288 ], [ -118.026629975580505, 34.679463174504711 ], [ -118.026629975303464, 34.679732669224151 ], [ -118.026270649609899, 34.67964283741486 ], [ -118.026540143626519, 34.679912332317251 ], [ -118.026899469595534, 34.679912331939491 ], [ -118.027168964321902, 34.680271658311248 ], [ -118.027079133061349, 34.680630984879478 ], [ -118.026360480966531, 34.68090047944343 ] ] ] } },
{ "type": "Feature", "properties": { "csb_id": "061825005237129", "acres": 11.464131988674399, "geoid": "06037" }, "geometry": { "type": "Polygon", "coordinates": [ [ [ -118.025192671124955, 34.679463174223741 ], [ -118.02519267043364, 34.679103848375334 ], [ -118.024833345206758, 34.679103848680896 ], [ -118.024833345296983, 34.679463174323935 ], [ -118.025192671124955, 34.679463174223741 ], [ -118.025192671438916, 34.67973266878645 ], [ -118.024474019257738, 34.679912332363223 ], [ -118.024204523824878, 34.679642838028364 ], [ -118.02420452393531, 34.679014017047407 ], [ -118.024024861477685, 34.678834354208945 ], [ -118.023665535050441, 34.678834354152684 ], [ -118.023665535529688, 34.678564859276982 ], [ -118.024563850566082, 34.678295365154277 ], [ -118.025192670815173, 34.678295364559212 ], [ -118.025192671129162, 34.678564859465467 ], [ -118.024833344945037, 34.678564859516946 ], [ -118.024833345075876, 34.678834354138552 ], [ -118.025192671443136, 34.678834354292455 ], [ -118.025192671129162, 34.678564859465467 ], [ -118.025462165568669, 34.678295364512167 ], [ -118.025192671508577, 34.678205533059334 ], [ -118.025911322614803, 34.678205532919307 ], [ -118.026270649361095, 34.677846207202485 ], [ -118.026270648953073, 34.677397049854008 ], [ -118.02689947027423, 34.677397049495973 ], [ -118.027168964507666, 34.677666544323465 ], [ -118.027168964227371, 34.677397049660939 ], [ -118.027528290464772, 34.677397049647972 ], [ -118.02752829102063, 34.67802587037135 ], [ -118.026899470245894, 34.678025870268051 ], [ -118.026899469585786, 34.678295364745487 ], [ -118.027528290413301, 34.678295365259579 ], [ -118.027528290480035, 34.67910384816755 ], [ -118.026899469595534, 34.679912331939491 ], [ -118.026540143626519, 34.679912332317251 ], [ -118.026629975580505, 34.679463174504711 ], [ -118.026360480529547, 34.679463174681288 ], [ -118.026360481082065, 34.679103848470795 ], [ -118.026540144327285, 34.679103848285258 ], [ -118.026629975685921, 34.678564859276484 ], [ -118.026001154180463, 34.678564859152807 ], [ -118.025462165683194, 34.678834353785959 ], [ -118.025731660083039, 34.679642837895855 ], [ -118.025192671124955, 34.679463174223741 ] ], [ [ -118.026629975421969, 34.67802587014679 ], [ -118.026629974973332, 34.677666544242641 ], [ -118.026360480332499, 34.677666543705683 ], [ -118.026360480850755, 34.678025870274674 ], [ -118.026629975421969, 34.67802587014679 ] ] ] } },
{ "type": "Feature", "properties": { "csb_id": "061825005237148", "acres": 5.3326822597943, "geoid": "06037" }, "geometry": { "type": "Polygon", "coordinates": [ [ [ -118.044326786573791, 34.664820635814777 ], [ -118.044326786266922, 34.664191814624779 ], [ -118.044057291953493, 34.664012151316676 ], [ -118.04405729149336, 34.663293499408574 ], [ -118.044326786036905, 34.663293499159998 ], [ -118.044686113075073, 34.661946026448824 ], [ -118.044596280944418, 34.661317206094722 ], [ -118.044865776036318, 34.660957880057119 ], [ -118.045135270936399, 34.660957879986711 ], [ -118.045135270272453, 34.662125689927443 ], [ -118.045764090810366, 34.662215521371259 ], [ -118.045584427447011, 34.662574847011875 ], [ -118.045225102208789, 34.6625748475739 ], [ -118.045225101616538, 34.662215521069818 ], [ -118.044955606863709, 34.662215521395218 ], [ -118.044686112336905, 34.662574847192516 ], [ -118.044686112802353, 34.663113836501751 ], [ -118.045225101745885, 34.663383331346544 ], [ -118.045225101591583, 34.663652825778215 ], [ -118.044326786985323, 34.663652825287606 ], [ -118.044326786090878, 34.663922320098727 ], [ -118.044865775789305, 34.6639223203005 ], [ -118.044865775780551, 34.664281645927012 ], [ -118.04459628083977, 34.664820635102586 ], [ -118.044326786573791, 34.664820635814777 ] ] ] } },
{ "type": "Feature", "properties": { "csb_id": "061825005237152", "acres": 8.17141687686971, "geoid": "06037" }, "geometry": { "type": "Polygon", "coordinates": [ [ [ -118.046123417618233, 34.66374265748123 ], [ -118.046123417129309, 34.663383330614749 ], [ -118.045853922331361, 34.663383331318528 ], [ -118.045853922384296, 34.663742657109339 ], [ -118.046123417618233, 34.66374265748123 ], [ -118.046123417133558, 34.664012151553351 ], [ -118.045764091379581, 34.66401215166848 ], [ -118.045764090786065, 34.663293499493101 ], [ -118.046662406015756, 34.662844342023384 ], [ -118.046662405737024, 34.661586700144959 ], [ -118.046033586231189, 34.661586700691537 ], [ -118.046033585796494, 34.661946026525285 ], [ -118.045853922681331, 34.662125689833829 ], [ -118.045135270272453, 34.662125689927443 ], [ -118.045135270857898, 34.661317206116067 ], [ -118.04549459585138, 34.661317205672475 ], [ -118.045494596637283, 34.66158670071448 ], [ -118.045764090772551, 34.661586700681347 ], [ -118.045764090734764, 34.66095787955792 ], [ -118.045584428285636, 34.660957879564521 ], [ -118.045584428350722, 34.660778216241226 ], [ -118.046123417091252, 34.6607782167222 ], [ -118.046392911508207, 34.661047711516503 ], [ -118.046392911674488, 34.661407037768122 ], [ -118.047291227137421, 34.661407037415344 ], [ -118.047291227262605, 34.661676531923803 ], [ -118.047021732057829, 34.661946026219972 ], [ -118.047201395234666, 34.662215521375408 ], [ -118.047201394922894, 34.663024004815775 ], [ -118.047291227448952, 34.663293499248987 ], [ -118.047560722127486, 34.663293499788381 ], [ -118.047560721048498, 34.663742656877858 ], [ -118.047021732593961, 34.663922320527803 ], [ -118.046752237858357, 34.663742656924462 ], [ -118.046123417618233, 34.66374265748123 ] ] ] } },
{ "type": "Feature", "properties": { "csb_id": "061825005237185", "acres": 3.6203582394093301, "geoid": "06037" }, "geometry": { "type": "Polygon", "coordinates": [ [ [ -118.021689240964747, 34.638679660435685 ], [ -118.021689241517308, 34.638949155477825 ], [ -118.019353621604267, 34.63894915522431 ], [ -118.018724801429229, 34.638679660514462 ], [ -118.018724801330777, 34.638410166369979 ], [ -118.021419746188556, 34.638410165798476 ], [ -118.021419746871445, 34.638679660715304 ], [ -118.021689240964747, 34.638679660435685 ] ] ] } },
{ "type": "Feature", "properties": { "csb_id": "061825005237186", "acres": 3.1031885325054098, "geoid": "06037" }, "geometry": { "type": "Polygon", "coordinates": [ [ [ -118.023126546212211, 34.638050840068303 ], [ -118.023216377957837, 34.639038987148794 ], [ -118.023036714038724, 34.638859324282265 ], [ -118.021689240964747, 34.638679660435685 ], [ -118.021689241734933, 34.638410165978364 ], [ -118.022228230659564, 34.637781345212588 ], [ -118.02258755695847, 34.63778134523406 ], [ -118.023126546212211, 34.638050840068303 ] ] ] } },
{ "type": "Feature", "properties": { "csb_id": "061825005237251", "acres": 5.9644931390136504, "geoid": "06037" }, "geometry": { "type": "Polygon", "coordinates": [ [ [ -118.03417582433741, 34.616221778855092 ], [ -118.034445318585995, 34.616221778192497 ], [ -118.034445318663671, 34.616491272935917 ], [ -118.035613128406624, 34.616491272900966 ], [ -118.035613128609327, 34.616850598898878 ], [ -118.035343633297686, 34.617120093535398 ], [ -118.034355486590044, 34.617389588677533 ], [ -118.034175824337112, 34.617389588723896 ], [ -118.034175823876566, 34.61712009358402 ], [ -118.033277509012578, 34.617120093720672 ], [ -118.0332775090192, 34.617659082892693 ], [ -118.033636834272613, 34.617659083545966 ], [ -118.033636834741145, 34.617928577243774 ], [ -118.032738519375854, 34.618018409616127 ], [ -118.032738519757089, 34.617659082862339 ], [ -118.033008013726885, 34.617659082855958 ], [ -118.033008013861036, 34.616850599490775 ], [ -118.033277508994942, 34.616491273227432 ], [ -118.033636834770348, 34.616221778520945 ], [ -118.033906329018947, 34.616221779101544 ], [ -118.033906329357208, 34.616491273434079 ], [ -118.034175823475508, 34.61649127359852 ], [ -118.03417582433741, 34.616221778855092 ] ] ] } },
{ "type": "Feature", "properties": { "csb_id": "061825005237253", "acres": 12.172503625065, "geoid": "06037" }, "geometry": { "type": "Polygon", "coordinates": [ [ [ -118.039475883878325, 34.618018408886037 ], [ -118.039475882738117, 34.616850599370331 ], [ -118.038847063137226, 34.616850599032333 ], [ -118.038577569085163, 34.6171200938645 ], [ -118.037589421200806, 34.617120093673023 ], [ -118.037409759102033, 34.616850599471213 ], [ -118.036511442436534, 34.616850599695454 ], [ -118.036511442590012, 34.616491273745787 ], [ -118.037948747046102, 34.616491273806375 ], [ -118.037948748097492, 34.616221778337575 ], [ -118.038577567991481, 34.616221778796515 ], [ -118.038577568879788, 34.616491273395084 ], [ -118.039475883777214, 34.616491273359856 ], [ -118.039745377795029, 34.616221778926558 ], [ -118.04001487159843, 34.616491273177985 ], [ -118.040284366549301, 34.616491273792256 ], [ -118.040643693156994, 34.616221778408963 ], [ -118.040643692962163, 34.615682789574002 ], [ -118.039925040449276, 34.614784474033918 ], [ -118.040643693460297, 34.614155653816006 ], [ -118.040913188050197, 34.6145149795096 ], [ -118.040913187615487, 34.617389588531722 ], [ -118.040014872466742, 34.618018409683557 ], [ -118.039475883878325, 34.618018408886037 ] ] ] } },
{ "type": "Feature", "properties": { "csb_id": "061825005237259", "acres": 3.3273067890909398, "geoid": "06037" }, "geometry": { "type": "Polygon", "coordinates": [ [ [ -118.023665535134285, 34.611550538894384 ], [ -118.024563849915339, 34.611550539616651 ], [ -118.024563849971017, 34.611820033739257 ], [ -118.024294356044436, 34.611820033786231 ], [ -118.024294355995337, 34.61271834914622 ], [ -118.024024861329167, 34.612718349031063 ], [ -118.024024861041539, 34.613347169705037 ], [ -118.024294355507763, 34.613347169360715 ], [ -118.024294355567307, 34.613886158856424 ], [ -118.02402486136171, 34.613886158790052 ], [ -118.023665534655109, 34.613616664112392 ], [ -118.023665535134285, 34.611550538894384 ] ] ] } },
{ "type": "Feature", "properties": { "csb_id": "061825005237268", "acres": 4.5751495723623101, "geoid": "06037" }, "geometry": { "type": "Polygon", "coordinates": [ [ [ -118.040284366387326, 34.611460708464442 ], [ -118.040284367954897, 34.61128104475965 ], [ -118.040014873293515, 34.611281044823038 ], [ -118.040014873501377, 34.611011550250389 ], [ -118.0399250404068, 34.611460708205236 ], [ -118.03965554644148, 34.61146070810441 ], [ -118.039745379253986, 34.61065222417092 ], [ -118.039386052744518, 34.610921718215323 ], [ -118.039026726817909, 34.610921718420371 ], [ -118.03911655770932, 34.61038272927992 ], [ -118.040014873000857, 34.610382729762996 ], [ -118.040014873610119, 34.610652223448014 ], [ -118.040284367401782, 34.610652224049339 ], [ -118.040284368330688, 34.610113234906464 ], [ -118.040014873208733, 34.610113234921684 ], [ -118.040014872554707, 34.609574245202701 ], [ -118.040913188745066, 34.609843739714989 ], [ -118.040913188206915, 34.610113234383256 ], [ -118.040643693902055, 34.610113234773316 ], [ -118.04064369350823, 34.61101154980021 ], [ -118.040913188805192, 34.611011549821207 ], [ -118.040913188267041, 34.611281044140192 ], [ -118.040643694267516, 34.611550539481449 ], [ -118.040284366387326, 34.611460708464442 ] ] ] } },
{ "type": "Feature", "properties": { "csb_id": "061825005237276", "acres": 2.6986479951014002, "geoid": "06037" }, "geometry": { "type": "Polygon", "coordinates": [ [ [ -118.022857051197889, 34.604274185160207 ], [ -118.022587556579367, 34.604274185533697 ], [ -118.02258755698162, 34.604543679526117 ], [ -118.022228230536641, 34.604543679790424 ], [ -118.022228230307874, 34.603106375416822 ], [ -118.021689240907065, 34.603106375153871 ], [ -118.021689241496716, 34.602836881141577 ], [ -118.022587556593564, 34.60283688123792 ], [ -118.022857051277072, 34.603375870089195 ], [ -118.022857051197889, 34.604274185160207 ] ] ] } },
{ "type": "Feature", "properties": { "csb_id": "061825005237277", "acres": 6.8379659974302403, "geoid": "06037" }, "geometry": { "type": "Polygon", "coordinates": [ [ [ -118.039386052853899, 34.604184354144003 ], [ -118.03938605148025, 34.603914860009716 ], [ -118.038757232056099, 34.6039148591558 ], [ -118.038757231490422, 34.604184354160225 ], [ -118.038487737528754, 34.604184353481514 ], [ -118.038487736736855, 34.60328603852065 ], [ -118.03767925348987, 34.603286038495419 ], [ -118.037319927474982, 34.603016544245513 ], [ -118.037319927449843, 34.602747049048439 ], [ -118.037589421602263, 34.602477555040309 ], [ -118.037858916596861, 34.602477554612612 ], [ -118.038218242438177, 34.60301654492001 ], [ -118.039026725199648, 34.603016545360411 ], [ -118.039026724957267, 34.603645364997817 ], [ -118.03974537739532, 34.603645365075337 ], [ -118.039655546436407, 34.602028397608073 ], [ -118.040823356554355, 34.602118228532447 ], [ -118.040823356264397, 34.602567386231414 ], [ -118.040284366138394, 34.602567386268106 ], [ -118.040194535165156, 34.603016543990286 ], [ -118.040194534825702, 34.603286038345495 ], [ -118.040553861454853, 34.60328603862007 ], [ -118.040643692770104, 34.603735196130252 ], [ -118.039925040625903, 34.603735197687257 ], [ -118.0396555458248, 34.603914859280792 ], [ -118.039655545998485, 34.604184353826113 ], [ -118.039386052853899, 34.604184354144003 ] ] ] } },
{ "type": "Feature", "properties": { "csb_id": "061825005237293", "acres": 5.6456938243229402, "geoid": "06037" }, "geometry": { "type": "Polygon", "coordinates": [ [ [ -117.98458882037896, 34.531151320857248 ], [ -117.984948146282861, 34.529893679525706 ], [ -117.98494814592452, 34.529175027547261 ], [ -117.984678651443389, 34.529175027351428 ], [ -117.984678651981028, 34.528815701245613 ], [ -117.985936293363878, 34.528815701748997 ], [ -117.985846461785982, 34.530881826900476 ], [ -117.985576967522448, 34.530881826678574 ], [ -117.985576966571386, 34.530253006304122 ], [ -117.985127809804069, 34.530253006105141 ], [ -117.985127808764304, 34.530522500452463 ], [ -117.985487135379074, 34.530522500575884 ], [ -117.985487135600209, 34.531151320758717 ], [ -117.98458882037896, 34.531151320857248 ] ] ] } },
{ "type": "Feature", "properties": { "csb_id": "061825005237299", "acres": 3.5743833745067599, "geoid": "06037" }, "geometry": { "type": "Polygon", "coordinates": [ [ [ -118.260191949166156, 34.526210586762311 ], [ -118.26055127557521, 34.526210587072285 ], [ -118.260820769816931, 34.52648008201799 ], [ -118.260820770062722, 34.52683940741624 ], [ -118.260191948960284, 34.527378397076546 ], [ -118.2599224550722, 34.527378396758046 ], [ -118.259922454289892, 34.527108902692213 ], [ -118.25938346569616, 34.527108902550282 ], [ -118.259383465924543, 34.527378397278383 ], [ -118.258485150443633, 34.52737839694904 ], [ -118.258485150647829, 34.526839407578578 ], [ -118.258754645098662, 34.526839407984411 ], [ -118.258754645273541, 34.527108902379638 ], [ -118.259024139594757, 34.527108902370685 ], [ -118.259024139659076, 34.526480082082891 ], [ -118.259383466045122, 34.526480081639896 ], [ -118.259383465467735, 34.526839407739992 ], [ -118.259922454575602, 34.526839408336613 ], [ -118.26019194875083, 34.526480081517299 ], [ -118.260191949166156, 34.526210586762311 ] ] ] } },
{ "type": "Feature", "properties": { "csb_id": "061825005237301", "acres": 2.9754852921534098, "geoid": "06037" }, "geometry": { "type": "Polygon", "coordinates": [ [ [ -118.294058435362089, 34.520012212089945 ], [ -118.294597425056054, 34.520102042784039 ], [ -118.294866919439855, 34.520371537774572 ], [ -118.29486691928598, 34.521000358388548 ], [ -118.294597424504573, 34.521269852806732 ], [ -118.29405843549776, 34.521269853496911 ], [ -118.293699108970344, 34.521000358236357 ], [ -118.293699109558389, 34.520371537545749 ], [ -118.294058435749136, 34.520371537927382 ], [ -118.294058435362089, 34.520012212089945 ] ] ] } },
{ "type": "Feature", "properties": { "csb_id": "061825005237302", "acres": 5.3313578429739303, "geoid": "06037" }, "geometry": { "type": "Polygon", "coordinates": [ [ [ -118.303311082845013, 34.520012211387332 ], [ -118.30331108314607, 34.519832548273378 ], [ -118.302772093473891, 34.519832548999958 ], [ -118.302772093405295, 34.518574907387233 ], [ -118.302951756387799, 34.518305412414435 ], [ -118.303580577313113, 34.518305412300997 ], [ -118.303580577265947, 34.51857490752888 ], [ -118.304119566119397, 34.518574907038229 ], [ -118.304119566625687, 34.518844401521868 ], [ -118.304478892780821, 34.518844401538296 ], [ -118.304389061587727, 34.519203727872537 ], [ -118.303939903601886, 34.519203727673677 ], [ -118.303939903528004, 34.519563053667341 ], [ -118.30429922956057, 34.519563053991192 ], [ -118.304209398732198, 34.519832548682572 ], [ -118.303939903754809, 34.520012212040662 ], [ -118.303311082845013, 34.520012211387332 ] ] ] } },
{ "type": "Feature", "properties": { "csb_id": "061825005237303", "acres": 4.1332493531708101, "geoid": "06037" }, "geometry": { "type": "Polygon", "coordinates": [ [ [ -118.305556871500642, 34.519742716810832 ], [ -118.305556871584457, 34.519473222431579 ], [ -118.306455185715947, 34.519473222490717 ], [ -118.306455186784632, 34.518844401586641 ], [ -118.30672468074404, 34.51857490721283 ], [ -118.307892490367138, 34.518574906999532 ], [ -118.307622996696566, 34.5191138961654 ], [ -118.307622996937496, 34.519473222706026 ], [ -118.306724681320318, 34.519473222732849 ], [ -118.30672468155467, 34.520012211995159 ], [ -118.305826365996182, 34.52001221123156 ], [ -118.305826366209473, 34.519742716726675 ], [ -118.305556871500642, 34.519742716810832 ] ] ] } },
{ "type": "Feature", "properties": { "csb_id": "061825005237304", "acres": 5.0675525326128401, "geoid": "06037" }, "geometry": { "type": "Polygon", "coordinates": [ [ [ -118.311126426530436, 34.520012211815477 ], [ -118.311126426396726, 34.519742717461583 ], [ -118.311395919597146, 34.519742718598856 ], [ -118.311395919592968, 34.519473223954549 ], [ -118.310856931308393, 34.519473223628964 ], [ -118.310856931514493, 34.519113895915694 ], [ -118.311126426784682, 34.518574908373793 ], [ -118.311485750838287, 34.518305413061455 ], [ -118.312294235597051, 34.518574907475852 ], [ -118.312294236337891, 34.518844401941031 ], [ -118.312563729057075, 34.518844401704385 ], [ -118.312563730212844, 34.519473222647505 ], [ -118.312294236372111, 34.519473222676162 ], [ -118.312024741777009, 34.519742718220407 ], [ -118.312024741579592, 34.520012212328737 ], [ -118.311126426530436, 34.520012211815477 ] ] ] } },
{ "type": "Feature", "properties": { "csb_id": "061825005237305", "acres": 7.8273210885551396, "geoid": "06037" }, "geometry": { "type": "Polygon", "coordinates": [ [ [ -118.307443333428424, 34.520102043312043 ], [ -118.307353501890219, 34.51947322259138 ], [ -118.307622996937496, 34.519473222706026 ], [ -118.307622996696566, 34.5191138961654 ], [ -118.307892490367138, 34.518574906999532 ], [ -118.30672468074404, 34.51857490721283 ], [ -118.306455186784632, 34.518844401586641 ], [ -118.306455185715947, 34.519473222490717 ], [ -118.306275522676088, 34.519473223073781 ], [ -118.306275523461181, 34.51920372798827 ], [ -118.305646702341519, 34.519203728370272 ], [ -118.30537720814668, 34.518574907283472 ], [ -118.304674873341341, 34.518454897406507 ], [ -118.304478892780821, 34.518844401538296 ], [ -118.304119566625687, 34.518844401521868 ], [ -118.304119566119397, 34.518574907038229 ], [ -118.303580577265947, 34.51857490752888 ], [ -118.303580577313113, 34.518305412300997 ], [ -118.305377208178541, 34.518395243914618 ], [ -118.305646702951393, 34.51866473899198 ], [ -118.306275523151086, 34.518664738855776 ], [ -118.306275523123716, 34.518395244600839 ], [ -118.305916197266356, 34.518395244029435 ], [ -118.305916197218878, 34.518035917635657 ], [ -118.307084006788159, 34.518035918424324 ], [ -118.307084007475012, 34.51839524391066 ], [ -118.308251816732067, 34.51839524424139 ], [ -118.308611142670628, 34.518664738964873 ], [ -118.308611143273936, 34.519203727530297 ], [ -118.308251817470293, 34.519203727893682 ], [ -118.308251816851353, 34.520102043699808 ], [ -118.307443333428424, 34.520102043312043 ] ] ] } },
{ "type": "Feature", "properties": { "csb_id": "061825005237306", "acres": 3.09742430667339, "geoid": "06037" }, "geometry": { "type": "Polygon", "coordinates": [ [ [ -118.300526305957135, 34.519203727723074 ], [ -118.300346642755187, 34.518934232932232 ], [ -118.300436474463055, 34.51803591764299 ], [ -118.301604283662812, 34.518035918183941 ], [ -118.301604283669221, 34.518664739136035 ], [ -118.301334789672339, 34.518664738335502 ], [ -118.301334789654916, 34.519203728187264 ], [ -118.300526305957135, 34.519203727723074 ] ] ] } },
{ "type": "Feature", "properties": { "csb_id": "061825005237307", "acres": 3.4936157952242599, "geoid": "06037" }, "geometry": { "type": "Polygon", "coordinates": [ [ [ -118.311126426057513, 34.515969793075406 ], [ -118.311126426277525, 34.515071477670546 ], [ -118.310856931745505, 34.515071477499617 ], [ -118.310856931737689, 34.514801982712818 ], [ -118.311665415165294, 34.514801982681391 ], [ -118.312294235483392, 34.515071477431903 ], [ -118.312294235968849, 34.515340972098635 ], [ -118.312024741055538, 34.515340972677791 ], [ -118.312024741140107, 34.516239287940664 ], [ -118.311395920007243, 34.516239287223783 ], [ -118.311126426057513, 34.515969793075406 ] ] ] } },
{ "type": "Feature", "properties": { "csb_id": "061825005237308", "acres": 4.5600825699843703, "geoid": "06037" }, "geometry": { "type": "Polygon", "coordinates": [ [ [ -118.311126425685202, 34.514173162427426 ], [ -118.311126426062287, 34.513903668027396 ], [ -118.310856931069665, 34.513903667818909 ], [ -118.310856931477133, 34.513274847137218 ], [ -118.311395919981337, 34.513005352502624 ], [ -118.312563730467048, 34.513005352438817 ], [ -118.312563730446342, 34.513903667644868 ], [ -118.312294235985334, 34.514173162093577 ], [ -118.311126425685202, 34.514173162427426 ] ] ] } },
{ "type": "Feature", "properties": { "csb_id": "061825005237309", "acres": 3.3515527872756499, "geoid": "06037" }, "geometry": { "type": "Polygon", "coordinates": [ [ [ -117.981983705599916, 34.511837542325772 ], [ -117.982882020971616, 34.511837542220036 ], [ -117.982882021521547, 34.512196868839702 ], [ -117.982522695427022, 34.51219686864669 ], [ -117.98252269527876, 34.513274847010898 ], [ -117.981714210885045, 34.513274846931893 ], [ -117.981983705268092, 34.512466363121682 ], [ -117.981354884976696, 34.512466363155006 ], [ -117.981354884946342, 34.512196868773771 ], [ -117.981983705599916, 34.511837542325772 ] ] ] } },
{ "type": "Feature", "properties": { "csb_id": "061825005237310", "acres": 4.6820254225890601, "geoid": "06037" }, "geometry": { "type": "Polygon", "coordinates": [ [ [ -117.980815896455468, 34.511837542434776 ], [ -117.980546400921014, 34.511837542639483 ], [ -117.980546401818515, 34.512196868949985 ], [ -117.980815896215105, 34.512196868284889 ], [ -117.980815896455468, 34.511837542434776 ], [ -117.981354884821997, 34.51183754251371 ], [ -117.981354884946342, 34.512196868773771 ], [ -117.981085390207141, 34.512466363119316 ], [ -117.981354884976696, 34.512466363155006 ], [ -117.981714211528185, 34.512735857966859 ], [ -117.981714211740922, 34.513005352388085 ], [ -117.980546401449033, 34.513005352152049 ], [ -117.980187075022357, 34.512466363573431 ], [ -117.979648086241724, 34.512196868685209 ], [ -117.979648086373757, 34.511568047700052 ], [ -117.980815896164358, 34.511568048271087 ], [ -117.980815896455468, 34.511837542434776 ] ] ] } },
{ "type": "Feature", "properties": { "csb_id": "061825005237312", "acres": 42.733160613153103, "geoid": "06037" }, "geometry": { "type": "Polygon", "coordinates": [ [ [ -118.312024740829074, 34.519832549157876 ], [ -118.312294236372111, 34.519473222676162 ], [ -118.312563730212844, 34.519473222647505 ], [ -118.312563729057075, 34.518844401704385 ], [ -118.312294236337891, 34.518844401941031 ], [ -118.312294235597051, 34.518574907475852 ], [ -118.311485750838287, 34.518305413061455 ], [ -118.311485751589103, 34.518035917769815 ], [ -118.310946763192135, 34.518035917991952 ], [ -118.310946763193485, 34.516059624100272 ], [ -118.310587436362894, 34.516059624586013 ], [ -118.310587437381102, 34.515430803911975 ], [ -118.310946762615814, 34.515430804087956 ], [ -118.31094676317106, 34.515071477335873 ], [ -118.311126426277525, 34.515071477670546 ], [ -118.311126426057513, 34.515969793075406 ], [ -118.311395920007243, 34.516239287223783 ], [ -118.312024741140107, 34.516239287940664 ], [ -118.312024741055538, 34.515340972677791 ], [ -118.312294235968849, 34.515340972098635 ], [ -118.312294235483392, 34.515071477431903 ], [ -118.311665415165294, 34.514801982681391 ], [ -118.310587437106562, 34.514891814891776 ], [ -118.310587437057038, 34.51426299359224 ], [ -118.310946762464823, 34.514262993597839 ], [ -118.310946763275439, 34.513903667239084 ], [ -118.311126426062287, 34.513903668027396 ], [ -118.311126425685202, 34.514173162427426 ], [ -118.312294235985334, 34.514173162093577 ], [ -118.312563730446342, 34.513903667644868 ], [ -118.312563730467048, 34.513005352438817 ], [ -118.311395919981337, 34.513005352502624 ], [ -118.310856931477133, 34.513274847137218 ], [ -118.310856931149615, 34.513724004688591 ], [ -118.310587437037881, 34.513724004727202 ], [ -118.310587436991554, 34.511657879062426 ], [ -118.310946763007863, 34.511388385296904 ], [ -118.311395920583735, 34.511388384706429 ], [ -118.311485752067568, 34.511657879543137 ], [ -118.312114573261653, 34.511657879868679 ], [ -118.312384067576133, 34.511388385348319 ], [ -118.312384067033378, 34.511118890341692 ], [ -118.312923056708911, 34.511118890397107 ], [ -118.313282382287881, 34.511388385248665 ], [ -118.313282382711208, 34.511927374523296 ], [ -118.312923056794176, 34.511927373808639 ], [ -118.312923056769876, 34.515430803538074 ], [ -118.313462045551205, 34.51543080344959 ], [ -118.313821372064027, 34.51516130886759 ], [ -118.314719687549825, 34.515161308839836 ], [ -118.31498918149299, 34.515430804181634 ], [ -118.314989182052841, 34.515700297793721 ], [ -118.31471968730385, 34.5157002978858 ], [ -118.314450192548193, 34.516059624154352 ], [ -118.314450192810099, 34.516329119105414 ], [ -118.314719687357467, 34.516329119182217 ], [ -118.314719687234486, 34.516598613389228 ], [ -118.313911203132548, 34.516868108062539 ], [ -118.313282383134677, 34.516868108021335 ], [ -118.313282382233311, 34.517227434381688 ], [ -118.314270529028363, 34.517676592019576 ], [ -118.314270529147208, 34.518305413021288 ], [ -118.31400103463659, 34.518305412398114 ], [ -118.314001034445084, 34.519113896059537 ], [ -118.313731539765996, 34.519113896137206 ], [ -118.313731540682966, 34.518844401375851 ], [ -118.312923056484209, 34.518574907095747 ], [ -118.312923056648785, 34.51983254863476 ], [ -118.312024740829074, 34.519832549157876 ] ], [ [ -118.312833224772348, 34.518395244069282 ], [ -118.312923056218082, 34.51803591774776 ], [ -118.312114572670282, 34.518035918097738 ], [ -118.312114573265092, 34.518395244473261 ], [ -118.312833224772348, 34.518395244069282 ] ], [ [ -118.313192551407951, 34.517496928611777 ], [ -118.312923056207353, 34.517496928939984 ], [ -118.312923056746598, 34.517766423281046 ], [ -118.313192550749932, 34.51776642336894 ], [ -118.313192551407951, 34.517496928611777 ] ] ] } },
{ "type": "Feature", "properties": { "csb_id": "061825005237313", "acres": 17.341615401657101, "geoid": "06037" }, "geometry": { "type": "Polygon", "coordinates": [ [ [ -117.982971852769921, 34.51372400467595 ], [ -117.981638415908066, 34.513615487089119 ], [ -117.980905728038891, 34.513095184221207 ], [ -117.980007412471707, 34.513095183802911 ], [ -117.97767179201594, 34.511837542423834 ], [ -117.977671792644344, 34.511657879368009 ], [ -117.979468423414829, 34.511657879040193 ], [ -117.979468423288822, 34.511388384771017 ], [ -117.980276907148607, 34.511388384792589 ], [ -117.981175222111503, 34.511118890367356 ], [ -117.983780336335485, 34.511118890732774 ], [ -117.983780336029525, 34.512825689733198 ], [ -117.983510842381918, 34.513364678681938 ], [ -117.982971852871572, 34.513364678474439 ], [ -117.982971852769921, 34.51372400467595 ] ], [ [ -117.98252269527876, 34.513274847010898 ], [ -117.982522695427022, 34.51219686864669 ], [ -117.982882021521547, 34.512196868839702 ], [ -117.982882020971616, 34.511837542220036 ], [ -117.980815896455468, 34.511837542434776 ], [ -117.980815896164358, 34.511568048271087 ], [ -117.979648086373757, 34.511568047700052 ], [ -117.979648086241724, 34.512196868685209 ], [ -117.980187075022357, 34.512466363573431 ], [ -117.980546401449033, 34.513005352152049 ], [ -117.981714211740922, 34.513005352388085 ], [ -117.981714210885045, 34.513274846931893 ], [ -117.98252269527876, 34.513274847010898 ] ] ] } },
{ "type": "Feature", "properties": { "csb_id": "061825005237318", "acres": 3.8722482534813198, "geoid": "06037" }, "geometry": { "type": "Polygon", "coordinates": [ [ [ -118.199106509847823, 34.428923041955578 ], [ -118.199645498931517, 34.429551862546283 ], [ -118.199645499036762, 34.429821357142849 ], [ -118.198747183887463, 34.430360346749438 ], [ -118.197938699910239, 34.430360346697498 ], [ -118.19793870038383, 34.430719672403242 ], [ -118.197579373893873, 34.430719672761789 ], [ -118.197309879614195, 34.430360346038327 ], [ -118.197309879654938, 34.430090851318901 ], [ -118.198208194686927, 34.430090851997655 ], [ -118.199016678135635, 34.429551862354927 ], [ -118.199016678506055, 34.429192536868484 ], [ -118.198747183945756, 34.429192536108559 ], [ -118.198747183763658, 34.428923041936898 ], [ -118.199106509847823, 34.428923041955578 ] ] ] } },
{ "type": "Feature", "properties": { "csb_id": "061825005237319", "acres": 12.108026228003, "geoid": "06037" }, "geometry": { "type": "Polygon", "coordinates": [ [ [ -118.19497426012498, 34.429551862699725 ], [ -118.194974259646358, 34.428653547495102 ], [ -118.195243754632017, 34.428384052572156 ], [ -118.195603080796289, 34.427216243155954 ], [ -118.196411563709276, 34.426317927699287 ], [ -118.197040384532755, 34.42631792765917 ], [ -118.197220047399753, 34.42676708529067 ], [ -118.19722004794798, 34.427395905567742 ], [ -118.196681058670734, 34.427395905842999 ], [ -118.196681059342595, 34.42721624316642 ], [ -118.196411564388768, 34.427216243011166 ], [ -118.196411564109681, 34.428923041488176 ], [ -118.197040384784671, 34.428923041900738 ], [ -118.197040384382831, 34.429551862347992 ], [ -118.196770890096019, 34.429551862237794 ], [ -118.196770890515651, 34.429192536004287 ], [ -118.195603080409327, 34.429192536720201 ], [ -118.195603080163352, 34.429551862788806 ], [ -118.196681059129475, 34.429731525565344 ], [ -118.196950553817629, 34.430001020507746 ], [ -118.19695055359422, 34.430270515048164 ], [ -118.195513248543776, 34.430270514714302 ], [ -118.195513248914779, 34.429821356878058 ], [ -118.195243754209613, 34.429551862407642 ], [ -118.19497426012498, 34.429551862699725 ] ] ] } },
{ "type": "Feature", "properties": { "csb_id": "061825005237320", "acres": 3.0486475256921102, "geoid": "06037" }, "geometry": { "type": "Polygon", "coordinates": [ [ [ -118.123648026270089, 34.42164668790096 ], [ -118.124456510323199, 34.421646687571474 ], [ -118.124456510283935, 34.42281449748473 ], [ -118.12418701492517, 34.423083992481565 ], [ -118.123468363655618, 34.42308399276304 ], [ -118.123648026286929, 34.422545002952177 ], [ -118.123648026270089, 34.42164668790096 ] ] ] } },
{ "type": "Feature", "properties": { "csb_id": "061825005237321", "acres": 3.5788468888965999, "geoid": "06037" }, "geometry": { "type": "Polygon", "coordinates": [ [ [ -117.884696160301289, 34.419939888907287 ], [ -117.885055486553611, 34.41993988903932 ], [ -117.885055487096182, 34.420209383521758 ], [ -117.885953801638749, 34.420209383942648 ], [ -117.88595380185167, 34.420478878082562 ], [ -117.885684307644496, 34.420478878566406 ], [ -117.885684307321782, 34.421377193807288 ], [ -117.885324980973479, 34.421646687756201 ], [ -117.884785992095289, 34.421646688320557 ], [ -117.884785992239415, 34.42137719341671 ], [ -117.885055486934235, 34.421377193677408 ], [ -117.88505548711376, 34.420748372437977 ], [ -117.884516498076863, 34.420748372980519 ], [ -117.884516497291244, 34.420119552303106 ], [ -117.884696160301289, 34.419939888907287 ] ] ] } },
{ "type": "Feature", "properties": { "csb_id": "061825005237455", "acres": 2.77551431540653, "geoid": "06037" }, "geometry": { "type": "Polygon", "coordinates": [ [ [ -118.761541709417642, 34.110560105281202 ], [ -118.761541709738154, 34.110021115643661 ], [ -118.761811204170016, 34.110021115637316 ], [ -118.76181120375216, 34.110290610278838 ], [ -118.762080698315032, 34.110290610727773 ], [ -118.762080698346935, 34.109661790124534 ], [ -118.762709519556552, 34.109661790064592 ], [ -118.762709519039973, 34.110290610860012 ], [ -118.763248508141174, 34.110290610646942 ], [ -118.763248508195929, 34.110560105178152 ], [ -118.762709518859779, 34.110829600064676 ], [ -118.762350193651955, 34.110829599987738 ], [ -118.76235019326495, 34.110560105314292 ], [ -118.761541709417642, 34.110560105281202 ] ] ] } },
{ "type": "Feature", "properties": { "csb_id": "061825005237463", "acres": 8.8478257390004291, "geoid": "06037" }, "geometry": { "type": "Polygon", "coordinates": [ [ [ -118.833047605691291, 34.101487121115348 ], [ -118.833047605795599, 34.101127794876746 ], [ -118.832778111660403, 34.101127794254218 ], [ -118.832778111632919, 34.101487121148907 ], [ -118.833047605691291, 34.101487121115348 ], [ -118.833047605813306, 34.101756615418473 ], [ -118.832239122420049, 34.101756615165755 ], [ -118.832239121654681, 34.101487120632328 ], [ -118.831610301269279, 34.101487121064295 ], [ -118.831610301979467, 34.101756615171944 ], [ -118.831340806966963, 34.101756615554912 ], [ -118.831071312269344, 34.101127795143555 ], [ -118.830442491732768, 34.100858299892316 ], [ -118.829903502861654, 34.100858300227806 ], [ -118.829903502236334, 34.100588805145463 ], [ -118.830172996691957, 34.100319310995872 ], [ -118.831071312034013, 34.100319310818023 ], [ -118.831071312128799, 34.100049816441484 ], [ -118.83143063879443, 34.100319310884451 ], [ -118.831340807189406, 34.100858299773549 ], [ -118.831879796496139, 34.100588805302365 ], [ -118.833676426583594, 34.100588805160157 ], [ -118.833676426760846, 34.100858300190133 ], [ -118.833406932283168, 34.101127794230301 ], [ -118.833676427000228, 34.100948131196439 ], [ -118.833766258116256, 34.10067863722626 ], [ -118.834305247758536, 34.100678636959728 ], [ -118.834305247731123, 34.100948131516432 ], [ -118.833797137585307, 34.101156568734858 ], [ -118.833676426294033, 34.101487121138135 ], [ -118.833047605691291, 34.101487121115348 ] ] ] } },
{ "type": "Feature", "properties": { "csb_id": "061825005237465", "acres": 15.2322350940406, "geoid": "06037" }, "geometry": { "type": "Polygon", "coordinates": [ [ [ -118.831340807316124, 34.099420995429291 ], [ -118.831430638617817, 34.099780321615306 ], [ -118.831700132612738, 34.09978032169716 ], [ -118.831610301127938, 34.099420995507025 ], [ -118.831340807316124, 34.099420995429291 ], [ -118.83134080647811, 34.099151500751603 ], [ -118.831071312798244, 34.099151501129633 ], [ -118.831071312507873, 34.09897183803195 ], [ -118.832814802877621, 34.099342919838712 ], [ -118.832328954285359, 34.099510826946847 ], [ -118.83232895404123, 34.099780321486591 ], [ -118.832867943590074, 34.099780322063729 ], [ -118.832867942830376, 34.100049816069969 ], [ -118.833137437736795, 34.100049816501198 ], [ -118.833137437303847, 34.099780321625992 ], [ -118.832867943590074, 34.099780322063729 ], [ -118.832867943029299, 34.099510827311086 ], [ -118.833496764100218, 34.099510826852367 ], [ -118.833496763395743, 34.099780321374681 ], [ -118.834574742319234, 34.099959984857811 ], [ -118.836910362117564, 34.099959984707574 ], [ -118.836910362041451, 34.101307457619363 ], [ -118.836551035848785, 34.101307457839461 ], [ -118.836551035100612, 34.101127794619643 ], [ -118.83610187835805, 34.100858299670357 ], [ -118.835113730999581, 34.100678637175541 ], [ -118.834305247731123, 34.100948131516432 ], [ -118.834305247758536, 34.100678636959728 ], [ -118.833766258116256, 34.10067863722626 ], [ -118.833676427000228, 34.100948131196439 ], [ -118.833676426583594, 34.100588805160157 ], [ -118.831700132574596, 34.100678636714619 ], [ -118.831071312513927, 34.099959984891605 ], [ -118.830532323259121, 34.099959984868555 ], [ -118.830532322838337, 34.099690489928371 ], [ -118.831340807316124, 34.099420995429291 ] ] ] } },
{ "type": "Feature", "properties": { "csb_id": "061825005237467", "acres": 7.8480883265371899, "geoid": "06037" }, "geometry": { "type": "Polygon", "coordinates": [ [ [ -118.830442491843399, 34.098792175203528 ], [ -118.830442491883545, 34.09825318531859 ], [ -118.829903501976162, 34.098253185796992 ], [ -118.829903502341708, 34.098522680793373 ], [ -118.829274681720207, 34.098522681706015 ], [ -118.829005187376225, 34.098253186171341 ], [ -118.829005186887656, 34.097624364930439 ], [ -118.829274681616454, 34.09735487038396 ], [ -118.829723839427189, 34.097354870262002 ], [ -118.829634008298342, 34.096815881726258 ], [ -118.830442492142495, 34.09681588145952 ], [ -118.830442491732683, 34.097085375625774 ], [ -118.830711986468444, 34.097354870163478 ], [ -118.831340807140137, 34.097354870609109 ], [ -118.831610301935243, 34.097624364689693 ], [ -118.831610302011981, 34.098253185630277 ], [ -118.831071312666893, 34.098253185895629 ], [ -118.830711986418834, 34.098522680316137 ], [ -118.830711986140983, 34.098792174991786 ], [ -118.830442491843399, 34.098792175203528 ] ] ] } },
{ "type": "Feature", "properties": { "csb_id": "061825005237469", "acres": 9.4403072940341701, "geoid": "06037" }, "geometry": { "type": "Polygon", "coordinates": [ [ [ -118.830172997384096, 34.096456555024851 ], [ -118.830172997001057, 34.09681588166621 ], [ -118.829095017994049, 34.096815881445245 ], [ -118.829364513443423, 34.096905713267972 ], [ -118.829364513804862, 34.097175207421586 ], [ -118.828825523654046, 34.0971752072005 ], [ -118.827657714222752, 34.096546386827526 ], [ -118.827657713929241, 34.096007397529561 ], [ -118.82936451233239, 34.096007397829716 ], [ -118.82999333393434, 34.095737902628372 ], [ -118.831340806964405, 34.095917566507595 ], [ -118.831610301287071, 34.096187061087768 ], [ -118.83161030190476, 34.096815881202417 ], [ -118.830442492142495, 34.09681588145952 ], [ -118.830172997384096, 34.096456555024851 ] ] ] } },
{ "type": "Feature", "properties": { "csb_id": "061825005237470", "acres": 4.6436377148777996, "geoid": "06037" }, "geometry": { "type": "Polygon", "coordinates": [ [ [ -118.820650855677926, 34.09690571305584 ], [ -118.820650855241325, 34.096546387146716 ], [ -118.819752539791963, 34.096546386302194 ], [ -118.819752540122309, 34.096276892026417 ], [ -118.820111865911272, 34.096276892291122 ], [ -118.820111866058625, 34.096007397712143 ], [ -118.81948304531744, 34.096007397537974 ], [ -118.819483045519931, 34.095737903294143 ], [ -118.819752539989764, 34.095378576754229 ], [ -118.820381360423752, 34.094839588028236 ], [ -118.82065085547805, 34.094839588031867 ], [ -118.820650855649674, 34.095737903214903 ], [ -118.821189843775741, 34.096276891832986 ], [ -118.821189844177511, 34.096546386959908 ], [ -118.820920350199216, 34.096905713053815 ], [ -118.820650855677926, 34.09690571305584 ] ] ] } },
{ "type": "Feature", "properties": { "csb_id": "061825005237472", "acres": 6.47052183333175, "geoid": "06037" }, "geometry": { "type": "Polygon", "coordinates": [ [ [ -118.82262714844299, 34.096187060265592 ], [ -118.822627148889111, 34.095917565692119 ], [ -118.822267822680686, 34.095917566267801 ], [ -118.822267822294492, 34.095288745806322 ], [ -118.822627148366024, 34.095109082723916 ], [ -118.822627148874247, 34.094749755833931 ], [ -118.822357653838154, 34.094570093006574 ], [ -118.822357654156406, 34.094300598103302 ], [ -118.823884789613643, 34.094300598571039 ], [ -118.823884789626518, 34.095737902848626 ], [ -118.82352546455094, 34.096007397822 ], [ -118.82262714844299, 34.096187060265592 ] ] ] } },
{ "type": "Feature", "properties": { "csb_id": "061825005237473", "acres": 2.8168348459556398, "geoid": "06037" }, "geometry": { "type": "Polygon", "coordinates": [ [ [ -118.812116859843499, 34.095288745848343 ], [ -118.810949050380387, 34.095288745038985 ], [ -118.810949050269755, 34.094749755956222 ], [ -118.81148803922008, 34.094749755986413 ], [ -118.811488038820045, 34.094210766772811 ], [ -118.811847365034026, 34.09421076577415 ], [ -118.812386354319088, 34.094480262577711 ], [ -118.812386354313901, 34.0950192520176 ], [ -118.8121168595884, 34.095019251042217 ], [ -118.812116859843499, 34.095288745848343 ] ] ] } },
{ "type": "Feature", "properties": { "csb_id": "061825005237476", "acres": 6.5828930532567496, "geoid": "06037" }, "geometry": { "type": "Polygon", "coordinates": [ [ [ -118.812116860097106, 34.095648071826112 ], [ -118.812116859843499, 34.095288745848343 ], [ -118.812386353921937, 34.09528874529834 ], [ -118.812386354319088, 34.094480262577711 ], [ -118.811577870703573, 34.094210766791612 ], [ -118.811577870452268, 34.093941272918201 ], [ -118.811937196742846, 34.093941272297542 ], [ -118.811937197369133, 34.093671777908234 ], [ -118.81130837657787, 34.093402282896761 ], [ -118.810769387149563, 34.093402283076898 ], [ -118.810769387077173, 34.093941272851453 ], [ -118.811308375734313, 34.093941272653069 ], [ -118.811308376499554, 34.094300598382986 ], [ -118.81049989229362, 34.094300598619391 ], [ -118.810499892694992, 34.093402283096665 ], [ -118.810140566748103, 34.093402283378545 ], [ -118.810140566527025, 34.093671777451199 ], [ -118.809871071658904, 34.0936717777479 ], [ -118.809601576756023, 34.093402283771162 ], [ -118.809601576689815, 34.092773462449884 ], [ -118.810769386916306, 34.092773462661206 ], [ -118.810769387315531, 34.093132788488369 ], [ -118.811308376198653, 34.093132788964652 ], [ -118.81130837649404, 34.092773462499352 ], [ -118.8115778706117, 34.092773462995346 ], [ -118.811577870491035, 34.093402282949135 ], [ -118.811937196934792, 34.093402283641197 ], [ -118.812206691413977, 34.093671777581179 ], [ -118.812655848520265, 34.095019250628745 ], [ -118.812655848878904, 34.095917566414947 ], [ -118.812386354485781, 34.095917566296649 ], [ -118.812116860097106, 34.095648071826112 ] ] ] } },
{ "type": "Feature", "properties": { "csb_id": "061825005237484", "acres": 3.3684793918308702, "geoid": "06037" }, "geometry": { "type": "Polygon", "coordinates": [ [ [ -118.80807444045638, 34.082263174258578 ], [ -118.807804945480214, 34.08136485868436 ], [ -118.807445619411993, 34.081095363642341 ], [ -118.807445619219919, 34.080736038217296 ], [ -118.808074439910996, 34.080736038406918 ], [ -118.808343935948031, 34.08109536397361 ], [ -118.808882923365701, 34.081364858442036 ], [ -118.809242251253025, 34.081364858818553 ], [ -118.809242250066731, 34.081634352822832 ], [ -118.808613429646684, 34.081903847932843 ], [ -118.808433765888509, 34.082263173858415 ], [ -118.80807444045638, 34.082263174258578 ] ] ] } },
{ "type": "Feature", "properties": { "csb_id": "061825005237493", "acres": 3.9914173336010399, "geoid": "06037" }, "geometry": { "type": "Polygon", "coordinates": [ [ [ -118.648803141247384, 34.074807157248372 ], [ -118.649970950653397, 34.074807156617659 ], [ -118.649970951010417, 34.075346146393912 ], [ -118.649701456635299, 34.075885135312717 ], [ -118.648982804754397, 34.076154630081668 ], [ -118.648803140969889, 34.076064798723287 ], [ -118.648803141206372, 34.07534614641547 ], [ -118.647904826073514, 34.075346146057619 ], [ -118.647904826292546, 34.075076651178072 ], [ -118.648803141757298, 34.075076651771759 ], [ -118.648803141247384, 34.074807157248372 ] ] ] } },
{ "type": "Feature", "properties": { "csb_id": "061825005237494", "acres": 4.6651804568691997, "geoid": "06037" }, "geometry": { "type": "Polygon", "coordinates": [ [ [ -118.655181179532548, 34.074447830556991 ], [ -118.656348989379893, 34.074447830821228 ], [ -118.656348990053957, 34.07471732510799 ], [ -118.656977810553599, 34.07471732552375 ], [ -118.656977809825335, 34.0744478308144 ], [ -118.657247304481913, 34.074447830915567 ], [ -118.657516799610065, 34.074717325522236 ], [ -118.657516799713477, 34.075076651714362 ], [ -118.656618484815198, 34.075615640921626 ], [ -118.656348989815925, 34.075615640463923 ], [ -118.656348989270725, 34.075076651324331 ], [ -118.656079495333387, 34.075076651320934 ], [ -118.656079495074465, 34.075615640249254 ], [ -118.65581000059079, 34.075615640277654 ], [ -118.655810000593078, 34.075076651771852 ], [ -118.655181180315566, 34.075076651766771 ], [ -118.655181179532548, 34.074447830556991 ] ] ] } },
{ "type": "Feature", "properties": { "csb_id": "061825005237496", "acres": 3.62397852132769, "geoid": "06037" }, "geometry": { "type": "Polygon", "coordinates": [ [ [ -118.636586053104864, 34.074178336330611 ], [ -118.63595723261497, 34.074178335756649 ], [ -118.635957232625813, 34.074447830951058 ], [ -118.635687737975502, 34.074717325084109 ], [ -118.63541824382952, 34.074717325226139 ], [ -118.635148749287566, 34.074447830271545 ], [ -118.635148748578956, 34.07354951551369 ], [ -118.634789422952409, 34.073549515599041 ], [ -118.634789422738947, 34.0732800209462 ], [ -118.635687737652248, 34.073280020620011 ], [ -118.636586053297535, 34.073908841492646 ], [ -118.636586053104864, 34.074178336330611 ] ] ] } },
{ "type": "Feature", "properties": { "csb_id": "061825005237497", "acres": 4.8388391067852004, "geoid": "06037" }, "geometry": { "type": "Polygon", "coordinates": [ [ [ -118.63101649823129, 34.071842716203889 ], [ -118.631285993100789, 34.071842716804149 ], [ -118.631914814415566, 34.072381705771939 ], [ -118.63164531949549, 34.073549515260567 ], [ -118.631285992816117, 34.07390884141185 ], [ -118.630747003857962, 34.073908841188441 ], [ -118.6307470044094, 34.072112210848545 ], [ -118.631016498893047, 34.072112211416808 ], [ -118.63101649823129, 34.071842716203889 ] ] ] } },
{ "type": "Feature", "properties": { "csb_id": "061825005237504", "acres": 2.7772057587995, "geoid": "06037" }, "geometry": { "type": "Polygon", "coordinates": [ [ [ -118.521781360247303, 34.058098492245065 ], [ -118.522679675031398, 34.058098492339511 ], [ -118.522679675368209, 34.058457818436281 ], [ -118.521511865328577, 34.058457818353084 ], [ -118.521511865239248, 34.057559503483645 ], [ -118.52124237061274, 34.057559503259093 ], [ -118.521242370493894, 34.056930683057971 ], [ -118.521781359896323, 34.056930682910121 ], [ -118.522050854284032, 34.057290008534515 ], [ -118.522050854408221, 34.057828998300195 ], [ -118.52178135965417, 34.057828998248851 ], [ -118.521781360247303, 34.058098492245065 ] ] ] } },
{ "type": "Feature", "properties": { "csb_id": "061825005237525", "acres": 4.0832237279203598, "geoid": "06037" }, "geometry": { "type": "Polygon", "coordinates": [ [ [ -118.850385091300552, 34.047318709163321 ], [ -118.850385090659373, 34.047049214966592 ], [ -118.850025765074903, 34.047049214989187 ], [ -118.850025764356758, 34.046779720045215 ], [ -118.850385091236816, 34.046510225003892 ], [ -118.850924079974234, 34.046510225283484 ], [ -118.851193574458705, 34.047049214970336 ], [ -118.851763465961341, 34.046923590719167 ], [ -118.852091890384514, 34.047857698394026 ], [ -118.851463069362225, 34.04785769830179 ], [ -118.850385091300552, 34.047318709163321 ] ] ] } },
{ "type": "Feature", "properties": { "csb_id": "061825005237532", "acres": 3.3392696120125902, "geoid": "06037" }, "geometry": { "type": "Polygon", "coordinates": [ [ [ -118.581788821658648, 34.045072921312332 ], [ -118.581519326539137, 34.045072920767574 ], [ -118.581519326268406, 34.04534241604135 ], [ -118.580621011429656, 34.045342415084988 ], [ -118.580621011490592, 34.045611910505158 ], [ -118.580082021699269, 34.045611909893807 ], [ -118.580082022380793, 34.045072920463433 ], [ -118.580621010565025, 34.045072920653595 ], [ -118.580621011279021, 34.044444100336548 ], [ -118.58035151698374, 34.044444100106432 ], [ -118.580351516058016, 34.043905110753627 ], [ -118.580621010867162, 34.043905111432196 ], [ -118.580890506155569, 34.044174605652501 ], [ -118.580890506231398, 34.045072921337308 ], [ -118.58124983193332, 34.045072921335354 ], [ -118.58124983141596, 34.044713594582724 ], [ -118.582058315971111, 34.044713594715645 ], [ -118.582058315736717, 34.045342415186283 ], [ -118.581788821002533, 34.045342415927152 ], [ -118.581788821658648, 34.045072921312332 ] ] ] } },
{ "type": "Feature", "properties": { "csb_id": "061825005239067", "acres": 2.3567509199008598, "geoid": "06037" }, "geometry": { "type": "Polygon", "coordinates": [ [ [ -118.386944235870899, 33.747640730759898 ], [ -118.387213730632226, 33.74764073007367 ], [ -118.387213730331624, 33.748179719714955 ], [ -118.388112046161027, 33.748179719636966 ], [ -118.388112045871623, 33.748539045454628 ], [ -118.387213730398969, 33.748539045567291 ], [ -118.387213730248703, 33.748808540113259 ], [ -118.386045920975079, 33.748808540352407 ], [ -118.386045920665438, 33.7485390457717 ], [ -118.386674741284651, 33.748539045927437 ], [ -118.386944235828096, 33.748179719983376 ], [ -118.386944235870899, 33.747640730759898 ] ] ] } },
{ "type": "Feature", "properties": { "csb_id": "061825005239093", "acres": 4.7033688790054704, "geoid": "06037" }, "geometry": { "type": "Polygon", "coordinates": [ [ [ -118.379667882001755, 33.746922078542887 ], [ -118.379578050810153, 33.746652583975319 ], [ -118.378500072123344, 33.746742415504698 ], [ -118.378500072319241, 33.74620342566368 ], [ -118.377871251229593, 33.746203426193908 ], [ -118.377871252015311, 33.745574605417403 ], [ -118.378500072533583, 33.745574604922218 ], [ -118.378500072435642, 33.745844100117552 ], [ -118.379398387541002, 33.745844100111491 ], [ -118.379398387969971, 33.745574605160016 ], [ -118.379667881873544, 33.745574605208247 ], [ -118.379667882079971, 33.746203425879614 ], [ -118.380206871300913, 33.746203425585172 ], [ -118.380206871529992, 33.746742414903473 ], [ -118.379937376892286, 33.74701190935685 ], [ -118.379667882001755, 33.746922078542887 ] ] ] } },
{ "type": "Feature", "properties": { "csb_id": "061825012557327", "acres": 8.4198476297253304, "geoid": "06037" }, "geometry": { "type": "Polygon", "coordinates": [ [ [ -118.447684178566433, 34.812839900660954 ], [ -118.448312999162937, 34.81283990051022 ], [ -118.448582493582521, 34.813199226503485 ], [ -118.448582494432287, 34.813468721220147 ], [ -118.447684178664616, 34.81346872102943 ], [ -118.44768417902074, 34.814097541849641 ], [ -118.448312999717288, 34.814097541843473 ], [ -118.448312999754492, 34.813738215486396 ], [ -118.448851988666746, 34.813738216032355 ], [ -118.448851988741097, 34.814097541938686 ], [ -118.448582493878547, 34.814367036436757 ], [ -118.447953672868621, 34.814367036601745 ], [ -118.447684178982982, 34.814636530727391 ], [ -118.447684179093073, 34.814906025485875 ], [ -118.445618053436178, 34.81490602611634 ], [ -118.445618053604719, 34.814636530874765 ], [ -118.44588754862248, 34.814367036254517 ], [ -118.44624687490284, 34.814367036869974 ], [ -118.446246874273925, 34.81463653086837 ], [ -118.446516369251682, 34.81463653119819 ], [ -118.446516369438726, 34.814097542046561 ], [ -118.44624687420233, 34.814097542135038 ], [ -118.44624687471142, 34.813199226468825 ], [ -118.446516369208069, 34.813199226831081 ], [ -118.446516368449863, 34.813468721370917 ], [ -118.44741468378146, 34.813468721405975 ], [ -118.447684178812423, 34.813199226731207 ], [ -118.447684178566433, 34.812839900660954 ] ] ] } },
{ "type": "Feature", "properties": { "csb_id": "061825012557418", "acres": 6.2957303409242602, "geoid": "06037" }, "geometry": { "type": "Polygon", "coordinates": [ [ [ -118.487389713932302, 34.799005845144514 ], [ -118.488018534903887, 34.799005845137444 ], [ -118.48801853460337, 34.798736350510623 ], [ -118.488288029650661, 34.79873635053611 ], [ -118.488288029607233, 34.79936517148144 ], [ -118.488018535063148, 34.799634666353057 ], [ -118.487389714577191, 34.79963466618134 ], [ -118.487120219939627, 34.799904160887749 ], [ -118.487120219500838, 34.800173655631042 ], [ -118.486221905145683, 34.800173655439636 ], [ -118.486221904181392, 34.799904160665612 ], [ -118.485323589418343, 34.799904160716373 ], [ -118.485054094402017, 34.799634666181625 ], [ -118.485054094306136, 34.799365171882307 ], [ -118.485952410029256, 34.799365171562378 ], [ -118.485952409878465, 34.798736350703422 ], [ -118.486850725645994, 34.799005845135234 ], [ -118.486850725676348, 34.799365171724823 ], [ -118.487389714073984, 34.799365171284194 ], [ -118.487389713932302, 34.799005845144514 ] ] ] } },
{ "type": "Feature", "properties": { "csb_id": "061825012557444", "acres": 2.67221274460353, "geoid": "06037" }, "geometry": { "type": "Polygon", "coordinates": [ [ [ -118.485323589445144, 34.796490562647328 ], [ -118.486221903993254, 34.796490562214714 ], [ -118.486221904020766, 34.796670225256811 ], [ -118.485952409730302, 34.796670225420861 ], [ -118.485952409494317, 34.796939720249576 ], [ -118.487120219889036, 34.796939720104206 ], [ -118.487120219587595, 34.797299045952222 ], [ -118.486850725486534, 34.797568541094059 ], [ -118.485952410199687, 34.797568540358334 ], [ -118.485682915276755, 34.797299045912879 ], [ -118.485682915698135, 34.796670225834013 ], [ -118.485323589521727, 34.796670225270319 ], [ -118.485323589445144, 34.796490562647328 ] ] ] } },
{ "type": "Feature", "properties": { "csb_id": "061825012557496", "acres": 8.3819747477349509, "geoid": "06037" }, "geometry": { "type": "Polygon", "coordinates": [ [ [ -118.493318595585166, 34.789034545677076 ], [ -118.49268977498258, 34.789034545838057 ], [ -118.492420280063953, 34.788765050968024 ], [ -118.492420280225858, 34.7884057244164 ], [ -118.491521964151815, 34.788405724906596 ], [ -118.491521964122654, 34.786698925730413 ], [ -118.491881291211172, 34.786698925595282 ], [ -118.491881290351103, 34.786968420096883 ], [ -118.492689775007193, 34.786968420016557 ], [ -118.492689774371129, 34.78669892617436 ], [ -118.493049100350959, 34.786698926351697 ], [ -118.493318594788818, 34.786968420397045 ], [ -118.493318595585166, 34.789034545677076 ] ] ] } },
{ "type": "Feature", "properties": { "csb_id": "061825012557517", "acres": 3.2903810756468101, "geoid": "06037" }, "geometry": { "type": "Polygon", "coordinates": [ [ [ -118.553056561516271, 34.778164930759452 ], [ -118.554224371708642, 34.778164930524056 ], [ -118.554224371353087, 34.778973414537909 ], [ -118.553954877285136, 34.779332740580372 ], [ -118.553685382333285, 34.77933274030444 ], [ -118.552787066580009, 34.778703919681668 ], [ -118.552787067265527, 34.778434425271854 ], [ -118.553056561772493, 34.778434425246694 ], [ -118.553056561516271, 34.778164930759452 ] ] ] } },
{ "type": "Feature", "properties": { "csb_id": "061825012557548", "acres": 5.3464217615722198, "geoid": "06037" }, "geometry": { "type": "Polygon", "coordinates": [ [ [ -118.372495188944981, 34.76513935872255 ], [ -118.372585021370938, 34.765768179525644 ], [ -118.372315526641245, 34.765768179323558 ], [ -118.372046032370761, 34.766037674254335 ], [ -118.372046031755232, 34.766397000204904 ], [ -118.371686705432438, 34.766397000334422 ], [ -118.371686705543866, 34.765498685372627 ], [ -118.371417211198448, 34.765498685050041 ], [ -118.371417211418546, 34.766397000255601 ], [ -118.370518896467232, 34.766397000415623 ], [ -118.370249400984704, 34.766037674652672 ], [ -118.370249401447325, 34.765768179942043 ], [ -118.370878222650816, 34.765139359238162 ], [ -118.372495188944981, 34.76513935872255 ] ] ] } },
{ "type": "Feature", "properties": { "csb_id": "061825012557549", "acres": 5.7008235857629401, "geoid": "06037" }, "geometry": { "type": "Polygon", "coordinates": [ [ [ -118.531586826580607, 34.765139358859571 ], [ -118.531496994548476, 34.766666495325794 ], [ -118.531317331659793, 34.766666494972718 ], [ -118.531317331451021, 34.766397000959714 ], [ -118.530149522529797, 34.76639700059048 ], [ -118.530149522129022, 34.766666494842525 ], [ -118.529520701522983, 34.766666494917708 ], [ -118.529520700927506, 34.765768179804908 ], [ -118.5306885108118, 34.765768179791571 ], [ -118.530688511568712, 34.764869864562876 ], [ -118.531317331891898, 34.764869864595866 ], [ -118.531586826580607, 34.765139358859571 ] ] ] } },
{ "type": "Feature", "properties": { "csb_id": "061825012557561", "acres": 5.4888878851129901, "geoid": "06037" }, "geometry": { "type": "Polygon", "coordinates": [ [ [ -118.4521757549021, 34.754000249724825 ], [ -118.452984238557306, 34.754000249507072 ], [ -118.45298423965248, 34.754898565035454 ], [ -118.453253733059583, 34.75489856455912 ], [ -118.453253734080818, 34.755796879850692 ], [ -118.451187608647714, 34.755707048193628 ], [ -118.451187608951699, 34.755168059321768 ], [ -118.452085923195398, 34.755168059348527 ], [ -118.452355418305572, 34.754898565011324 ], [ -118.452355418714774, 34.754269743900664 ], [ -118.45208592347943, 34.754269744015197 ], [ -118.4521757549021, 34.754000249724825 ] ] ] } },
{ "type": "Feature", "properties": { "csb_id": "061825012557706", "acres": 2.9894972751426199, "geoid": "06037" }, "geometry": { "type": "Polygon", "coordinates": [ [ [ -117.925493504061592, 34.699203016865276 ], [ -117.925493504053904, 34.698304701745883 ], [ -117.925673166688483, 34.698035207309303 ], [ -117.925942661617256, 34.698035207240913 ], [ -117.925942662048158, 34.698664028258399 ], [ -117.926301987891506, 34.698664027592834 ], [ -117.926301987377073, 34.698304701737733 ], [ -117.927110471138832, 34.698304701568162 ], [ -117.927110472202003, 34.698664028036575 ], [ -117.92684097665348, 34.698933522701267 ], [ -117.925493504061592, 34.699203016865276 ] ] ] } },
{ "type": "Feature", "properties": { "csb_id": "061825012557722", "acres": 3.8415660062399901, "geoid": "06037" }, "geometry": { "type": "Polygon", "coordinates": [ [ [ -117.940136043512169, 34.680967216938534 ], [ -117.940136043012373, 34.680428228158632 ], [ -117.939776717112764, 34.680428227842313 ], [ -117.939776717498532, 34.680967217083399 ], [ -117.940136043512169, 34.680967216938534 ], [ -117.940136043097482, 34.681596037890174 ], [ -117.939776717371132, 34.681596037421329 ], [ -117.939507222839211, 34.681236711084487 ], [ -117.939507222278436, 34.680428227417977 ], [ -117.939237727947599, 34.680428228113293 ], [ -117.939237727972298, 34.680068901895453 ], [ -117.939507222458147, 34.67979940668792 ], [ -117.940136043678777, 34.679799407276022 ], [ -117.940405538296332, 34.680068901633845 ], [ -117.940675032637742, 34.680697722169747 ], [ -117.940675032615204, 34.681236711609529 ], [ -117.940405537920867, 34.681236711771241 ], [ -117.94040553833706, 34.680967217193299 ], [ -117.940136043512169, 34.680967216938534 ] ] ] } },
{ "type": "Feature", "properties": { "csb_id": "061825012557725", "acres": 2.7978720588942698, "geoid": "06037" }, "geometry": { "type": "Polygon", "coordinates": [ [ [ -117.863509749995714, 34.670367096099291 ], [ -117.864048738949947, 34.670367096336165 ], [ -117.864048738711844, 34.670546759741221 ], [ -117.863779244017962, 34.67054675939616 ], [ -117.863779244430134, 34.670906085692614 ], [ -117.864048739055818, 34.670906085371008 ], [ -117.864048738711844, 34.670546759741221 ], [ -117.864408064423557, 34.670546759951392 ], [ -117.864138569815992, 34.670995917384978 ], [ -117.863599581008842, 34.670995917617162 ], [ -117.863599580565676, 34.671265411785065 ], [ -117.864138570182334, 34.671265411756735 ], [ -117.864138569815992, 34.670995917384978 ], [ -117.86467755937575, 34.670995917279775 ], [ -117.864947054525871, 34.671175580318099 ], [ -117.865036885528013, 34.671714569436197 ], [ -117.864767390792935, 34.6717145696825 ], [ -117.864767390430487, 34.671534906303052 ], [ -117.863240255352423, 34.671534906715891 ], [ -117.863240255054663, 34.671175580203823 ], [ -117.863509749298743, 34.671175580457891 ], [ -117.863509749995714, 34.670367096099291 ] ] ] } },
{ "type": "Feature", "properties": { "csb_id": "061825012557727", "acres": 2.84384266940787, "geoid": "06037" }, "geometry": { "type": "Polygon", "coordinates": [ [ [ -117.93833941297359, 34.665067036402675 ], [ -117.938429244025812, 34.667761982340188 ], [ -117.938069917714103, 34.667761982603864 ], [ -117.938069917753211, 34.66740265612026 ], [ -117.938339412304117, 34.667402655821462 ], [ -117.938339413188189, 34.667133161211893 ], [ -117.938069917937668, 34.666863666564979 ], [ -117.937710591773239, 34.666863667413025 ], [ -117.937710591892369, 34.665965351308813 ], [ -117.938069917593751, 34.665965351587822 ], [ -117.938069918572324, 34.665067036392728 ], [ -117.93833941297359, 34.665067036402675 ] ] ] } },
{ "type": "Feature", "properties": { "csb_id": "061825012557729", "acres": 18.1471374875197, "geoid": "06037" }, "geometry": { "type": "Polygon", "coordinates": [ [ [ -117.93591396175303, 34.661833101539919 ], [ -117.935913961947151, 34.66201276443757 ], [ -117.936183455645661, 34.66201276476037 ], [ -117.936452950098044, 34.662372090560289 ], [ -117.936452950128071, 34.662641585143433 ], [ -117.935913961807458, 34.662641585375717 ], [ -117.935913961570705, 34.663180574559881 ], [ -117.937351266479752, 34.66318057440688 ], [ -117.937620760903172, 34.662911079603745 ], [ -117.937710591726187, 34.662102596445585 ], [ -117.93806991841754, 34.662102595858066 ], [ -117.93806991768912, 34.662731416525716 ], [ -117.938339412881717, 34.66327040622825 ], [ -117.938339412851789, 34.664528047004907 ], [ -117.936452950117612, 34.66443821554072 ], [ -117.936452950434528, 34.664078890051435 ], [ -117.936812277313535, 34.664078889538914 ], [ -117.937351265758423, 34.663809395049611 ], [ -117.937171602438127, 34.663270405925275 ], [ -117.936902108383492, 34.663270406191607 ], [ -117.936812276887849, 34.6635399007329 ], [ -117.935554635129748, 34.66353990076562 ], [ -117.935554635849769, 34.664078889675949 ], [ -117.935913960903065, 34.664078889517747 ], [ -117.936183455956112, 34.664438216148007 ], [ -117.936003793311144, 34.665067036481389 ], [ -117.936273287179745, 34.665336531355052 ], [ -117.936812276668519, 34.665336530998331 ], [ -117.936902108093619, 34.66560602550544 ], [ -117.936902108754055, 34.666234846270278 ], [ -117.936273287981734, 34.666234846545677 ], [ -117.936273287080724, 34.666594172056804 ], [ -117.936542782339188, 34.666594172469757 ], [ -117.93654278271022, 34.667133161879235 ], [ -117.936273287964582, 34.667133161927488 ], [ -117.936183455634875, 34.666863666722143 ], [ -117.936183455627727, 34.666145014438889 ], [ -117.935913961645127, 34.665875520058087 ], [ -117.93591396180949, 34.664977205127606 ], [ -117.935554635429853, 34.664707710522052 ], [ -117.935285140579808, 34.664707709929068 ], [ -117.93483598278155, 34.665067036148656 ], [ -117.934476656783474, 34.664977205127045 ], [ -117.934476657413001, 34.664168720592741 ], [ -117.934746152211176, 34.664078889871831 ], [ -117.934746151275149, 34.663539900243435 ], [ -117.934476656719411, 34.663539900345832 ], [ -117.934476656844623, 34.663000911473993 ], [ -117.935015646606871, 34.662911079557723 ], [ -117.935015646157296, 34.663180574033873 ], [ -117.935554634838894, 34.663180574000123 ], [ -117.935554635801267, 34.662911079985321 ], [ -117.935285141123046, 34.662641584988997 ], [ -117.934835982644685, 34.662641585296662 ], [ -117.93483598363531, 34.662461921856988 ], [ -117.93510547805441, 34.662102596142958 ], [ -117.93591396175303, 34.661833101539919 ] ], [ [ -117.937710592300775, 34.663629731895512 ], [ -117.937710592183635, 34.663899226055101 ], [ -117.938069918414442, 34.663899226233724 ], [ -117.938069918348788, 34.663629731869584 ], [ -117.937710592300775, 34.663629731895512 ] ] ] } },
{ "type": "Feature", "properties": { "csb_id": "061825012557732", "acres": 4.5025897584563204, "geoid": "06037" }, "geometry": { "type": "Polygon", "coordinates": [ [ [ -117.761101807224307, 34.638746398720997 ], [ -117.761640796890006, 34.638836230395448 ], [ -117.761730628366266, 34.639734545460989 ], [ -117.762000122775518, 34.639734544929048 ], [ -117.762000122362608, 34.639465051065841 ], [ -117.762449280209353, 34.639375219118598 ], [ -117.762449279996687, 34.640004039598196 ], [ -117.762808606699465, 34.640004040295011 ], [ -117.762808606149662, 34.639644713908289 ], [ -117.763167932129235, 34.639734545495081 ], [ -117.763167932160613, 34.64036336586971 ], [ -117.761371301854894, 34.640363365687406 ], [ -117.761281470137178, 34.640004040356182 ], [ -117.761640796662817, 34.640004040086531 ], [ -117.761640795939286, 34.639644713843879 ], [ -117.760832312258373, 34.639644714108186 ], [ -117.760832312403963, 34.639105724853785 ], [ -117.761101807224307, 34.638746398720997 ] ], [ [ -117.761101806950393, 34.639195555887788 ], [ -117.761101806871366, 34.639465051166709 ], [ -117.761371302232945, 34.63946505080802 ], [ -117.761371301621693, 34.639195556399876 ], [ -117.761101806950393, 34.639195555887788 ] ] ] } },
{ "type": "Feature", "properties": { "csb_id": "061825012557733", "acres": 3.8028820375883901, "geoid": "06037" }, "geometry": { "type": "Polygon", "coordinates": [ [ [ -118.237119076701774, 34.640004039590622 ], [ -118.236490255306393, 34.639375219091619 ], [ -118.23649025496178, 34.638746398401089 ], [ -118.237927559817336, 34.63874639859273 ], [ -118.237927560289052, 34.639644713953885 ], [ -118.237658065459357, 34.63964471428779 ], [ -118.237658065148594, 34.640004039669456 ], [ -118.237119076701774, 34.640004039590622 ] ] ] } },
{ "type": "Feature", "properties": { "csb_id": "061825012557734", "acres": 10.627805973366099, "geoid": "06037" }, "geometry": { "type": "Polygon", "coordinates": [ [ [ -118.238915706361894, 34.639734545178541 ], [ -118.238376718264988, 34.639734545681023 ], [ -118.238376718087096, 34.640093871649036 ], [ -118.236580086619313, 34.640093871165853 ], [ -118.236310592105482, 34.639465050809477 ], [ -118.236310592153274, 34.638836230388506 ], [ -118.236490255920728, 34.638836230303916 ], [ -118.236490255306393, 34.639375219091619 ], [ -118.237119076701774, 34.640004039590622 ], [ -118.237658065148594, 34.640004039669456 ], [ -118.237658065459357, 34.63964471428779 ], [ -118.237927560289052, 34.639644713953885 ], [ -118.237927559817336, 34.63874639859273 ], [ -118.236580086868543, 34.638746398690095 ], [ -118.236580086595097, 34.638297240822531 ], [ -118.238376717906931, 34.638297240593033 ], [ -118.238376718040925, 34.638566735457566 ], [ -118.239275032681789, 34.638566735900568 ], [ -118.239275032484812, 34.638836230437228 ], [ -118.238915706933724, 34.638836230235015 ], [ -118.238915706553229, 34.639105724484295 ], [ -118.239454695434134, 34.639195555972606 ], [ -118.240083516889513, 34.639195556377778 ], [ -118.240083516644717, 34.638566735390789 ], [ -118.24071233721186, 34.638566735269649 ], [ -118.240442842383715, 34.639375219185325 ], [ -118.240083516048273, 34.639465050479942 ], [ -118.240083516548083, 34.640093871714065 ], [ -118.23891570655104, 34.64009387156122 ], [ -118.238915706361894, 34.639734545178541 ] ] ] } },
{ "type": "Feature", "properties": { "csb_id": "061825012557740", "acres": 15.3174251613354, "geoid": "06037" }, "geometry": { "type": "Polygon", "coordinates": [ [ [ -118.31518267477071, 34.626529310212959 ], [ -118.315182675033654, 34.62679880541021 ], [ -118.314913179712548, 34.62706830014919 ], [ -118.312577559773558, 34.626708973752784 ], [ -118.311948738986061, 34.626169984951609 ], [ -118.310272117586962, 34.626139806537047 ], [ -118.309523288161728, 34.625900489601008 ], [ -118.309343624903804, 34.625361500414648 ], [ -118.308714804582777, 34.625361500882697 ], [ -118.308714804866867, 34.625002174493332 ], [ -118.308984299300519, 34.624732679861239 ], [ -118.309343624742041, 34.624732679881497 ], [ -118.309613119336646, 34.625002174525285 ], [ -118.309882614270364, 34.625002174819627 ], [ -118.310152108862709, 34.624732680348608 ], [ -118.311409750756368, 34.624732680389769 ], [ -118.311409749881022, 34.625002174703965 ], [ -118.312218233985604, 34.625002174297954 ], [ -118.312218234252853, 34.62536150099033 ], [ -118.312577559817939, 34.625630995552726 ], [ -118.313116549097145, 34.625630995684489 ], [ -118.313116549370235, 34.626169984699509 ], [ -118.313745370271931, 34.626529310517334 ], [ -118.314284359609914, 34.626529311066541 ], [ -118.314284358802411, 34.626169984913332 ], [ -118.314643685395041, 34.626169984421118 ], [ -118.31518267477071, 34.626529310212959 ] ], [ [ -118.310511434782995, 34.625002174816025 ], [ -118.310511434855485, 34.625361500922004 ], [ -118.310780929415145, 34.625361501299757 ], [ -118.310780929158952, 34.625002174985745 ], [ -118.310511434782995, 34.625002174816025 ] ] ] } },
{ "type": "Feature", "properties": { "csb_id": "061825012557741", "acres": 2.7517830409378199, "geoid": "06037" }, "geometry": { "type": "Polygon", "coordinates": [ [ [ -118.308714804582777, 34.625361500882697 ], [ -118.308714804700969, 34.625630995746434 ], [ -118.308116161184273, 34.625331323274672 ], [ -118.308085983959458, 34.625002175018196 ], [ -118.307546994187462, 34.624732680413437 ], [ -118.306918173799161, 34.624732680495356 ], [ -118.306918174343579, 34.62446318553409 ], [ -118.307277499497218, 34.624193691024786 ], [ -118.308085983767228, 34.624193690871579 ], [ -118.30844530939126, 34.624463185425419 ], [ -118.308445309163304, 34.625361500503821 ], [ -118.308714804582777, 34.625361500882697 ] ] ] } },
{ "type": "Feature", "properties": { "csb_id": "061825012557743", "acres": 4.8993164623222896, "geoid": "06037" }, "geometry": { "type": "Polygon", "coordinates": [ [ [ -117.803681951636591, 34.619073293594703 ], [ -117.801975152124001, 34.619073293536204 ], [ -117.801975152318008, 34.618534304606207 ], [ -117.801615826618217, 34.618174978356848 ], [ -117.801705657904833, 34.617905484179097 ], [ -117.802783636095228, 34.617905484130411 ], [ -117.803412457419668, 34.618174978902225 ], [ -117.803681951312001, 34.618444473060762 ], [ -117.803681951636591, 34.619073293594703 ] ] ] } },
{ "type": "Feature", "properties": { "csb_id": "061825012557744", "acres": 6.6338792118002203, "geoid": "06037" }, "geometry": { "type": "Polygon", "coordinates": [ [ [ -117.804400603349791, 34.618444473046601 ], [ -117.804041277445506, 34.618534304482807 ], [ -117.804041277380094, 34.619432620332802 ], [ -117.802603973167209, 34.619432619992992 ], [ -117.802603973748077, 34.619163125167113 ], [ -117.801705657872901, 34.619163125090658 ], [ -117.80170565788886, 34.618534304853888 ], [ -117.801975152318008, 34.618534304606207 ], [ -117.801975152124001, 34.619073293536204 ], [ -117.803681951636591, 34.619073293594703 ], [ -117.803681951312001, 34.618444473060762 ], [ -117.803412457419668, 34.618174978902225 ], [ -117.802783636095228, 34.617905484130411 ], [ -117.801705657904833, 34.617905484179097 ], [ -117.801705657837019, 34.617366494958475 ], [ -117.803771783043587, 34.617366494574519 ], [ -117.804041278010942, 34.617635989480327 ], [ -117.804041277797182, 34.618264810316809 ], [ -117.804400604176408, 34.618264809989178 ], [ -117.804400603349791, 34.618444473046601 ] ] ] } },
{ "type": "Feature", "properties": { "csb_id": "061825012557745", "acres": 15.036002115654201, "geoid": "06037" }, "geometry": { "type": "Polygon", "coordinates": [ [ [ -118.293712938692821, 34.619163125550671 ], [ -118.292185803263195, 34.619163125461107 ], [ -118.291646814040519, 34.618893630437896 ], [ -118.291646814601719, 34.618264810273168 ], [ -118.291377319424171, 34.618264810226691 ], [ -118.291377319064466, 34.618893630845463 ], [ -118.290568835519892, 34.6185343045331 ], [ -118.290209509202413, 34.618264810379358 ], [ -118.290209509997879, 34.617635989245748 ], [ -118.289850182933151, 34.617635989515016 ], [ -118.289850183763122, 34.617366494757789 ], [ -118.29047900376537, 34.617186831580433 ], [ -118.291646814064407, 34.617546157955054 ], [ -118.292185803382452, 34.617546158168672 ], [ -118.293443444445103, 34.61709699988613 ], [ -118.294251928219268, 34.617097000217655 ], [ -118.29425192806994, 34.617366495148083 ], [ -118.293712939332366, 34.617366494483946 ], [ -118.293712938775002, 34.617995315782949 ], [ -118.293982433476842, 34.617995315867866 ], [ -118.293982433437336, 34.61853430469619 ], [ -118.293712938692821, 34.619163125550671 ] ] ] } },
{ "type": "Feature", "properties": { "csb_id": "061825012557746", "acres": 5.9138053902039296, "geoid": "06037" }, "geometry": { "type": "Polygon", "coordinates": [ [ [ -118.296318052959151, 34.617097000150665 ], [ -118.295779064227403, 34.616827506010502 ], [ -118.295779064222828, 34.61619868533618 ], [ -118.295509569974939, 34.61619868500879 ], [ -118.295509569628635, 34.617097000240072 ], [ -118.294251928219268, 34.617097000217655 ], [ -118.294251928368624, 34.616827505206764 ], [ -118.295150243079163, 34.615929190437271 ], [ -118.296048559282283, 34.615929190254988 ], [ -118.296318052974144, 34.616198684995801 ], [ -118.297216368194142, 34.616198684908511 ], [ -118.297216368688453, 34.616827505922188 ], [ -118.296677379932106, 34.617096999745726 ], [ -118.296318052959151, 34.617097000150665 ] ] ] } },
{ "type": "Feature", "properties": { "csb_id": "061825012557747", "acres": 11.4795807389124, "geoid": "06037" }, "geometry": { "type": "Polygon", "coordinates": [ [ [ -118.291861172847035, 34.617295874901707 ], [ -118.288995073549501, 34.616784344279793 ], [ -118.288951868065098, 34.615929190037328 ], [ -118.289311193925997, 34.615659695563032 ], [ -118.289580688877138, 34.615659695895943 ], [ -118.289580688990469, 34.615929189877669 ], [ -118.291017992914007, 34.615929190272219 ], [ -118.291377319699123, 34.616198684660901 ], [ -118.292185802812085, 34.615659696021567 ], [ -118.2925451296598, 34.615659696018845 ], [ -118.292545129476238, 34.616198685241258 ], [ -118.293712939111913, 34.616198685208374 ], [ -118.293283037409097, 34.616966990215758 ], [ -118.293084118838806, 34.617007168804285 ], [ -118.292724791886769, 34.617007168348003 ], [ -118.292545128722125, 34.61646817940084 ], [ -118.291916308946881, 34.616468179730596 ], [ -118.291861172847035, 34.617295874901707 ] ] ] } },
{ "type": "Feature", "properties": { "csb_id": "061825012557756", "acres": 3.8970205549080101, "geoid": "06037" }, "geometry": { "type": "Polygon", "coordinates": [ [ [ -117.834583997019934, 34.578110116960943 ], [ -117.8341348396726, 34.578199948513536 ], [ -117.834134839595222, 34.577301633332496 ], [ -117.833775513394713, 34.577301632740252 ], [ -117.833685682087292, 34.577840622610175 ], [ -117.833685682697322, 34.576942307011954 ], [ -117.833416188006979, 34.576942307028652 ], [ -117.833416187581221, 34.576672812284087 ], [ -117.834045008436902, 34.576133823515548 ], [ -117.834045007967461, 34.575774496883781 ], [ -117.834314502548736, 34.575774497417044 ], [ -117.834314503046414, 34.576403318029016 ], [ -117.83458399739429, 34.576672812246549 ], [ -117.834943323563635, 34.576672812555756 ], [ -117.834943323608641, 34.577211801387982 ], [ -117.834583997325055, 34.577211801542155 ], [ -117.834583997359658, 34.57694230693501 ], [ -117.834314503238772, 34.576942307079854 ], [ -117.834314502916797, 34.577571127944573 ], [ -117.834583997089112, 34.577571128206998 ], [ -117.834583997019934, 34.578110116960943 ] ] ] } },
{ "type": "Feature", "properties": { "csb_id": "061825012557757", "acres": 3.67378516545023, "geoid": "06037" }, "geometry": { "type": "Polygon", "coordinates": [ [ [ -117.834314502594822, 34.578199948366986 ], [ -117.834583997019934, 34.578110116960943 ], [ -117.834583997089112, 34.577571128206998 ], [ -117.834314502916797, 34.577571127944573 ], [ -117.834314503238772, 34.576942307079854 ], [ -117.834583997359658, 34.57694230693501 ], [ -117.834583997325055, 34.577211801542155 ], [ -117.834943323608641, 34.577211801387982 ], [ -117.834943323563635, 34.576672812555756 ], [ -117.83458399739429, 34.576672812246549 ], [ -117.834314503046414, 34.576403318029016 ], [ -117.834314502548736, 34.575774497417044 ], [ -117.834045007967461, 34.575774496883781 ], [ -117.834045008436902, 34.576133823515548 ], [ -117.833775513923626, 34.576133823027384 ], [ -117.833775514240898, 34.575235508325726 ], [ -117.834404334494081, 34.575235508078244 ], [ -117.835033155629915, 34.576133823534789 ], [ -117.835033154902462, 34.577301633226845 ], [ -117.834673829271338, 34.577301633453764 ], [ -117.834673828689503, 34.578199948115262 ], [ -117.834314502594822, 34.578199948366986 ] ] ] } },
{ "type": "Feature", "properties": { "csb_id": "061825012557760", "acres": 59.805225135384298, "geoid": "06037" }, "geometry": { "type": "Polygon", "coordinates": [ [ [ -117.828565283258726, 34.579098264133648 ], [ -117.829104273420242, 34.579098263785369 ], [ -117.829733095064981, 34.578828768694606 ], [ -117.829733092814223, 34.578559274553562 ], [ -117.829373767163702, 34.578559274810985 ], [ -117.828834778957429, 34.578199948260327 ], [ -117.82883477983691, 34.577930453929753 ], [ -117.829104271758567, 34.577930454648865 ], [ -117.829104273588555, 34.577660958959193 ], [ -117.828565283314546, 34.577660959398379 ], [ -117.828565282446263, 34.577301633710164 ], [ -117.828205956719884, 34.577301633337015 ], [ -117.828205957238751, 34.577660959692331 ], [ -117.828565283314546, 34.577660959398379 ], [ -117.828205956558023, 34.577930454567621 ], [ -117.828205956396204, 34.578559275356028 ], [ -117.828565283185824, 34.578559274802139 ], [ -117.828565283258726, 34.579098264133648 ], [ -117.827936461934044, 34.579098263896554 ], [ -117.827038148787437, 34.578469443389189 ], [ -117.827038146487084, 34.576762644658054 ], [ -117.826768654285914, 34.576762643671316 ], [ -117.826768651975385, 34.576133823394926 ], [ -117.827038149474461, 34.576133822956677 ], [ -117.827038147205826, 34.575594834280743 ], [ -117.826768652654692, 34.575594834515428 ], [ -117.826768654873689, 34.574966013473713 ], [ -117.82703814748389, 34.574966014109719 ], [ -117.8275771377468, 34.574606687411219 ], [ -117.827666967521054, 34.573798204150577 ], [ -117.828205956802421, 34.573798203842514 ], [ -117.828565285118884, 34.573528708986657 ], [ -117.828565285047844, 34.573259214525265 ], [ -117.828834779380614, 34.573259214146752 ], [ -117.828834777061715, 34.574067698305036 ], [ -117.828565285130523, 34.574696518966945 ], [ -117.828205957098973, 34.574696519498971 ], [ -117.828205957534564, 34.575864328676168 ], [ -117.827936462363823, 34.575864328790367 ], [ -117.82793646162034, 34.577032138646338 ], [ -117.828565283194905, 34.577032139312415 ], [ -117.828565283573781, 34.576133823244753 ], [ -117.828205958993564, 34.576133823685986 ], [ -117.828205957534564, 34.575864328676168 ], [ -117.828834779993471, 34.575864328670797 ], [ -117.828834777932883, 34.575235508191412 ], [ -117.829104272923416, 34.574966014058766 ], [ -117.829733092789155, 34.574966013829268 ], [ -117.830272084059246, 34.575594833949154 ], [ -117.830272081518771, 34.575864329334749 ], [ -117.830002589376633, 34.575864329049558 ], [ -117.830002587593441, 34.576493149788192 ], [ -117.830272084066394, 34.576493149666206 ], [ -117.830451744957386, 34.576762644335339 ], [ -117.830451745981449, 34.577660959082237 ], [ -117.830811073087261, 34.578559274779799 ], [ -117.8311703989188, 34.578559274656691 ], [ -117.831170399028309, 34.579098263762972 ], [ -117.83090090310651, 34.579098264125733 ], [ -117.830900902757136, 34.579367758455263 ], [ -117.831170399618017, 34.579367758092474 ], [ -117.831170399028309, 34.579098263762972 ], [ -117.831439891990641, 34.579098264259812 ], [ -117.831439891257673, 34.578199948717341 ], [ -117.831799220487667, 34.577660958865323 ], [ -117.832068712594761, 34.576493150128094 ], [ -117.831799219235904, 34.576133823703344 ], [ -117.831170399622138, 34.575864328604716 ], [ -117.830541577120627, 34.575864329257875 ], [ -117.830541577977726, 34.573798203267764 ], [ -117.831170399659356, 34.573798203246838 ], [ -117.831170396991837, 34.574427024659954 ], [ -117.832068712921412, 34.574427024356893 ], [ -117.83206871414481, 34.574067698464113 ], [ -117.833236522455081, 34.574067698273602 ], [ -117.833236525028326, 34.575864328883164 ], [ -117.833506016451039, 34.576133823398798 ], [ -117.833775513923626, 34.576133823027384 ], [ -117.833775513461788, 34.57640331834169 ], [ -117.833416187581221, 34.576672812284087 ], [ -117.833416188006979, 34.576942307028652 ], [ -117.833685682697322, 34.576942307011954 ], [ -117.833685682087292, 34.577840622610175 ], [ -117.833146691226105, 34.577840622948344 ], [ -117.833146692559055, 34.577571127400319 ], [ -117.832517872116213, 34.57757112739835 ], [ -117.832517871487198, 34.578110117191422 ], [ -117.833146692852566, 34.578110116933594 ], [ -117.833146692608196, 34.578469442886259 ], [ -117.832517871781079, 34.578469443403897 ], [ -117.832517872221956, 34.579008432451921 ], [ -117.832877196041935, 34.579008432448319 ], [ -117.832877197244116, 34.578738937455938 ], [ -117.833146691275232, 34.578738938163568 ], [ -117.833146692608196, 34.578469442886259 ], [ -117.833416185700273, 34.578469442971972 ], [ -117.833416185762403, 34.578110116815708 ], [ -117.833685682382296, 34.578110117206322 ], [ -117.833775511155963, 34.578559274912124 ], [ -117.83323652282543, 34.578828769286112 ], [ -117.832607704064586, 34.579727084215122 ], [ -117.829104271753067, 34.579727084510573 ], [ -117.828565284899994, 34.579367758372157 ], [ -117.828565283258726, 34.579098264133648 ] ], [ [ -117.830272081739295, 34.579098264535986 ], [ -117.829733093286393, 34.57909826443948 ], [ -117.829733094467301, 34.579367758621693 ], [ -117.830272081338492, 34.579367758458268 ], [ -117.830272081739295, 34.579098264535986 ], [ -117.83054157716073, 34.579098263883061 ], [ -117.830541577692316, 34.578828769675944 ], [ -117.830272084029673, 34.578828769254599 ], [ -117.830272081739295, 34.579098264535986 ] ], [ [ -117.832607702021349, 34.575774497904064 ], [ -117.832607703594547, 34.57523550824029 ], [ -117.832068714020991, 34.575235507731428 ], [ -117.83206871224796, 34.576133823528458 ], [ -117.832517870306859, 34.576403318423807 ], [ -117.833146691383902, 34.576403318334521 ], [ -117.833146691321929, 34.575774497610219 ], [ -117.832607702021349, 34.575774497904064 ] ], [ [ -117.832517869773895, 34.57487618194849 ], [ -117.832517872728431, 34.574606687451556 ], [ -117.832877196356193, 34.574606687265494 ], [ -117.832877198058682, 34.574337192687217 ], [ -117.832248375092419, 34.574337193045437 ], [ -117.832248375294441, 34.574876182436661 ], [ -117.832517869773895, 34.57487618194849 ] ], [ [ -117.829643263718268, 34.577032138874522 ], [ -117.829373769077122, 34.577032138675882 ], [ -117.829373766866169, 34.57730163388802 ], [ -117.829733094412902, 34.577301633076139 ], [ -117.829643263718268, 34.577032138874522 ] ], [ [ -117.827577136613101, 34.578738938275592 ], [ -117.828116125159411, 34.5787389377276 ], [ -117.828116127223055, 34.578469442892427 ], [ -117.827577136025184, 34.578469443384044 ], [ -117.827577136613101, 34.578738938275592 ] ] ] } },
{ "type": "Feature", "properties": { "csb_id": "061825012557771", "acres": 4.4562633097590396, "geoid": "06037" }, "geometry": { "type": "Polygon", "coordinates": [ [ [ -117.682678882627698, 34.555292908370319 ], [ -117.682948377219745, 34.555292908713007 ], [ -117.682948377289037, 34.556370887461192 ], [ -117.683307703094187, 34.556370886732878 ], [ -117.683577197841728, 34.556011561173626 ], [ -117.683667029688266, 34.555292908685104 ], [ -117.683846692724231, 34.555292908690717 ], [ -117.683846692349604, 34.555742066728904 ], [ -117.684206018660461, 34.555831897721326 ], [ -117.68393652383385, 34.555831898135345 ], [ -117.683307703479599, 34.556640382071336 ], [ -117.683307703003024, 34.557269202022354 ], [ -117.681600904965237, 34.557538697003764 ], [ -117.6816009051376, 34.55699970794101 ], [ -117.682768714057204, 34.556999707614075 ], [ -117.682768714080112, 34.556460718551058 ], [ -117.68249922019676, 34.556460718726598 ], [ -117.682409388363752, 34.556101392537549 ], [ -117.682499220168467, 34.555472571467782 ], [ -117.682678882627698, 34.555292908370319 ] ] ] } },
{ "type": "Feature", "properties": { "csb_id": "061825012557774", "acres": 6.2125366783798501, "geoid": "06037" }, "geometry": { "type": "Polygon", "coordinates": [ [ [ -117.683667029684756, 34.553496278090108 ], [ -117.68456534553296, 34.554574256481295 ], [ -117.684745008443528, 34.555562402989388 ], [ -117.684295850269308, 34.555831897445039 ], [ -117.683846692349604, 34.555742066728904 ], [ -117.683846692475001, 34.555472571584765 ], [ -117.684206018559934, 34.555472571839708 ], [ -117.684206018651537, 34.554843751147068 ], [ -117.683936523849411, 34.55466408827575 ], [ -117.682678883276253, 34.554574256711447 ], [ -117.682678883362669, 34.554843751318735 ], [ -117.682409388195339, 34.554843750758387 ], [ -117.682409388177433, 34.553496277713982 ], [ -117.682768713967462, 34.553496277959702 ], [ -117.682768714886521, 34.553226783612665 ], [ -117.682948376960212, 34.553406446227868 ], [ -117.683667029684756, 34.553496278090108 ] ], [ [ -117.683577197772919, 34.553675941544157 ], [ -117.682948377985355, 34.553675941189205 ], [ -117.682948377842834, 34.554035267656495 ], [ -117.683307703174876, 34.554035267720877 ], [ -117.683307704133313, 34.554304761822863 ], [ -117.683577197919988, 34.554304762051387 ], [ -117.683577197772919, 34.553675941544157 ] ] ] } },
{ "type": "Feature", "properties": { "csb_id": "061825012557775", "acres": 4.8931875177431401, "geoid": "06037" }, "geometry": { "type": "Polygon", "coordinates": [ [ [ -117.829104273770412, 34.549633522322019 ], [ -117.829104273822551, 34.54936402759553 ], [ -117.828205958865553, 34.54936402816179 ], [ -117.828205958892937, 34.549633522277446 ], [ -117.827666969847186, 34.549633522444701 ], [ -117.827666969299642, 34.54882503825803 ], [ -117.828475453316372, 34.548825038594529 ], [ -117.828565284978794, 34.548465712210735 ], [ -117.8293737691302, 34.548465712013048 ], [ -117.830002589022811, 34.549094532940508 ], [ -117.830002589960685, 34.549364028155978 ], [ -117.829733095284979, 34.549633522070927 ], [ -117.829104273770412, 34.549633522322019 ] ] ] } },
{ "type": "Feature", "properties": { "csb_id": "061825012557787", "acres": 4.3265336560117298, "geoid": "06037" }, "geometry": { "type": "Polygon", "coordinates": [ [ [ -117.976068654438762, 34.513790742555877 ], [ -117.976068654834975, 34.512533100680379 ], [ -117.976248317734758, 34.512443269391945 ], [ -117.977146633147811, 34.512443269772092 ], [ -117.977416127402918, 34.512802596006786 ], [ -117.977416127298923, 34.513072090354093 ], [ -117.977146632937078, 34.513072089924435 ], [ -117.977146633215085, 34.513341584854686 ], [ -117.977416127391777, 34.513700911337686 ], [ -117.978314442880162, 34.513700911023037 ], [ -117.976068654438762, 34.513790742555877 ] ] ] } },
{ "type": "Feature", "properties": { "csb_id": "061825012557788", "acres": 5.5147853594718503, "geoid": "06037" }, "geometry": { "type": "Polygon", "coordinates": [ [ [ -117.978044948185044, 34.512443269738355 ], [ -117.97858393726996, 34.513072090023492 ], [ -117.979482252755091, 34.513072090342227 ], [ -117.979482252596213, 34.513700910918686 ], [ -117.977416127391777, 34.513700911337686 ], [ -117.977146633215085, 34.513341584854686 ], [ -117.977146632937078, 34.513072089924435 ], [ -117.977416127298923, 34.513072090354093 ], [ -117.977416127402918, 34.512802596006786 ], [ -117.977146633147811, 34.512443269772092 ], [ -117.976787306416625, 34.512443269272488 ], [ -117.976787306572575, 34.5121737751426 ], [ -117.977416127561668, 34.512173775252123 ], [ -117.977416127457673, 34.512443269791888 ], [ -117.978044948185044, 34.512443269738355 ] ] ] } },
{ "type": "Feature", "properties": { "csb_id": "061825012557789", "acres": 5.4080701316452204, "geoid": "06037" }, "geometry": { "type": "Polygon", "coordinates": [ [ [ -117.977416127561668, 34.512173775252123 ], [ -117.976787306572575, 34.5121737751426 ], [ -117.976787306416625, 34.512443269272488 ], [ -117.976338149087496, 34.51244326986923 ], [ -117.976338149353822, 34.512263606681536 ], [ -117.975170339956691, 34.511994112060194 ], [ -117.975170339567285, 34.510826302036882 ], [ -117.975582827363311, 34.510862971510228 ], [ -117.976877138608344, 34.511724617284862 ], [ -117.978044947947424, 34.512263606806179 ], [ -117.978044948185044, 34.512443269738355 ], [ -117.977416127457673, 34.512443269791888 ], [ -117.977416127561668, 34.512173775252123 ] ] ] } }
]
}
