{
"type": "FeatureCollection",
"name": "06041",
"crs": { "type": "name", "properties": { "name": "urn:ogc:def:crs:OGC:1.3:CRS84" } },
"features": [
{ "type": "Feature", "properties": { "csb_id": "061825005879887", "acres": 3.9029302464989302, "geoid": "06041" }, "geometry": { "type": "Polygon", "coordinates": [ [ [ -122.922592342141641, 38.27090719721658 ], [ -122.923221162100631, 38.27090719762392 ], [ -122.9234906566261, 38.271176692101122 ], [ -122.925287287681073, 38.271176692010542 ], [ -122.92528728786246, 38.271446186005868 ], [ -122.925017793108481, 38.271805512709172 ], [ -122.92322116255329, 38.271805512720505 ], [ -122.923221161892599, 38.271446186053069 ], [ -122.922592341289757, 38.271446186610817 ], [ -122.922592342141641, 38.27090719721658 ] ] ] } },
{ "type": "Feature", "properties": { "csb_id": "061825005881552", "acres": 5.41914091779035, "geoid": "06041" }, "geometry": { "type": "Polygon", "coordinates": [ [ [ -122.76457868296599, 38.198413154161798 ], [ -122.763321041680385, 38.198143659527503 ], [ -122.763321041731245, 38.197784333278108 ], [ -122.763680367346964, 38.197514838553069 ], [ -122.764219357264679, 38.197514838278416 ], [ -122.764219356564894, 38.196886018077301 ], [ -122.764578682960078, 38.196886017797979 ], [ -122.764578682875865, 38.19724534360229 ], [ -122.764848178201873, 38.197245343807708 ], [ -122.76484817798314, 38.196616523208455 ], [ -122.765476998472622, 38.196616523094335 ], [ -122.765476997810808, 38.198143659177759 ], [ -122.76511767270253, 38.198143659493134 ], [ -122.765117672394425, 38.197514838449116 ], [ -122.764848177188298, 38.197514838587232 ], [ -122.764848177407046, 38.19814365913529 ], [ -122.76457868296599, 38.198413154161798 ] ] ] } },
{ "type": "Feature", "properties": { "csb_id": "061825005881818", "acres": 4.3735219640281198, "geoid": "06041" }, "geometry": { "type": "Polygon", "coordinates": [ [ [ -122.73008337623348, 38.175056956780864 ], [ -122.730083376209777, 38.174787461378209 ], [ -122.729454555604974, 38.174787461304142 ], [ -122.729454555539633, 38.175056956211513 ], [ -122.729185061550581, 38.175056956573179 ], [ -122.729185061441299, 38.174517967246622 ], [ -122.728735903340393, 38.174428135847414 ], [ -122.728735903503974, 38.174158640561664 ], [ -122.729454555142183, 38.173889146285468 ], [ -122.730891860235047, 38.17397897808371 ], [ -122.730712197740829, 38.174158641914381 ], [ -122.730712197306843, 38.174787462764286 ], [ -122.730532534455307, 38.175146788158429 ], [ -122.73008337623348, 38.175056956780864 ] ] ] } },
{ "type": "Feature", "properties": { "csb_id": "061825005881820", "acres": 2.94803134629149, "geoid": "06041" }, "geometry": { "type": "Polygon", "coordinates": [ [ [ -122.731161354690073, 38.174428135671221 ], [ -122.731161354089181, 38.173978977765167 ], [ -122.730712196520912, 38.173889146240398 ], [ -122.730712196747831, 38.173529820416384 ], [ -122.731251185893683, 38.173260326228501 ], [ -122.732059670386164, 38.173350157256799 ], [ -122.732149501773591, 38.174158640751756 ], [ -122.731880006730975, 38.174428135611691 ], [ -122.731161354690073, 38.174428135671221 ] ], [ [ -122.731610512027402, 38.173889146757304 ], [ -122.731251186105183, 38.173889146162317 ], [ -122.731251186445377, 38.174158640617328 ], [ -122.731610512256779, 38.174158640602869 ], [ -122.731610512027402, 38.173889146757304 ] ] ] } },
{ "type": "Feature", "properties": { "csb_id": "061825005881849", "acres": 9.1545887185708494, "geoid": "06041" }, "geometry": { "type": "Polygon", "coordinates": [ [ [ -122.633694145804242, 38.172990831256641 ], [ -122.631089032006443, 38.172990830821085 ], [ -122.63108903186523, 38.172631505032591 ], [ -122.631628020296759, 38.171733189971725 ], [ -122.631987347547096, 38.171463694716671 ], [ -122.632526336823503, 38.171463695258794 ], [ -122.632526336933779, 38.171733190804396 ], [ -122.633424651842247, 38.171733190089867 ], [ -122.633424650975201, 38.171463694908113 ], [ -122.633694146175301, 38.171463695443542 ], [ -122.63405347279469, 38.171733189647902 ], [ -122.63405347190826, 38.172631505088802 ], [ -122.633694145804242, 38.172990831256641 ] ] ] } },
{ "type": "Feature", "properties": { "csb_id": "061825005881952", "acres": 2.8126953214483001, "geoid": "06041" }, "geometry": { "type": "Polygon", "coordinates": [ [ [ -122.570362918165827, 38.162839868254125 ], [ -122.569195108459951, 38.162929700245641 ], [ -122.569195109174203, 38.162300879090999 ], [ -122.568566288166593, 38.162300878970122 ], [ -122.568566288064105, 38.162031385177876 ], [ -122.56982393006767, 38.162031384889467 ], [ -122.569823929327242, 38.161672058590717 ], [ -122.570093423983323, 38.161672058164093 ], [ -122.570093423664758, 38.162300879120892 ], [ -122.570362918165827, 38.162839868254125 ] ] ] } },
{ "type": "Feature", "properties": { "csb_id": "061825005882022", "acres": 4.5394165836813398, "geoid": "06041" }, "geometry": { "type": "Polygon", "coordinates": [ [ [ -122.696216890213947, 38.15664149327845 ], [ -122.696845710560979, 38.15664149345001 ], [ -122.69657621604162, 38.15753980828633 ], [ -122.695947395618802, 38.1575398078215 ], [ -122.695947395333874, 38.15816862919695 ], [ -122.695049080067633, 38.1581686287414 ], [ -122.694779585535017, 38.157809302684193 ], [ -122.694779585660811, 38.157539807830155 ], [ -122.695318574382839, 38.156910987878739 ], [ -122.696216890284944, 38.156910987432362 ], [ -122.696216890213947, 38.15664149327845 ] ] ] } },
{ "type": "Feature", "properties": { "csb_id": "061825005882041", "acres": 6.9062080583810497, "geoid": "06041" }, "geometry": { "type": "Polygon", "coordinates": [ [ [ -122.70133728717714, 38.156641492827504 ], [ -122.701337287344202, 38.156371998137097 ], [ -122.701067792529898, 38.156371998677862 ], [ -122.701067792482903, 38.156641493120922 ], [ -122.70133728717714, 38.156641492827504 ], [ -122.70133728671567, 38.157809302697984 ], [ -122.700708466286216, 38.157809303829225 ], [ -122.700169476763804, 38.157270313700771 ], [ -122.70016947767887, 38.15691098796907 ], [ -122.700438971430586, 38.156641493383347 ], [ -122.700708466592843, 38.156641492509095 ], [ -122.700708466558538, 38.156012673158294 ], [ -122.700259308882877, 38.156012671841623 ], [ -122.700259309041144, 38.156551661217627 ], [ -122.699989814207811, 38.156551661105588 ], [ -122.699989814175368, 38.155653345836221 ], [ -122.700259309046189, 38.155383852334971 ], [ -122.701606782335574, 38.155473683760725 ], [ -122.701606781441868, 38.156012672821582 ], [ -122.701876275717339, 38.156371998346465 ], [ -122.70187627641711, 38.156641493284248 ], [ -122.70133728717714, 38.156641492827504 ] ] ] } },
{ "type": "Feature", "properties": { "csb_id": "061825005882072", "acres": 17.264480119133498, "geoid": "06041" }, "geometry": { "type": "Polygon", "coordinates": [ [ [ -122.714273026833624, 38.155114357076258 ], [ -122.713644206474541, 38.155653346278868 ], [ -122.712476397060698, 38.155653345753315 ], [ -122.711847575883169, 38.155922840948641 ], [ -122.711847575809145, 38.15628216720291 ], [ -122.711308587146533, 38.156282166425974 ], [ -122.710679766370873, 38.155922840964585 ], [ -122.710679766487644, 38.155383851147633 ], [ -122.711308587109613, 38.155383851821654 ], [ -122.711847576498812, 38.154485536655308 ], [ -122.712656059308941, 38.154485535974878 ], [ -122.712745891822948, 38.154126210517703 ], [ -122.713374712182329, 38.153587220671753 ], [ -122.714003532380119, 38.153677052852906 ], [ -122.7155803219391, 38.154286573777156 ], [ -122.716069658136973, 38.155653346135182 ], [ -122.715800163305914, 38.155653346190356 ], [ -122.715800163368357, 38.155383851727727 ], [ -122.714273027352519, 38.155383852023157 ], [ -122.714273026833624, 38.155114357076258 ] ] ] } },
{ "type": "Feature", "properties": { "csb_id": "061825005882529", "acres": 2.8690527193175499, "geoid": "06041" }, "geometry": { "type": "Polygon", "coordinates": [ [ [ -122.667650463517148, 38.119900398206035 ], [ -122.667650464415999, 38.119271577008519 ], [ -122.668908105732612, 38.119361408602778 ], [ -122.668908105427718, 38.120439386687764 ], [ -122.668189452821409, 38.120439387535221 ], [ -122.668009789833349, 38.119990229702282 ], [ -122.667650463517148, 38.119900398206035 ] ] ] } },
{ "type": "Feature", "properties": { "csb_id": "061825005882547", "acres": 2.8731918392635301, "geoid": "06041" }, "geometry": { "type": "Polygon", "coordinates": [ [ [ -122.523381029527016, 38.103730722487512 ], [ -122.523381029031697, 38.10319173351683 ], [ -122.523111534705507, 38.103191733586797 ], [ -122.52311153510982, 38.10283240709721 ], [ -122.523650523726005, 38.10229341806874 ], [ -122.524279344905054, 38.102293418463383 ], [ -122.524009850325257, 38.103730722433703 ], [ -122.523381029527016, 38.103730722487512 ] ] ] } },
{ "type": "Feature", "properties": { "csb_id": "061825005882568", "acres": 3.37812710663149, "geoid": "06041" }, "geometry": { "type": "Polygon", "coordinates": [ [ [ -122.499126517277773, 38.099598472817249 ], [ -122.499126517085898, 38.099418810507863 ], [ -122.498228201345839, 38.099418810486618 ], [ -122.498228200757069, 38.099059483161987 ], [ -122.498767190643946, 38.098161168129131 ], [ -122.499216347723518, 38.098161167781832 ], [ -122.499126516728879, 38.098789990004512 ], [ -122.499396011555561, 38.098700157122302 ], [ -122.499665505578719, 38.09896965270989 ], [ -122.499665506183604, 38.099418809665906 ], [ -122.499396011801934, 38.09968830409121 ], [ -122.499126517277773, 38.099598472817249 ] ] ] } },
{ "type": "Feature", "properties": { "csb_id": "061825005882569", "acres": 3.9897292509277098, "geoid": "06041" }, "geometry": { "type": "Polygon", "coordinates": [ [ [ -122.493556962288935, 38.098700157416729 ], [ -122.493556961506371, 38.098430662520954 ], [ -122.493287466899986, 38.098071336365905 ], [ -122.493556962053034, 38.097801842083719 ], [ -122.493556962282909, 38.097173020740875 ], [ -122.49373662559961, 38.097532347496788 ], [ -122.494455277382357, 38.097532347444513 ], [ -122.49445527749802, 38.097801841390648 ], [ -122.494904435064171, 38.09780184139499 ], [ -122.495084097567116, 38.098071336639237 ], [ -122.495084097837847, 38.098430662530156 ], [ -122.49472477222244, 38.098700157125251 ], [ -122.493556962288935, 38.098700157416729 ] ] ] } },
{ "type": "Feature", "properties": { "csb_id": "061825005882578", "acres": 4.1742304543526698, "geoid": "06041" }, "geometry": { "type": "Polygon", "coordinates": [ [ [ -122.49445527749802, 38.097801841390648 ], [ -122.494455277382357, 38.097532347444513 ], [ -122.49373662559961, 38.097532347496788 ], [ -122.493556962282909, 38.097173020740875 ], [ -122.493556961817163, 38.096903526653044 ], [ -122.494185781522077, 38.096274706006952 ], [ -122.494185780968962, 38.096005211398726 ], [ -122.494455275828614, 38.096005211404112 ], [ -122.494455276261064, 38.096274706257894 ], [ -122.495084098110055, 38.096274705601715 ], [ -122.495084098267725, 38.097532347528151 ], [ -122.494724771979335, 38.097532347227443 ], [ -122.494724771974347, 38.097801841419106 ], [ -122.49445527749802, 38.097801841390648 ] ], [ [ -122.494724772043071, 38.096903526473163 ], [ -122.49445527610996, 38.096903526569008 ], [ -122.494455277176002, 38.097173023108901 ], [ -122.494724772038083, 38.097173020685368 ], [ -122.494724772043071, 38.096903526473163 ] ] ] } },
{ "type": "Feature", "properties": { "csb_id": "061825005882597", "acres": 18.7648926648064, "geoid": "06041" }, "geometry": { "type": "Polygon", "coordinates": [ [ [ -122.530567552181836, 38.097262852822794 ], [ -122.529669236400025, 38.097622178643121 ], [ -122.529220078553806, 38.097622179140174 ], [ -122.529220078539993, 38.096993357993284 ], [ -122.52859125832822, 38.096903526209182 ], [ -122.528411594947571, 38.09627470635472 ], [ -122.527872605394663, 38.09582554864496 ], [ -122.527513279602289, 38.095825548718821 ], [ -122.527513279452364, 38.096634032478718 ], [ -122.527243785233566, 38.096634032086222 ], [ -122.527243785070667, 38.094208580819355 ], [ -122.528591257493858, 38.094208580628099 ], [ -122.530118393818, 38.095466222005157 ], [ -122.530118393757803, 38.095825547977498 ], [ -122.53038788869425, 38.096095043106509 ], [ -122.530837045992087, 38.096274705774654 ], [ -122.531465866584213, 38.096274706294231 ], [ -122.531465866479934, 38.096903527141222 ], [ -122.531286203477393, 38.096903526445416 ], [ -122.531286203476171, 38.09717302158662 ], [ -122.530567552181836, 38.097262852822794 ] ] ] } },
{ "type": "Feature", "properties": { "csb_id": "061825005882616", "acres": 3.5143637977185098, "geoid": "06041" }, "geometry": { "type": "Polygon", "coordinates": [ [ [ -122.518619958038784, 38.092142455740287 ], [ -122.518619957761146, 38.091513634842471 ], [ -122.519158947529448, 38.091244139874235 ], [ -122.520057262206976, 38.09124414006191 ], [ -122.520057262628484, 38.09241194994646 ], [ -122.519158946042523, 38.092411950731943 ], [ -122.519158946300522, 38.092142455952377 ], [ -122.518619958038784, 38.092142455740287 ] ] ] } },
{ "type": "Feature", "properties": { "csb_id": "061825005882620", "acres": 2.9804256300905201, "geoid": "06041" }, "geometry": { "type": "Polygon", "coordinates": [ [ [ -122.520416589380631, 38.092142455360239 ], [ -122.520416588312159, 38.091513634944135 ], [ -122.520057261598879, 38.091513634750818 ], [ -122.520057262815072, 38.090974645364135 ], [ -122.520686083480584, 38.090974645622097 ], [ -122.520686083211658, 38.090705151527317 ], [ -122.52086574691306, 38.091064477598529 ], [ -122.521584398122812, 38.091244140839848 ], [ -122.521584398041682, 38.091513634796442 ], [ -122.521314903598039, 38.091872960739011 ], [ -122.520686083278449, 38.092142456041771 ], [ -122.520416589380631, 38.092142455360239 ] ] ] } },
{ "type": "Feature", "properties": { "csb_id": "061825005882696", "acres": 5.8648249732834499, "geoid": "06041" }, "geometry": { "type": "Polygon", "coordinates": [ [ [ -122.496521402178828, 38.079027052245301 ], [ -122.496521402486692, 38.078667726591604 ], [ -122.495982411871069, 38.078667726297361 ], [ -122.495353592802701, 38.078128737411646 ], [ -122.49508409788713, 38.078128737200053 ], [ -122.495084097933187, 38.077769411263162 ], [ -122.495623087348349, 38.077769410602848 ], [ -122.495623086570248, 38.077320253310894 ], [ -122.496431570193892, 38.077320253390162 ], [ -122.496431570266765, 38.077589747769693 ], [ -122.497329885726145, 38.077589748345716 ], [ -122.497329886634176, 38.078757558080518 ], [ -122.496521402178828, 38.079027052245301 ] ] ] } },
{ "type": "Feature", "properties": { "csb_id": "061825005882699", "acres": 14.409840486366001, "geoid": "06041" }, "geometry": { "type": "Polygon", "coordinates": [ [ [ -122.506402870305777, 38.078128739318061 ], [ -122.506402871265962, 38.077769412989227 ], [ -122.506672365041808, 38.077769411480332 ], [ -122.506672364679844, 38.076960927547844 ], [ -122.507301186131457, 38.07696092702907 ], [ -122.507301185239882, 38.076601601013238 ], [ -122.507570681036754, 38.076332107506843 ], [ -122.507840174775268, 38.076332107839946 ], [ -122.507840175794925, 38.076601602026365 ], [ -122.508468994974379, 38.076601600909115 ], [ -122.508468995290499, 38.076332106843424 ], [ -122.509097815966854, 38.076332106297819 ], [ -122.509636805825949, 38.076601602424745 ], [ -122.509636805659284, 38.076062612564627 ], [ -122.509097816512465, 38.076062612589332 ], [ -122.509097816424273, 38.075793117156145 ], [ -122.51089444645531, 38.07570328564023 ], [ -122.511163941621618, 38.076601601582659 ], [ -122.511433436668284, 38.076601601369305 ], [ -122.511433436214887, 38.076960927518492 ], [ -122.510894446694621, 38.077499916664102 ], [ -122.508468995397479, 38.077499916231979 ], [ -122.508468995398189, 38.07776941111532 ], [ -122.507570680058919, 38.077769410912722 ], [ -122.507570680025083, 38.077499916766378 ], [ -122.50730118596762, 38.077499916819228 ], [ -122.506941859451373, 38.077769411094373 ], [ -122.506941859696752, 38.078128736811188 ], [ -122.506402870305777, 38.078128739318061 ] ], [ [ -122.509277479520534, 38.077230421748439 ], [ -122.50936731068424, 38.076960927160627 ], [ -122.50873848985573, 38.076960927002716 ], [ -122.50873848973589, 38.077230422150116 ], [ -122.509277479520534, 38.077230421748439 ] ], [ [ -122.507750343988619, 38.077230422122852 ], [ -122.507750342842243, 38.077050758571531 ], [ -122.507570680389392, 38.077050758813762 ], [ -122.507570679674387, 38.077230421753086 ], [ -122.507750343988619, 38.077230422122852 ] ] ] } },
{ "type": "Feature", "properties": { "csb_id": "061825005882701", "acres": 2.6508977426609501, "geoid": "06041" }, "geometry": { "type": "Polygon", "coordinates": [ [ [ -122.507840175794925, 38.076601602026365 ], [ -122.50784017440175, 38.075523622772813 ], [ -122.508468995605227, 38.075523622875558 ], [ -122.509097816424273, 38.075793117156145 ], [ -122.509097815966854, 38.076332106297819 ], [ -122.508468995290499, 38.076332106843424 ], [ -122.508468994974379, 38.076601600909115 ], [ -122.507840175794925, 38.076601602026365 ] ] ] } },
{ "type": "Feature", "properties": { "csb_id": "061825005882707", "acres": 12.2836167967255, "geoid": "06041" }, "geometry": { "type": "Polygon", "coordinates": [ [ [ -122.511433436668284, 38.076601601369305 ], [ -122.511433435625392, 38.07633210705378 ], [ -122.511163941247631, 38.076332106409417 ], [ -122.51089444645531, 38.07570328564023 ], [ -122.511433436142241, 38.075703286292985 ], [ -122.511882593874063, 38.075433791087512 ], [ -122.512331751191368, 38.074804970197903 ], [ -122.512331750911926, 38.074265981429434 ], [ -122.51430804526963, 38.074355812986497 ], [ -122.514757202671888, 38.074265980992557 ], [ -122.515026696771358, 38.073906655049669 ], [ -122.516194506692486, 38.073906655346704 ], [ -122.516104675223701, 38.074265981296641 ], [ -122.514397876532286, 38.074804970315789 ], [ -122.514128381765943, 38.075433791276573 ], [ -122.513499561684867, 38.07570328575585 ], [ -122.512601246214317, 38.075703286277353 ], [ -122.512511414087172, 38.076332106279629 ], [ -122.512062256970552, 38.076601601060133 ], [ -122.511433436668284, 38.076601601369305 ] ], [ [ -122.515296192185232, 38.074355812584372 ], [ -122.515475855235749, 38.074265981641425 ], [ -122.515296191818194, 38.074265981935632 ], [ -122.515296192185232, 38.074355812584372 ] ] ] } },
{ "type": "Feature", "properties": { "csb_id": "061825005882709", "acres": 38.569443135402999, "geoid": "06041" }, "geometry": { "type": "Polygon", "coordinates": [ [ [ -122.507301186131457, 38.07696092702907 ], [ -122.504606240163611, 38.076960927461435 ], [ -122.503438429747504, 38.07660160103314 ], [ -122.503079103835674, 38.076332106203076 ], [ -122.502540115428388, 38.076332107418658 ], [ -122.502540114973627, 38.076152443729796 ], [ -122.501462136523088, 38.076152443710335 ], [ -122.501462136568463, 38.074894802069018 ], [ -122.501641799288549, 38.074804970460775 ], [ -122.5014621364909, 38.074535475603554 ], [ -122.500743484174407, 38.074265981395648 ], [ -122.500743484282737, 38.073906655638048 ], [ -122.501641799750359, 38.073906655480165 ], [ -122.501821462562589, 38.073637160462773 ], [ -122.504157082038631, 38.073637161209611 ], [ -122.504157081606664, 38.074355812748081 ], [ -122.506941859665005, 38.074265981827267 ], [ -122.506941859330539, 38.075164297164015 ], [ -122.507121522730174, 38.075523622696792 ], [ -122.50784017440175, 38.075523622772813 ], [ -122.507840174775268, 38.076332107839946 ], [ -122.507570681036754, 38.076332107506843 ], [ -122.507301185239882, 38.076601601013238 ], [ -122.507301186131457, 38.07696092702907 ] ] ] } },
{ "type": "Feature", "properties": { "csb_id": "061825005882712", "acres": 21.042219965995699, "geoid": "06041" }, "geometry": { "type": "Polygon", "coordinates": [ [ [ -122.524279344889393, 38.077230421811926 ], [ -122.52311153421708, 38.077230422032606 ], [ -122.522482712876609, 38.076960927223318 ], [ -122.521584398402993, 38.076062612036296 ], [ -122.520865746301155, 38.076062611648474 ], [ -122.520865746798407, 38.075793117661966 ], [ -122.521584398592267, 38.075433791573069 ], [ -122.521584398673411, 38.075164297073407 ], [ -122.522213219877301, 38.075164296525358 ], [ -122.522213219752402, 38.074265981699938 ], [ -122.523381029062222, 38.074355812820372 ], [ -122.523560692743274, 38.073367666725325 ], [ -122.524189511732175, 38.073457498339387 ], [ -122.524279345240927, 38.073906656478002 ], [ -122.524548839466505, 38.073906655122727 ], [ -122.524548839690766, 38.075254128513315 ], [ -122.524728502552989, 38.075433791144 ], [ -122.52427934522882, 38.075793117513463 ], [ -122.524279344414694, 38.076062612488236 ], [ -122.524908165680415, 38.076601601525006 ], [ -122.524908165151857, 38.077499916103363 ], [ -122.524548838641152, 38.077499916370492 ], [ -122.524279344889393, 38.077230421811926 ] ] ] } },
{ "type": "Feature", "properties": { "csb_id": "061825005882722", "acres": 23.324649781207, "geoid": "06041" }, "geometry": { "type": "Polygon", "coordinates": [ [ [ -122.520865746301155, 38.076062611648474 ], [ -122.519518273574988, 38.075164296995709 ], [ -122.5191589474056, 38.075164296912185 ], [ -122.519158947936987, 38.075433791161153 ], [ -122.518889453352827, 38.075433791570894 ], [ -122.518530126848532, 38.075164296498578 ], [ -122.518619958035615, 38.0745354762525 ], [ -122.517991137947917, 38.074535476018156 ], [ -122.517901305222424, 38.07435581300561 ], [ -122.518350462439017, 38.073906655522919 ], [ -122.518350463441678, 38.073637160609344 ], [ -122.519069115491334, 38.073726992049508 ], [ -122.519158947520864, 38.07273884530894 ], [ -122.519518272029288, 38.072469351165928 ], [ -122.519787768417956, 38.072469351204603 ], [ -122.519787767804104, 38.07211002531708 ], [ -122.520416589329301, 38.072110024410541 ], [ -122.520416588939881, 38.071840529921332 ], [ -122.521135240797989, 38.071840530344353 ], [ -122.520865747067717, 38.071930361742865 ], [ -122.520865746570507, 38.07219985586282 ], [ -122.521584399086422, 38.072738845300101 ], [ -122.521584398816046, 38.073637160541949 ], [ -122.521853893000326, 38.073637161189232 ], [ -122.521853893384517, 38.07516429698849 ], [ -122.521584398673411, 38.075164297073407 ], [ -122.521584398592267, 38.075433791573069 ], [ -122.520865746798407, 38.075793117661966 ], [ -122.520865746301155, 38.076062611648474 ] ], [ [ -122.520416589363663, 38.073008340206556 ], [ -122.520416588974228, 38.072738845748468 ], [ -122.520057261669109, 38.072738845609678 ], [ -122.520057261850468, 38.073008339821968 ], [ -122.520416589363663, 38.073008340206556 ] ] ] } },
{ "type": "Feature", "properties": { "csb_id": "061825005882725", "acres": 15.8574602394197, "geoid": "06041" }, "geometry": { "type": "Polygon", "coordinates": [ [ [ -122.501641797682694, 38.073008340029538 ], [ -122.501641797837294, 38.072738845851738 ], [ -122.502540113614259, 38.072738846089798 ], [ -122.502540114820263, 38.071840530130395 ], [ -122.502809608402686, 38.071840530485758 ], [ -122.502809608883837, 38.072110024573753 ], [ -122.504875733445203, 38.072110024731053 ], [ -122.505145227705782, 38.072199856379044 ], [ -122.505145227562636, 38.072469351561772 ], [ -122.505504553830207, 38.072469350804234 ], [ -122.505774049345177, 38.072738845944343 ], [ -122.505774050112151, 38.074355812995236 ], [ -122.504157081606664, 38.074355812748081 ], [ -122.504157082038631, 38.073637161209611 ], [ -122.501911294049776, 38.073637160357585 ], [ -122.501821462663855, 38.07309817189585 ], [ -122.501641797682694, 38.073008340029538 ] ] ] } },
{ "type": "Feature", "properties": { "csb_id": "061825005882726", "acres": 10.4292043860349, "geoid": "06041" }, "geometry": { "type": "Polygon", "coordinates": [ [ [ -122.521853893384517, 38.07516429698849 ], [ -122.521853893000326, 38.073637161189232 ], [ -122.521584398816046, 38.073637160541949 ], [ -122.521584399086422, 38.072738845300101 ], [ -122.520865746570507, 38.07219985586282 ], [ -122.520865747067717, 38.071930361742865 ], [ -122.521584398250525, 38.071840530200177 ], [ -122.52158439833164, 38.071571035576305 ], [ -122.52185389301944, 38.071571035360833 ], [ -122.521853892817788, 38.071840530230538 ], [ -122.522482713520276, 38.072110024860493 ], [ -122.523111534586207, 38.072110025080718 ], [ -122.523111535065908, 38.072559181898399 ], [ -122.522931871795251, 38.072828676949165 ], [ -122.523111534480861, 38.073637160582486 ], [ -122.52356069072377, 38.073637162395656 ], [ -122.523381029062222, 38.074355812820372 ], [ -122.522213219752402, 38.074265981699938 ], [ -122.522213219877301, 38.075164296525358 ], [ -122.521853893384517, 38.07516429698849 ] ] ] } },
{ "type": "Feature", "properties": { "csb_id": "061825005882729", "acres": 9.079531882765, "geoid": "06041" }, "geometry": { "type": "Polygon", "coordinates": [ [ [ -122.505774048625938, 38.073906655848937 ], [ -122.505774049345177, 38.072738845944343 ], [ -122.505504553830207, 38.072469350804234 ], [ -122.505145227562636, 38.072469351561772 ], [ -122.505055397174573, 38.071660866990975 ], [ -122.505953711324452, 38.071571035553347 ], [ -122.506043544272288, 38.071211709220378 ], [ -122.506941859316669, 38.071211709423224 ], [ -122.507301186195804, 38.071571035787791 ], [ -122.507301185243904, 38.071840530138601 ], [ -122.506672365287372, 38.071840529819916 ], [ -122.506672364564906, 38.072110024527788 ], [ -122.507570680449319, 38.072110025151865 ], [ -122.507480848478295, 38.072469350971836 ], [ -122.507121522406749, 38.072559182304559 ], [ -122.506852027704312, 38.072828677410087 ], [ -122.506941859981609, 38.073457497653905 ], [ -122.506582533159118, 38.073457497965705 ], [ -122.506582533214385, 38.073726992371924 ], [ -122.505953712967866, 38.073726992280719 ], [ -122.505953713252509, 38.073996487044106 ], [ -122.505774048625938, 38.073906655848937 ] ] ] } },
{ "type": "Feature", "properties": { "csb_id": "061825005882739", "acres": 10.9638209731561, "geoid": "06041" }, "geometry": { "type": "Polygon", "coordinates": [ [ [ -122.510714783265087, 38.070762551827265 ], [ -122.509367311041075, 38.070672719955944 ], [ -122.509546973613254, 38.07004389978507 ], [ -122.509097815930772, 38.070043900068114 ], [ -122.50873849077125, 38.070313394250412 ], [ -122.508738490294633, 38.070672720560154 ], [ -122.508468995125114, 38.070672720619697 ], [ -122.508199500848278, 38.070313394268261 ], [ -122.508199501118114, 38.06950491126981 ], [ -122.507840174915572, 38.069504910130149 ], [ -122.507840175405889, 38.068965921622812 ], [ -122.508019837965008, 38.068696426401502 ], [ -122.508738489795689, 38.068606595002308 ], [ -122.508738490272336, 38.068247268596366 ], [ -122.509546973354304, 38.06824726877224 ], [ -122.509277479768357, 38.06833710046994 ], [ -122.509367311178153, 38.069145584029648 ], [ -122.50963680534818, 38.06914558468894 ], [ -122.509636805817948, 38.068876089382336 ], [ -122.510265626568682, 38.068876090044469 ], [ -122.510714784242182, 38.069235416026622 ], [ -122.510714783762708, 38.069504910342239 ], [ -122.510445289685649, 38.069594742140403 ], [ -122.510445289284675, 38.070133731103546 ], [ -122.510714784067048, 38.070133730987465 ], [ -122.510714783265087, 38.070762551827265 ] ] ] } },
{ "type": "Feature", "properties": { "csb_id": "061825005882740", "acres": 45.349456449332301, "geoid": "06041" }, "geometry": { "type": "Polygon", "coordinates": [ [ [ -122.506941859611416, 38.074535475593486 ], [ -122.506582533159118, 38.073457497965705 ], [ -122.506941859981609, 38.073457497653905 ], [ -122.506852027704312, 38.072828677410087 ], [ -122.507121522406749, 38.072559182304559 ], [ -122.508379164001553, 38.072559182098523 ], [ -122.508379163673681, 38.072828677151968 ], [ -122.508918153028858, 38.072828676843706 ], [ -122.508918152808391, 38.072559182402259 ], [ -122.509816468175686, 38.072559182748037 ], [ -122.50981646813716, 38.072199856400729 ], [ -122.508918153432433, 38.071840530553033 ], [ -122.508918152674653, 38.071301540734538 ], [ -122.508468995230587, 38.071301540670227 ], [ -122.508468995125114, 38.070672720619697 ], [ -122.508738490294633, 38.070672720560154 ], [ -122.50873849077125, 38.070313394250412 ], [ -122.509097815930772, 38.070043900068114 ], [ -122.509546973613254, 38.07004389978507 ], [ -122.509367311041075, 38.070672719955944 ], [ -122.510714783265087, 38.070762551827265 ], [ -122.510714784067048, 38.070133730987465 ], [ -122.510445289284675, 38.070133731103546 ], [ -122.510445289685649, 38.069594742140403 ], [ -122.514038550971534, 38.069594742272315 ], [ -122.514128381303848, 38.070672720197493 ], [ -122.513858886870324, 38.070942214735695 ], [ -122.513499561074156, 38.07094221461837 ], [ -122.513499561657724, 38.071840530256452 ], [ -122.513679224375309, 38.071840530509277 ], [ -122.513858887206339, 38.072110024361841 ], [ -122.513858887466711, 38.073098171265151 ], [ -122.512601245950378, 38.073098171803352 ], [ -122.512062256604167, 38.073008340364076 ], [ -122.511613098609971, 38.072559182317903 ], [ -122.510445289061749, 38.072559182014231 ], [ -122.509816468065438, 38.073008340229933 ], [ -122.509816469119372, 38.073996486867863 ], [ -122.509546973961719, 38.073996486595135 ], [ -122.509546973970672, 38.073726992560523 ], [ -122.508918152762988, 38.073726992112704 ], [ -122.508738490073156, 38.073996486510566 ], [ -122.508199501307772, 38.074265982498247 ], [ -122.507570680247412, 38.074265981508503 ], [ -122.507570680281262, 38.074535475766005 ], [ -122.506941859611416, 38.074535475593486 ] ] ] } },
{ "type": "Feature", "properties": { "csb_id": "061825005882743", "acres": 45.941633313321702, "geoid": "06041" }, "geometry": { "type": "Polygon", "coordinates": [ [ [ -122.51817080107908, 38.073637160582592 ], [ -122.518170801079307, 38.073457497547459 ], [ -122.517721642154484, 38.073367666772775 ], [ -122.517721642927683, 38.073098171474356 ], [ -122.517991137589377, 38.072738845812452 ], [ -122.517002990999657, 38.07273884576896 ], [ -122.517002990198264, 38.073457497454783 ], [ -122.51637417046679, 38.073457497386855 ], [ -122.516374168761374, 38.07390665569703 ], [ -122.515026696771358, 38.073906655049669 ], [ -122.514757202671888, 38.074265980992557 ], [ -122.513409729466559, 38.074355812946528 ], [ -122.513409729871995, 38.073726992017995 ], [ -122.513858887466711, 38.073098171265151 ], [ -122.513858887206339, 38.072110024361841 ], [ -122.513679224375309, 38.071840530509277 ], [ -122.513499561657724, 38.071840530256452 ], [ -122.513499561074156, 38.07094221461837 ], [ -122.513858886870324, 38.070942214735695 ], [ -122.514128381303848, 38.070672720197493 ], [ -122.514038549272712, 38.069774405392167 ], [ -122.515026697497035, 38.069774405290012 ], [ -122.515026697099771, 38.070313394258392 ], [ -122.515655518189789, 38.070672720319784 ], [ -122.516194507134074, 38.070672719872128 ], [ -122.516194506801341, 38.068876090144983 ], [ -122.516553833751288, 38.068876090076728 ], [ -122.516553833623121, 38.069504910800255 ], [ -122.51709282216963, 38.071211709717872 ], [ -122.518889453195783, 38.071211709363077 ], [ -122.518889453064361, 38.071571035412568 ], [ -122.519158946956466, 38.071571035730315 ], [ -122.519787768350596, 38.070672720005753 ], [ -122.520416588833143, 38.07067272031815 ], [ -122.520416588550475, 38.071571035422814 ], [ -122.52095557776434, 38.071571035857957 ], [ -122.521135240797989, 38.071840530344353 ], [ -122.520416588939881, 38.071840529921332 ], [ -122.520416589329301, 38.072110024410541 ], [ -122.52023692499759, 38.072110024964331 ], [ -122.520057262878424, 38.072110024763241 ], [ -122.519967430859779, 38.071840530566277 ], [ -122.519697936744535, 38.072110024920335 ], [ -122.519697936920281, 38.072469350807808 ], [ -122.519158947520864, 38.07273884530894 ], [ -122.519069115266305, 38.073637161268252 ], [ -122.518889453047109, 38.073457497910475 ], [ -122.518889452592703, 38.073726992218319 ], [ -122.51817080107908, 38.073637160582592 ] ], [ [ -122.515475854763068, 38.073637160696606 ], [ -122.515655518387391, 38.073637161608765 ], [ -122.515655518355842, 38.073457498086853 ], [ -122.51547585516964, 38.073457497174665 ], [ -122.515475854763068, 38.073637160696606 ] ] ] } },
{ "type": "Feature", "properties": { "csb_id": "061825005882745", "acres": 12.896260320251599, "geoid": "06041" }, "geometry": { "type": "Polygon", "coordinates": [ [ [ -122.518889453064361, 38.071571035412568 ], [ -122.518889453195783, 38.071211709363077 ], [ -122.51709282216963, 38.071211709717872 ], [ -122.516553833623121, 38.069504910800255 ], [ -122.516553833751288, 38.068876090076728 ], [ -122.516194506801341, 38.068876090144983 ], [ -122.516194507466736, 38.068247269003969 ], [ -122.517002990750285, 38.068247269143512 ], [ -122.517721643286407, 38.068606595399835 ], [ -122.517721643318694, 38.069145584092887 ], [ -122.517991137101944, 38.069504910174771 ], [ -122.518619958673966, 38.069504910751228 ], [ -122.518619957989401, 38.070313394178903 ], [ -122.519158946846815, 38.070313394052839 ], [ -122.51915894745477, 38.070942214794222 ], [ -122.519518273424623, 38.070942214988385 ], [ -122.519518274164, 38.071211709629246 ], [ -122.519158946956466, 38.071571035730315 ], [ -122.518889453064361, 38.071571035412568 ] ] ] } },
{ "type": "Feature", "properties": { "csb_id": "061825005882746", "acres": 17.868671395232901, "geoid": "06041" }, "geometry": { "type": "Polygon", "coordinates": [ [ [ -122.515026697497035, 38.069774405290012 ], [ -122.514397876961993, 38.069774405028383 ], [ -122.51439787708965, 38.069504910592599 ], [ -122.513858887527164, 38.069504910743412 ], [ -122.513858887096859, 38.069235415931963 ], [ -122.514397876111062, 38.069235416393227 ], [ -122.514397876333106, 38.068876089512159 ], [ -122.514128381875565, 38.068876089394649 ], [ -122.514038549486727, 38.068247269114977 ], [ -122.514308045354653, 38.067798111287708 ], [ -122.51475720248321, 38.06779811126875 ], [ -122.514757201430555, 38.067977774676223 ], [ -122.514936864355192, 38.067798111389102 ], [ -122.515296190628462, 38.06779811120601 ], [ -122.515296192267641, 38.067348954015692 ], [ -122.515026696596905, 38.067348953671051 ], [ -122.515026697349498, 38.066899796088222 ], [ -122.51529619227739, 38.066540470175227 ], [ -122.516194507134003, 38.066450638711139 ], [ -122.516194506979303, 38.066809964852496 ], [ -122.516823328320442, 38.066899796178234 ], [ -122.517452148118267, 38.067977774927058 ], [ -122.517002990750285, 38.068247269143512 ], [ -122.516194507466736, 38.068247269003969 ], [ -122.516194507134074, 38.070672719872128 ], [ -122.515655518189789, 38.070672720319784 ], [ -122.515026697099771, 38.070313394258392 ], [ -122.515026697497035, 38.069774405290012 ] ], [ [ -122.515925012618311, 38.06824726879389 ], [ -122.515925012246569, 38.068067606004654 ], [ -122.515296190890083, 38.067977774613517 ], [ -122.515296190412442, 38.06824726898207 ], [ -122.515925012618311, 38.06824726879389 ] ] ] } },
{ "type": "Feature", "properties": { "csb_id": "061825005882748", "acres": 8.58463222502394, "geoid": "06041" }, "geometry": { "type": "Polygon", "coordinates": [ [ [ -122.51915894745477, 38.070942214794222 ], [ -122.519158946846815, 38.070313394052839 ], [ -122.518619957989401, 38.070313394178903 ], [ -122.518619958673966, 38.069504910751228 ], [ -122.517991137101944, 38.069504910174771 ], [ -122.517721643318694, 38.069145584092887 ], [ -122.517721643286407, 38.068606595399835 ], [ -122.517002990750285, 38.068247269143512 ], [ -122.517452148118267, 38.067977774927058 ], [ -122.517991136956013, 38.067977774288948 ], [ -122.520057262966972, 38.069504910776004 ], [ -122.520057262540419, 38.070043900519543 ], [ -122.519518273752567, 38.070043899449587 ], [ -122.519518273385714, 38.07031339436741 ], [ -122.519787767736744, 38.070313394035033 ], [ -122.519787768350596, 38.070672720005753 ], [ -122.519518273424623, 38.070942214988385 ], [ -122.51915894745477, 38.070942214794222 ] ] ] } },
{ "type": "Feature", "properties": { "csb_id": "061825005882749", "acres": 11.3524636114884, "geoid": "06041" }, "geometry": { "type": "Polygon", "coordinates": [ [ [ -122.512062257308244, 38.069594742232312 ], [ -122.510714783762708, 38.069504910342239 ], [ -122.510714784242182, 38.069235416026622 ], [ -122.510265626568682, 38.068876090044469 ], [ -122.509636805817948, 38.068876089382336 ], [ -122.50963680534818, 38.06914558468894 ], [ -122.509367311178153, 38.069145584029648 ], [ -122.509277479202169, 38.068876089516635 ], [ -122.509277479768357, 38.06833710046994 ], [ -122.510175792612458, 38.067977776147693 ], [ -122.510175793561714, 38.067438786421746 ], [ -122.509367310875021, 38.067348953789931 ], [ -122.509996131129327, 38.066809964711368 ], [ -122.510175794643288, 38.06645063832957 ], [ -122.510535121288157, 38.066450638497024 ], [ -122.510535120878927, 38.066809964133498 ], [ -122.510894447380522, 38.066809964596573 ], [ -122.510894445840194, 38.067348954737298 ], [ -122.511702930159089, 38.06824726996723 ], [ -122.512062257666358, 38.068247270196252 ], [ -122.512062257308244, 38.069594742232312 ] ] ] } },
{ "type": "Feature", "properties": { "csb_id": "061825005882754", "acres": 21.685371108662199, "geoid": "06041" }, "geometry": { "type": "Polygon", "coordinates": [ [ [ -122.514038550971534, 38.069594742272315 ], [ -122.512062257308244, 38.069594742232312 ], [ -122.512062257666358, 38.068247270196252 ], [ -122.511702930159089, 38.06824726996723 ], [ -122.510894445840194, 38.067348954737298 ], [ -122.510894447380522, 38.066809964596573 ], [ -122.511163941891041, 38.066450638339184 ], [ -122.511882593764696, 38.06627097512915 ], [ -122.512511414506747, 38.066540469955804 ], [ -122.512511414568579, 38.06689979669585 ], [ -122.513499560268883, 38.06689979626271 ], [ -122.513679224239667, 38.066809965038672 ], [ -122.513679224466458, 38.066540470132864 ], [ -122.513858887696756, 38.066540470850519 ], [ -122.513858887810159, 38.06680996489861 ], [ -122.514308045552482, 38.066809965051348 ], [ -122.514397876503466, 38.06618114466184 ], [ -122.514936866043371, 38.066450639131943 ], [ -122.515026696596905, 38.067348953671051 ], [ -122.515296192267641, 38.067348954015692 ], [ -122.515296190628462, 38.06779811120601 ], [ -122.514308045354653, 38.067798111287708 ], [ -122.514038549486727, 38.068247269114977 ], [ -122.51403855083106, 38.068606595288315 ], [ -122.514128381875565, 38.068876089394649 ], [ -122.514397876333106, 38.068876089512159 ], [ -122.514397876111062, 38.069235416393227 ], [ -122.513858887096859, 38.069235415931963 ], [ -122.513858887527164, 38.069504910743412 ], [ -122.51439787708965, 38.069504910592599 ], [ -122.514397876961993, 38.069774405028383 ], [ -122.514038549272712, 38.069774405392167 ], [ -122.514038550971534, 38.069594742272315 ] ] ] } },
{ "type": "Feature", "properties": { "csb_id": "061825005882755", "acres": 7.7593938201226802, "geoid": "06041" }, "geometry": { "type": "Polygon", "coordinates": [ [ [ -122.50757068045499, 38.067977774651119 ], [ -122.507570680744777, 38.067348954088139 ], [ -122.507480849002917, 38.067169290642894 ], [ -122.507121522338608, 38.067169290956294 ], [ -122.507121522323345, 38.066809964487291 ], [ -122.507840174406354, 38.066181143984679 ], [ -122.50819950083779, 38.066181144258337 ], [ -122.508468995016415, 38.066809964588053 ], [ -122.509367311193941, 38.066899795612763 ], [ -122.509546973550641, 38.067079459700231 ], [ -122.509367310875021, 38.067348953789931 ], [ -122.509367311026594, 38.068247268962224 ], [ -122.508199501237755, 38.068247268988934 ], [ -122.50757068045499, 38.067977774651119 ] ] ] } },
{ "type": "Feature", "properties": { "csb_id": "061825005882762", "acres": 4.5353681750209196, "geoid": "06041" }, "geometry": { "type": "Polygon", "coordinates": [ [ [ -122.511613099381478, 38.065013335347636 ], [ -122.511702930661215, 38.064743840817108 ], [ -122.511433435747747, 38.064654008436108 ], [ -122.511433435811213, 38.064384513458783 ], [ -122.512331751426416, 38.064384513089223 ], [ -122.512331750733622, 38.064115018468662 ], [ -122.512511414370266, 38.064115018829604 ], [ -122.513230066600826, 38.064654008224693 ], [ -122.513230066900533, 38.065552323001853 ], [ -122.512062256325677, 38.065552323088397 ], [ -122.511613099381478, 38.065013335347636 ] ] ] } },
{ "type": "Feature", "properties": { "csb_id": "061825005882765", "acres": 7.7499639393907298, "geoid": "06041" }, "geometry": { "type": "Polygon", "coordinates": [ [ [ -122.698732172835918, 38.063576029322171 ], [ -122.699810151638985, 38.063486198383423 ], [ -122.700169477319022, 38.063755692301072 ], [ -122.700528803282722, 38.064204850595104 ], [ -122.700528803519944, 38.065013333784371 ], [ -122.701157623736151, 38.065103165933159 ], [ -122.701067792908788, 38.065642154737581 ], [ -122.700528802977999, 38.065911649034874 ], [ -122.699540656572623, 38.065552323171239 ], [ -122.699091498940433, 38.064115018468378 ], [ -122.698732172708262, 38.064115018387646 ], [ -122.698732172835918, 38.063576029322171 ] ] ] } },
{ "type": "Feature", "properties": { "csb_id": "061825005882767", "acres": 36.846392663183501, "geoid": "06041" }, "geometry": { "type": "Polygon", "coordinates": [ [ [ -122.510535121288157, 38.066450638497024 ], [ -122.510175794643288, 38.06645063832957 ], [ -122.509996131129327, 38.066809964711368 ], [ -122.509546973550641, 38.067079459700231 ], [ -122.509367311193941, 38.066899795612763 ], [ -122.508468995016415, 38.066809964588053 ], [ -122.50819950083779, 38.066181144258337 ], [ -122.507840174406354, 38.066181143984679 ], [ -122.507840174511941, 38.064384513804278 ], [ -122.508199501348528, 38.06438451297047 ], [ -122.508199500847027, 38.064204850590805 ], [ -122.50801983765939, 38.0638455245291 ], [ -122.507750343100525, 38.063755693111837 ], [ -122.507750343792608, 38.063306534973364 ], [ -122.509277479204783, 38.063306534578373 ], [ -122.509367309963707, 38.062408219868125 ], [ -122.509097816645337, 38.062318388211565 ], [ -122.510175793971584, 38.062318389612841 ], [ -122.510535120630493, 38.061959062328974 ], [ -122.511702931145123, 38.061959062302186 ], [ -122.51170293068742, 38.062857377142599 ], [ -122.512331751171999, 38.063486197812757 ], [ -122.512511414370266, 38.064115018829604 ], [ -122.512331750733622, 38.064115018468662 ], [ -122.512331751426416, 38.064384513089223 ], [ -122.511433435811213, 38.064384513458783 ], [ -122.511433435747747, 38.064654008436108 ], [ -122.511702930661215, 38.064743840817108 ], [ -122.511613099381478, 38.065013335347636 ], [ -122.510894447163196, 38.065282828377654 ], [ -122.510894446788356, 38.065911649859629 ], [ -122.511163941776857, 38.065911648993051 ], [ -122.511163941891041, 38.066450638339184 ], [ -122.510894447380522, 38.066809964596573 ], [ -122.510535120878927, 38.066809964133498 ], [ -122.510535121288157, 38.066450638497024 ] ], [ [ -122.511343604252502, 38.062587882793416 ], [ -122.510894446493026, 38.062587883065603 ], [ -122.510894445881306, 38.062857378718562 ], [ -122.511433436435738, 38.062857376871186 ], [ -122.511343604252502, 38.062587882793416 ] ] ] } },
{ "type": "Feature", "properties": { "csb_id": "061825005882771", "acres": 17.6463541470902, "geoid": "06041" }, "geometry": { "type": "Polygon", "coordinates": [ [ [ -122.507121522323345, 38.066809964487291 ], [ -122.507121523011946, 38.066270975058288 ], [ -122.506852028454517, 38.066270975001729 ], [ -122.50667236522132, 38.065911649268706 ], [ -122.506672365183974, 38.065552323232012 ], [ -122.505774049433242, 38.065552323538476 ], [ -122.505774049805751, 38.065282828480434 ], [ -122.506223207539279, 38.065282828352892 ], [ -122.506223207774056, 38.06384552399053 ], [ -122.506582532927411, 38.06384552397504 ], [ -122.50658253367358, 38.062857376912945 ], [ -122.506941859173878, 38.06231838821774 ], [ -122.507840174704228, 38.062318388279458 ], [ -122.507840174819876, 38.061959061702844 ], [ -122.508379164801369, 38.061959063602494 ], [ -122.508468995752651, 38.062318388449263 ], [ -122.508738489803264, 38.062587883052842 ], [ -122.509367309963707, 38.062408219868125 ], [ -122.509277479204783, 38.063306534578373 ], [ -122.507750343792608, 38.063306534973364 ], [ -122.507750343100525, 38.063755693111837 ], [ -122.50801983765939, 38.0638455245291 ], [ -122.508199501348528, 38.06438451297047 ], [ -122.507840174511941, 38.064384513804278 ], [ -122.507840174406354, 38.066181143984679 ], [ -122.507121522323345, 38.066809964487291 ] ] ] } },
{ "type": "Feature", "properties": { "csb_id": "061825005882777", "acres": 18.8087830901332, "geoid": "06041" }, "geometry": { "type": "Polygon", "coordinates": [ [ [ -122.684359128689422, 38.063576029655053 ], [ -122.6823828337197, 38.063486198247709 ], [ -122.681784191154676, 38.06327635771548 ], [ -122.681484518553148, 38.062677714708542 ], [ -122.681035361469398, 38.062767545736449 ], [ -122.680226878025451, 38.062498051329463 ], [ -122.680226878387685, 38.061779399477338 ], [ -122.68058620349062, 38.061420072748788 ], [ -122.682023508650474, 38.061240409494033 ], [ -122.683820139212969, 38.060521757306006 ], [ -122.6844489598666, 38.060521757281968 ], [ -122.684448959427868, 38.061150578764291 ], [ -122.683281150374384, 38.062587882539205 ], [ -122.683281150547103, 38.062857378347132 ], [ -122.683460813268255, 38.062947208423445 ], [ -122.684628622920627, 38.063216703521007 ], [ -122.684359128689422, 38.063576029655053 ] ] ] } },
{ "type": "Feature", "properties": { "csb_id": "061825005882782", "acres": 3.4965370594450702, "geoid": "06041" }, "geometry": { "type": "Polygon", "coordinates": [ [ [ -122.642946793875964, 38.058725126716467 ], [ -122.642048477772803, 38.058455632294269 ], [ -122.642048478571255, 38.058096306323954 ], [ -122.642946793850598, 38.057826811653968 ], [ -122.64312645658994, 38.057287822692686 ], [ -122.643485783298345, 38.057018328096369 ], [ -122.643755277252154, 38.057018327566489 ], [ -122.643755277397744, 38.057557317223306 ], [ -122.643575614709761, 38.057557316741736 ], [ -122.643575614342652, 38.058455632707158 ], [ -122.642946793875964, 38.058725126716467 ] ] ] } },
{ "type": "Feature", "properties": { "csb_id": "061825005882785", "acres": 4.5941178134064096, "geoid": "06041" }, "geometry": { "type": "Polygon", "coordinates": [ [ [ -122.637017912936557, 38.057197991002845 ], [ -122.636748417572321, 38.057197990812057 ], [ -122.636748418588908, 38.057557317149758 ], [ -122.636029766531692, 38.057557317411479 ], [ -122.635850102367158, 38.057287822654636 ], [ -122.635850102327325, 38.056659001692147 ], [ -122.637916228259996, 38.056748833294535 ], [ -122.638185722048917, 38.056928496372386 ], [ -122.638185722736651, 38.057557316974389 ], [ -122.637017912737591, 38.057557316976755 ], [ -122.637017912936557, 38.057197991002845 ] ] ] } },
{ "type": "Feature", "properties": { "csb_id": "061825005882786", "acres": 20.3481012090731, "geoid": "06041" }, "geometry": { "type": "Polygon", "coordinates": [ [ [ -122.713554374932187, 38.05522169746942 ], [ -122.713554374683468, 38.054952202632599 ], [ -122.713284880885539, 38.054592876686392 ], [ -122.712386565493404, 38.054592876333309 ], [ -122.712386565799534, 38.054053888337123 ], [ -122.710589934317269, 38.054323382973706 ], [ -122.71023060816978, 38.05495220275553 ], [ -122.709691619138141, 38.054952203939244 ], [ -122.709062798550235, 38.05459287729542 ], [ -122.708793304229715, 38.05396405573898 ], [ -122.707176336623704, 38.052886077401901 ], [ -122.707137210748741, 38.05256587740962 ], [ -122.708164482946941, 38.052886077957133 ], [ -122.709691619965369, 38.052886078190873 ], [ -122.709691620110149, 38.052257258028462 ], [ -122.710230609032394, 38.05225725802832 ], [ -122.71058993397628, 38.052526751665688 ], [ -122.710589934869589, 38.052886078891682 ], [ -122.71148825026404, 38.052886077540862 ], [ -122.711488250369584, 38.052526751896558 ], [ -122.712027239713578, 38.052526752698917 ], [ -122.712027239301932, 38.053425066424005 ], [ -122.712386564761601, 38.053784392733753 ], [ -122.712925553674481, 38.053784392669783 ], [ -122.712925554042485, 38.053425067298264 ], [ -122.713284880606594, 38.053425066954766 ], [ -122.713284880836156, 38.054323382931614 ], [ -122.713554375301598, 38.054592876574944 ], [ -122.714183196301093, 38.054592876949897 ], [ -122.714183195113776, 38.054952202892942 ], [ -122.713823869437022, 38.055221697260336 ], [ -122.713554374932187, 38.05522169746942 ] ] ] } },
{ "type": "Feature", "properties": { "csb_id": "061825005882790", "acres": 5.3037048950080399, "geoid": "06041" }, "geometry": { "type": "Polygon", "coordinates": [ [ [ -122.635400945536603, 38.048394500770968 ], [ -122.637197575682777, 38.048394501702518 ], [ -122.637197575319533, 38.048663995769886 ], [ -122.636568755559537, 38.048663995800517 ], [ -122.636568755426239, 38.048933490221742 ], [ -122.637467070603108, 38.048933490576395 ], [ -122.637467070686853, 38.049562310620317 ], [ -122.636928081595144, 38.049562310724937 ], [ -122.636928081033332, 38.05019113168958 ], [ -122.636568755122454, 38.050191131581087 ], [ -122.636568755300189, 38.049831805745256 ], [ -122.636299260653118, 38.049562310710748 ], [ -122.635400945715958, 38.049292816828128 ], [ -122.635400945536603, 38.048394500770968 ] ] ] } },
{ "type": "Feature", "properties": { "csb_id": "061825005882791", "acres": 4.4461798196725697, "geoid": "06041" }, "geometry": { "type": "Polygon", "coordinates": [ [ [ -122.624710993664465, 38.048125007022627 ], [ -122.624710993154011, 38.048394501154249 ], [ -122.624324121009479, 38.048567058223966 ], [ -122.624082172764176, 38.048933490659564 ], [ -122.624082172864718, 38.049292816815729 ], [ -122.624351667774008, 38.049382648076282 ], [ -122.624082172303659, 38.049831805711634 ], [ -122.623183857572144, 38.049562311313188 ], [ -122.623183857041369, 38.048933490716159 ], [ -122.622914363178353, 38.048663995333769 ], [ -122.622555036282904, 38.048663995935883 ], [ -122.622555035983453, 38.048394500968726 ], [ -122.623812677669832, 38.048394501662919 ], [ -122.6238126775647, 38.048214838259803 ], [ -122.624710993664465, 38.048125007022627 ] ] ] } },
{ "type": "Feature", "properties": { "csb_id": "061825005882794", "acres": 10.9088102776438, "geoid": "06041" }, "geometry": { "type": "Polygon", "coordinates": [ [ [ -122.500384157546975, 38.047945343870346 ], [ -122.50092314709994, 38.047945343832907 ], [ -122.500923147269091, 38.047765680208656 ], [ -122.499845168627289, 38.047945343252437 ], [ -122.498946853292992, 38.047675849158708 ], [ -122.498587527450184, 38.047406354662449 ], [ -122.498587527482499, 38.047047028123501 ], [ -122.498946854051368, 38.046777533544493 ], [ -122.5001146634891, 38.046777534149058 ], [ -122.50011466342427, 38.047406354322526 ], [ -122.500384157888874, 38.047406354824474 ], [ -122.500384157878997, 38.046508039170078 ], [ -122.500563821088633, 38.046508039256139 ], [ -122.500923146852955, 38.046867365085873 ], [ -122.502180788664873, 38.046867365411892 ], [ -122.502180789032877, 38.047047028691573 ], [ -122.503079103918239, 38.047047028026029 ], [ -122.5027197774901, 38.047496185610086 ], [ -122.50343842956714, 38.047406354426123 ], [ -122.504246913498775, 38.047675848756221 ], [ -122.50191129424887, 38.047765680681415 ], [ -122.501911293959935, 38.047945343939091 ], [ -122.502180788053096, 38.048035174998063 ], [ -122.500384157546975, 38.047945343870346 ] ], [ [ -122.500743484433002, 38.047496185571454 ], [ -122.501192641916049, 38.047406354489638 ], [ -122.500743483947275, 38.047406354857671 ], [ -122.500743484433002, 38.047496185571454 ] ] ] } },
{ "type": "Feature", "properties": { "csb_id": "061825005882798", "acres": 30.405374759414698, "geoid": "06041" }, "geometry": { "type": "Polygon", "coordinates": [ [ [ -122.503707925210975, 38.048304670042953 ], [ -122.503707924298794, 38.047945343782565 ], [ -122.504246913388798, 38.047945344077085 ], [ -122.504246913498775, 38.047675848756221 ], [ -122.503079104293292, 38.047406354696896 ], [ -122.503079103918239, 38.047047028026029 ], [ -122.502180789032877, 38.047047028691573 ], [ -122.502180788639222, 38.046777534199244 ], [ -122.501641799563316, 38.046777534134549 ], [ -122.501911294440148, 38.045879218233345 ], [ -122.502719777525016, 38.045879218232614 ], [ -122.502719777265781, 38.045699555536402 ], [ -122.502090956917968, 38.045699555345088 ], [ -122.502090956852811, 38.045430060803156 ], [ -122.501821462501397, 38.045430060994256 ], [ -122.501462136730837, 38.045699555603299 ], [ -122.501462136152853, 38.046328375751983 ], [ -122.500923146887814, 38.046328376081782 ], [ -122.500923147542778, 38.045969049607365 ], [ -122.500563821222656, 38.045969049859046 ], [ -122.500563821088633, 38.046508039256139 ], [ -122.500294326274187, 38.046508039028318 ], [ -122.500114663309219, 38.046328376236602 ], [ -122.499845169139391, 38.045070734559445 ], [ -122.499216348495025, 38.044801239764389 ], [ -122.499216348306831, 38.044441914321766 ], [ -122.499845168974915, 38.044441913818666 ], [ -122.500114662978362, 38.044711408381204 ], [ -122.500114663230164, 38.045340229589911 ], [ -122.500384158198372, 38.045340229230575 ], [ -122.500384158163243, 38.044980903444348 ], [ -122.500743484406286, 38.044980903594954 ], [ -122.500743484467122, 38.045430060611451 ], [ -122.500923147577609, 38.045430060537164 ], [ -122.501192641644437, 38.044801240013818 ], [ -122.501192641993129, 38.0441724193672 ], [ -122.502090956443254, 38.044172419190119 ], [ -122.502090956741213, 38.044531745877507 ], [ -122.503258766486468, 38.044531745669211 ], [ -122.503618093192458, 38.044801240054966 ], [ -122.504157081886191, 38.044801240366596 ], [ -122.504246913561346, 38.044441913692708 ], [ -122.505055397483716, 38.044441914083158 ], [ -122.505145228812623, 38.044980903444667 ], [ -122.505504555382117, 38.044980903481779 ], [ -122.505504555226011, 38.047675848677521 ], [ -122.505324892036199, 38.047496186438678 ], [ -122.505055397866712, 38.047496185527677 ], [ -122.504606239473873, 38.048304670077009 ], [ -122.503707925210975, 38.048304670042953 ] ], [ [ -122.502809609809148, 38.046777533933309 ], [ -122.502989272698514, 38.046508039146197 ], [ -122.502989271845294, 38.045969049741672 ], [ -122.502540114857425, 38.046238544971359 ], [ -122.502540114637839, 38.04677753386482 ], [ -122.502809609809148, 38.046777533933309 ] ], [ [ -122.503618092915474, 38.046328375847928 ], [ -122.503977419730333, 38.046328376199511 ], [ -122.503887587981495, 38.045430060925725 ], [ -122.503618093152639, 38.045430060533995 ], [ -122.503258767310896, 38.045699555389888 ], [ -122.503258766905645, 38.045969050046551 ], [ -122.503618092757975, 38.045969050348504 ], [ -122.503618092915474, 38.046328375847928 ] ] ] } },
{ "type": "Feature", "properties": { "csb_id": "061825005882809", "acres": 8.4906926541136496, "geoid": "06041" }, "geometry": { "type": "Polygon", "coordinates": [ [ [ -122.503079103573995, 38.042016462826389 ], [ -122.502809608744784, 38.042016462500456 ], [ -122.502809609686381, 38.041746967943141 ], [ -122.500743484123532, 38.041746968141169 ], [ -122.500743484548195, 38.040219832515639 ], [ -122.501911294082646, 38.040309664035384 ], [ -122.50191129347705, 38.040489326619173 ], [ -122.501641799335317, 38.040489326668165 ], [ -122.501911294005041, 38.040848653243238 ], [ -122.502180788354678, 38.040848652847181 ], [ -122.502180788748234, 38.041118147558855 ], [ -122.502540115094078, 38.041387641669296 ], [ -122.50307910347189, 38.041387642177071 ], [ -122.503438429972419, 38.041746968107852 ], [ -122.503977418610162, 38.041746967974021 ], [ -122.503887587905751, 38.04201646306656 ], [ -122.504246914083282, 38.042016462741024 ], [ -122.504246913814669, 38.043184272872658 ], [ -122.503977419611715, 38.043184272171771 ], [ -122.50388758753067, 38.042735115174288 ], [ -122.503079103632345, 38.04237578888727 ], [ -122.503079103573995, 38.042016462826389 ] ] ] } },
{ "type": "Feature", "properties": { "csb_id": "061825005882810", "acres": 25.550445791170901, "geoid": "06041" }, "geometry": { "type": "Polygon", "coordinates": [ [ [ -122.498946853517879, 38.04048932801512 ], [ -122.499665506251986, 38.04057915838402 ], [ -122.499665505657518, 38.040489326972803 ], [ -122.499485843531176, 38.040489327658833 ], [ -122.499485843173403, 38.039950337819214 ], [ -122.499665505408501, 38.039950337745388 ], [ -122.499885347751615, 38.038853059841401 ], [ -122.500114663453871, 38.038782527743678 ], [ -122.5005638209621, 38.040040168885518 ], [ -122.50092314713666, 38.040040168743985 ], [ -122.500923146967523, 38.040219832558734 ], [ -122.500743484548195, 38.040219832515639 ], [ -122.500743484123532, 38.041746968141169 ], [ -122.501282473421696, 38.041836799616057 ], [ -122.500923147652259, 38.041836799704456 ], [ -122.50092314708192, 38.042106294500265 ], [ -122.50146213675913, 38.042106294647034 ], [ -122.501462136736919, 38.042375788820749 ], [ -122.503079103617736, 38.042285957373728 ], [ -122.50388758753067, 38.042735115174288 ], [ -122.503977419611715, 38.043184272171771 ], [ -122.502989272131828, 38.043004609448538 ], [ -122.502719777476514, 38.04327410416866 ], [ -122.502719778311572, 38.043633430533887 ], [ -122.502360451625307, 38.043902925153162 ], [ -122.501462135875371, 38.043902924611835 ], [ -122.50146213645337, 38.043274104254237 ], [ -122.500563821420002, 38.043274104238101 ], [ -122.499485842574998, 38.04381309428539 ], [ -122.498946853063458, 38.043813093773409 ], [ -122.498767190182633, 38.043543598918681 ], [ -122.498767190761626, 38.043184272801874 ], [ -122.498946852188269, 38.043184272927625 ], [ -122.498946853560113, 38.042645283779621 ], [ -122.498587527488226, 38.042645283634911 ], [ -122.498587527466782, 38.042016463179202 ], [ -122.498946853790784, 38.042016462587249 ], [ -122.499216348630185, 38.041746967911564 ], [ -122.49921634844199, 38.041387642318021 ], [ -122.498946853759847, 38.041118147379038 ], [ -122.498946853517879, 38.04048932801512 ] ], [ [ -122.499485842880205, 38.040938484337111 ], [ -122.499485842545866, 38.041387641845212 ], [ -122.499665506072603, 38.041387642262578 ], [ -122.499665506417983, 38.040938484508828 ], [ -122.499485842880205, 38.040938484337111 ] ], [ [ -122.499485842941937, 38.041746967684375 ], [ -122.499485843279132, 38.042016462971155 ], [ -122.499665505810185, 38.042016463021845 ], [ -122.499665506238628, 38.041746968347226 ], [ -122.499485842941937, 38.041746967684375 ] ], [ [ -122.502180788239087, 38.042645283130639 ], [ -122.502090957307246, 38.042735114590798 ], [ -122.502180788581413, 38.04273511525183 ], [ -122.502180788239087, 38.042645283130639 ] ], [ [ -122.502719777911494, 38.042645283261777 ], [ -122.502540115256494, 38.042735115030908 ], [ -122.502719777488139, 38.042735114770849 ], [ -122.502719777911494, 38.042645283261777 ] ] ] } },
{ "type": "Feature", "properties": { "csb_id": "061825005882812", "acres": 5.6346629664778103, "geoid": "06041" }, "geometry": { "type": "Polygon", "coordinates": [ [ [ -122.501911294005041, 38.040848653243238 ], [ -122.50191129347705, 38.040489326619173 ], [ -122.502180789357936, 38.040489327447361 ], [ -122.502180788647721, 38.040219831854522 ], [ -122.501911294674386, 38.040040169293576 ], [ -122.501462136242566, 38.040040169374564 ], [ -122.501641799171836, 38.039950337924694 ], [ -122.501641799957611, 38.039591011255872 ], [ -122.50218078925738, 38.039591011664861 ], [ -122.502360451204737, 38.039052022135031 ], [ -122.502989272672977, 38.039052022020385 ], [ -122.502989272293391, 38.039411348228484 ], [ -122.503438430215809, 38.039411348307794 ], [ -122.503438429548282, 38.040219832335396 ], [ -122.502809609175941, 38.040219832299137 ], [ -122.502540114881839, 38.040489327834791 ], [ -122.502540114207747, 38.040848652622479 ], [ -122.502809609671615, 38.041118147761637 ], [ -122.50343843043909, 38.041118147556034 ], [ -122.503438430374104, 38.041387641524615 ], [ -122.502540115094078, 38.041387641669296 ], [ -122.502180788748234, 38.041118147558855 ], [ -122.502180788354678, 38.040848652847181 ], [ -122.501911294005041, 38.040848653243238 ] ] ] } },
{ "type": "Feature", "properties": { "csb_id": "061825005882815", "acres": 17.798081718026499, "geoid": "06041" }, "geometry": { "type": "Polygon", "coordinates": [ [ [ -122.501012978330706, 38.039052022139714 ], [ -122.501282471640863, 38.039052022491504 ], [ -122.501282472319943, 38.038782528193906 ], [ -122.501012978889236, 38.038782528087708 ], [ -122.501012978330706, 38.039052022139714 ], [ -122.500743483125447, 38.039052022544098 ], [ -122.500743484109961, 38.039321516952583 ], [ -122.500384158121122, 38.039321517303954 ], [ -122.500114663381908, 38.038602864384266 ], [ -122.500324503646041, 38.038183885342221 ], [ -122.500743483003873, 38.038153707693183 ], [ -122.50074348355011, 38.03752488634818 ], [ -122.501012978712424, 38.036985896732858 ], [ -122.501641799298241, 38.036985897031194 ], [ -122.501462134942457, 38.037255391798361 ], [ -122.501641798355877, 38.037524886242146 ], [ -122.502540114905486, 38.037524887514863 ], [ -122.502540114019197, 38.03698589817926 ], [ -122.503258767251538, 38.036985897001955 ], [ -122.5036180924088, 38.036177413260241 ], [ -122.503977418878705, 38.036177413834373 ], [ -122.503977418151635, 38.037884213120059 ], [ -122.50424691383202, 38.037884211973093 ], [ -122.504606239021541, 38.038423201943807 ], [ -122.504606239256034, 38.038782527941571 ], [ -122.503977419142544, 38.039052022691159 ], [ -122.502360451204737, 38.039052022135031 ], [ -122.502090957130989, 38.038513032851149 ], [ -122.50146213489235, 38.03851303325991 ], [ -122.501462136526087, 38.039141853539896 ], [ -122.501821462905596, 38.039141853457984 ], [ -122.501911293632276, 38.039411348109589 ], [ -122.501911294449172, 38.039591011327879 ], [ -122.501641799957611, 38.039591011255872 ], [ -122.501641799171836, 38.039950337924694 ], [ -122.501462136776112, 38.039950337219885 ], [ -122.501012978330706, 38.039052022139714 ] ], [ [ -122.502719777917775, 38.037614717595822 ], [ -122.502090957336051, 38.037614717925649 ], [ -122.50209095731735, 38.037974044080848 ], [ -122.502719776224495, 38.037974043875721 ], [ -122.502719777917775, 38.037614717595822 ] ], [ [ -122.503258765740526, 38.037255392228381 ], [ -122.503438429605026, 38.037345222974352 ], [ -122.503438430575017, 38.03725539201033 ], [ -122.503258765740526, 38.037255392228381 ] ] ] } },
{ "type": "Feature", "properties": { "csb_id": "061825005882819", "acres": 15.2918220507174, "geoid": "06041" }, "geometry": { "type": "Polygon", "coordinates": [ [ [ -122.506941859620838, 38.039411348815953 ], [ -122.506672365649962, 38.039321517104099 ], [ -122.506672365583015, 38.039052022317641 ], [ -122.506402870180438, 38.038782527628598 ], [ -122.506043544120203, 38.038782527543823 ], [ -122.506043544147431, 38.038423201787758 ], [ -122.505504554873255, 38.037884212061854 ], [ -122.505145229402189, 38.037884212040431 ], [ -122.505145228625778, 38.038153706745767 ], [ -122.505145228955186, 38.038423201195478 ], [ -122.505504554842062, 38.038423201708078 ], [ -122.505504554715685, 38.038782527830598 ], [ -122.504875734430769, 38.038782528109351 ], [ -122.50424691383202, 38.037884211973093 ], [ -122.504606239541062, 38.03752488662532 ], [ -122.503977419559988, 38.037524886465363 ], [ -122.503977417654426, 38.037255392352407 ], [ -122.504246913216846, 38.03707572878276 ], [ -122.504246913296157, 38.036626571115669 ], [ -122.504875734304605, 38.036626570746357 ], [ -122.504875734960493, 38.03635707622928 ], [ -122.506402871021479, 38.036357076582469 ], [ -122.506941859546231, 38.036626571145469 ], [ -122.506941860210361, 38.037255391980054 ], [ -122.507570679958519, 38.037255392243601 ], [ -122.507570680464781, 38.037524885873175 ], [ -122.507301185459667, 38.03752488612038 ], [ -122.507301185555008, 38.038153706755509 ], [ -122.506941859398395, 38.038153707223294 ], [ -122.50694185902816, 38.038423201431321 ], [ -122.506941860379229, 38.038782528781987 ], [ -122.507301185650348, 38.038782527335627 ], [ -122.507301185804693, 38.03905202262343 ], [ -122.507570680230643, 38.039052021889063 ], [ -122.506941859620838, 38.039411348815953 ] ] ] } },
{ "type": "Feature", "properties": { "csb_id": "061825005882823", "acres": 19.790495174572801, "geoid": "06041" }, "geometry": { "type": "Polygon", "coordinates": [ [ [ -122.507301185918379, 38.035189266485588 ], [ -122.508468994894969, 38.035279098645148 ], [ -122.508468995634914, 38.034290951415791 ], [ -122.509636804345021, 38.034290951126238 ], [ -122.509996131867709, 38.034650277786199 ], [ -122.509636805786783, 38.036177413746515 ], [ -122.509367309098266, 38.036357077315252 ], [ -122.508738489895535, 38.036357076717138 ], [ -122.508468995625989, 38.036985895865229 ], [ -122.507570680241415, 38.0369858975005 ], [ -122.507570679958519, 38.037255392243601 ], [ -122.50730118562204, 38.03725539163306 ], [ -122.507301184678582, 38.036985897381221 ], [ -122.506941859158133, 38.036985897116175 ], [ -122.506941859546231, 38.036626571145469 ], [ -122.506402871021479, 38.036357076582469 ], [ -122.505145228852541, 38.03635707690372 ], [ -122.505145228319861, 38.035189266395044 ], [ -122.506043543442559, 38.035189266601122 ], [ -122.506672364643151, 38.034829940626324 ], [ -122.507301185660708, 38.034829940179002 ], [ -122.507301185918379, 38.035189266485588 ] ], [ [ -122.508379163645301, 38.036357076870139 ], [ -122.50846899499652, 38.036446907939201 ], [ -122.508468995681582, 38.03635707659344 ], [ -122.508379163645301, 38.036357076870139 ] ] ] } },
{ "type": "Feature", "properties": { "csb_id": "061825005882828", "acres": 17.844342828380601, "geoid": "06041" }, "geometry": { "type": "Polygon", "coordinates": [ [ [ -122.504606240060639, 38.036626571194525 ], [ -122.504606240009721, 38.035458761591478 ], [ -122.504246913881431, 38.035458760779605 ], [ -122.504246914356727, 38.034560446071964 ], [ -122.503707923941533, 38.03429095110787 ], [ -122.503707924173199, 38.033572299505295 ], [ -122.503977418938561, 38.033482468423202 ], [ -122.503977419418078, 38.033662130199346 ], [ -122.504606239942987, 38.033662130343856 ], [ -122.504606239372578, 38.033392636206173 ], [ -122.506402871129509, 38.03348246782506 ], [ -122.508468995214201, 38.034201120288586 ], [ -122.508379163544447, 38.035189266949345 ], [ -122.507301185918379, 38.035189266485588 ], [ -122.507301185660708, 38.034829940179002 ], [ -122.506672364643151, 38.034829940626324 ], [ -122.506043543442559, 38.035189266601122 ], [ -122.505145228319861, 38.035189266395044 ], [ -122.505145228852541, 38.03635707690372 ], [ -122.504875734960493, 38.03635707622928 ], [ -122.504875734304605, 38.036626570746357 ], [ -122.504606240060639, 38.036626571194525 ] ], [ [ -122.507750343764883, 38.034650277515162 ], [ -122.5080198383735, 38.034650277745726 ], [ -122.507840174855843, 38.034560445473474 ], [ -122.507840174786821, 38.034290952344286 ], [ -122.507750343764883, 38.034650277515162 ] ], [ [ -122.506672365008683, 38.033751962459895 ], [ -122.506582533285567, 38.033662130410164 ], [ -122.5065825339356, 38.033751961910582 ], [ -122.506672365008683, 38.033751962459895 ] ] ] } },
{ "type": "Feature", "properties": { "csb_id": "061825005882835", "acres": 2.7245344846062101, "geoid": "06041" }, "geometry": { "type": "Polygon", "coordinates": [ [ [ -122.506402870750335, 38.030967184547741 ], [ -122.50595371314688, 38.030428195344832 ], [ -122.506020209027355, 38.029985881056881 ], [ -122.506672364769145, 38.029799374492534 ], [ -122.506941859950999, 38.029889206674511 ], [ -122.507301185943348, 38.030428195096057 ], [ -122.507263200564822, 38.030666020545809 ], [ -122.506870362476008, 38.030921830728559 ], [ -122.506402870750335, 38.030967184547741 ] ], [ [ -122.506672363893884, 38.03051802747148 ], [ -122.506582533900129, 38.030428195872069 ], [ -122.506582533127769, 38.030518026801317 ], [ -122.506672363893884, 38.03051802747148 ] ] ] } },
{ "type": "Feature", "properties": { "csb_id": "061825005882865", "acres": 6.24474022006323, "geoid": "06041" }, "geometry": { "type": "Polygon", "coordinates": [ [ [ -122.589137707486813, 37.946345884889453 ], [ -122.589497034526246, 37.946345885007503 ], [ -122.589766528361608, 37.946705211201397 ], [ -122.589766528892497, 37.948142515841681 ], [ -122.587700403371556, 37.948142515718658 ], [ -122.58734107753547, 37.947873020976637 ], [ -122.587341077218809, 37.947603526480705 ], [ -122.587700403426567, 37.947603525999796 ], [ -122.587700403992088, 37.946974705416466 ], [ -122.588239393292952, 37.946974705407669 ], [ -122.588239393260054, 37.947244199813433 ], [ -122.589137708212846, 37.94724420032842 ], [ -122.589137707486813, 37.946345884889453 ] ], [ [ -122.587969898558285, 37.947603526232953 ], [ -122.587969897858571, 37.947873021467977 ], [ -122.58823939287015, 37.947873021354035 ], [ -122.588239392585805, 37.947603526118968 ], [ -122.587969898558285, 37.947603526232953 ] ] ] } },
{ "type": "Feature", "properties": { "csb_id": "061825012328982", "acres": 3.1905783401572698, "geoid": "06041" }, "geometry": { "type": "Polygon", "coordinates": [ [ [ -122.500817991662785, 37.943808022133652 ], [ -122.501177317996621, 37.943808021900445 ], [ -122.50171630745939, 37.94470633754581 ], [ -122.501716307100367, 37.944975832292791 ], [ -122.5014468126586, 37.945335158417038 ], [ -122.500817991817669, 37.94533515819429 ], [ -122.50054849807654, 37.944975831968698 ], [ -122.500548497812574, 37.944077516799489 ], [ -122.500817992757618, 37.944077516796533 ], [ -122.500817991662785, 37.943808022133652 ] ] ] } }
]
}
