{
"type": "FeatureCollection",
"name": "06051",
"crs": { "type": "name", "properties": { "name": "urn:ogc:def:crs:OGC:1.3:CRS84" } },
"features": [
{ "type": "Feature", "properties": { "csb_id": "061825009206226", "acres": 2.8989494188494098, "geoid": "06051" }, "geometry": { "type": "Polygon", "coordinates": [ [ [ -118.411204305297943, 37.686344632379075 ], [ -118.411473799729521, 37.686344632402296 ], [ -118.411473799466378, 37.686973453759734 ], [ -118.411743294471179, 37.687242948377722 ], [ -118.412372115181171, 37.68724294792014 ], [ -118.412372114947004, 37.687781937588611 ], [ -118.41084497856329, 37.687781937355631 ], [ -118.410844978774875, 37.686973453680253 ], [ -118.411204304973069, 37.686973453319588 ], [ -118.411204305297943, 37.686344632379075 ] ] ] } },
{ "type": "Feature", "properties": { "csb_id": "061825009206290", "acres": 5.5941910097444598, "geoid": "06051" }, "geometry": { "type": "Polygon", "coordinates": [ [ [ -118.399885532997729, 37.671073272810119 ], [ -118.399885532992542, 37.670534283292731 ], [ -118.400155027110173, 37.670534283858686 ], [ -118.400244858807667, 37.66954613700041 ], [ -118.401053342323635, 37.669366473421626 ], [ -118.401951657706306, 37.669546137218859 ], [ -118.401951658114854, 37.669905463013961 ], [ -118.401592331102989, 37.66990546277286 ], [ -118.401592331951264, 37.67053428361708 ], [ -118.40132283685368, 37.670803778029835 ], [ -118.400424521388032, 37.670803778475388 ], [ -118.400424521601721, 37.671163104642559 ], [ -118.399885532997729, 37.671073272810119 ] ] ] } },
{ "type": "Feature", "properties": { "csb_id": "061825009206309", "acres": 10.2808513390891, "geoid": "06051" }, "geometry": { "type": "Polygon", "coordinates": [ [ [ -118.365030899463164, 37.665773212518978 ], [ -118.365659720451688, 37.665773212382298 ], [ -118.365839383283614, 37.666671527670438 ], [ -118.366468203793573, 37.666671527630562 ], [ -118.366468203970143, 37.666941022365222 ], [ -118.365929215353859, 37.667120685781164 ], [ -118.365929214911958, 37.666851191474763 ], [ -118.365659719944816, 37.666851191317249 ], [ -118.365390225951771, 37.667120685321756 ], [ -118.365390225631401, 37.667569843268723 ], [ -118.365030899478626, 37.668019001085803 ], [ -118.364042752481467, 37.668108832254738 ], [ -118.364042753272869, 37.66837832696325 ], [ -118.363324101058112, 37.668378327345948 ], [ -118.362964774665883, 37.667839338195357 ], [ -118.36359359547518, 37.667749505820467 ], [ -118.363863090011861, 37.667480011872641 ], [ -118.363863089457041, 37.667120685579071 ], [ -118.363593595110785, 37.667120686059725 ], [ -118.363503763540365, 37.666851190923744 ], [ -118.363503763652801, 37.666312201698382 ], [ -118.364761404818296, 37.666222370209503 ], [ -118.365030899463164, 37.665773212518978 ] ], [ [ -118.364671573528426, 37.666941022297344 ], [ -118.364671573001388, 37.667210516841187 ], [ -118.365210563102508, 37.667210516799443 ], [ -118.365210563048791, 37.666941022915275 ], [ -118.364671573528426, 37.666941022297344 ] ] ] } },
{ "type": "Feature", "properties": { "csb_id": "061825009206372", "acres": 21.1136947870664, "geoid": "06051" }, "geometry": { "type": "Polygon", "coordinates": [ [ [ -118.388207434061485, 37.650501852939357 ], [ -118.38668029773612, 37.650501852600421 ], [ -118.386680297758204, 37.649064548685644 ], [ -118.385242993712993, 37.649064548165263 ], [ -118.385242993221311, 37.647896738607812 ], [ -118.386141308872951, 37.646639096871382 ], [ -118.386680297500575, 37.646639097127348 ], [ -118.386680298455985, 37.64636960264027 ], [ -118.386410803319251, 37.646100107627802 ], [ -118.385871814428356, 37.646100107880514 ], [ -118.385692150530929, 37.645650950254179 ], [ -118.38668029837109, 37.645740782225069 ], [ -118.386680298298799, 37.646100108342722 ], [ -118.387039623716987, 37.646369602863196 ], [ -118.387578613677974, 37.646369602200039 ], [ -118.387578613068129, 37.64789673872275 ], [ -118.388297265418231, 37.648435727664754 ], [ -118.388476928768299, 37.64879505335513 ], [ -118.388476928848036, 37.649693368699623 ], [ -118.388207434152733, 37.649693369458653 ], [ -118.388207433763085, 37.649334043290139 ], [ -118.387937938994796, 37.649334042793861 ], [ -118.387937939470618, 37.649962863636354 ], [ -118.388207434033319, 37.649962863681544 ], [ -118.388207434061485, 37.650501852939357 ] ] ] } },
{ "type": "Feature", "properties": { "csb_id": "061825015957896", "acres": 17.403940716953901, "geoid": "06051" }, "geometry": { "type": "Polygon", "coordinates": [ [ [ -118.408006293348635, 37.644262536808419 ], [ -118.40800629352573, 37.643364221711671 ], [ -118.408365618733981, 37.643364221485257 ], [ -118.40836561964764, 37.64309472669315 ], [ -118.408365619272843, 37.642465906214277 ], [ -118.408006293698108, 37.642196411969174 ], [ -118.407646967209729, 37.642196411519102 ], [ -118.407736798867447, 37.641837085180704 ], [ -118.408006292767411, 37.641567591102309 ], [ -118.408006292762749, 37.641298096602185 ], [ -118.408545282488717, 37.641567591230164 ], [ -118.408545280783201, 37.642196411612588 ], [ -118.410252080886281, 37.642196411366136 ], [ -118.410252081071718, 37.641387927900993 ], [ -118.410431744115058, 37.641387928217362 ], [ -118.410431744360892, 37.641567590742255 ], [ -118.411599554283001, 37.641567590976038 ], [ -118.411599553793522, 37.642196411398345 ], [ -118.41133005978125, 37.642196411375991 ], [ -118.411330059248044, 37.643364221823433 ], [ -118.411150396754337, 37.643633716495074 ], [ -118.409802923952242, 37.643993041945542 ], [ -118.409533428076301, 37.644262537017511 ], [ -118.408006293348635, 37.644262536808419 ] ] ] } },
{ "type": "Feature", "properties": { "csb_id": "061825015957900", "acres": 14.7868857467982, "geoid": "06051" }, "geometry": { "type": "Polygon", "coordinates": [ [ [ -118.410252080886281, 37.642196411366136 ], [ -118.408545280783201, 37.642196411612588 ], [ -118.408545282488717, 37.641567591230164 ], [ -118.408185955631581, 37.641298096550962 ], [ -118.408006292762749, 37.641298096602185 ], [ -118.408006292767411, 37.641567591102309 ], [ -118.407646967102806, 37.641567591069141 ], [ -118.407916461293425, 37.640669275949378 ], [ -118.408365618392992, 37.640669276331892 ], [ -118.408365618018223, 37.640040455459179 ], [ -118.4086351125992, 37.64004045495593 ], [ -118.408635112969321, 37.640399781266019 ], [ -118.408814775307562, 37.640399781814416 ], [ -118.408814775641005, 37.639591297213478 ], [ -118.409802923097743, 37.639591297660694 ], [ -118.41025208144255, 37.639770960463906 ], [ -118.410431744673176, 37.640040455353144 ], [ -118.410431743196511, 37.640489612656758 ], [ -118.410611406123337, 37.640669275934037 ], [ -118.411599554772479, 37.640938770451577 ], [ -118.411599554283001, 37.641567590976038 ], [ -118.410431744360892, 37.641567590742255 ], [ -118.410431744115058, 37.641387928217362 ], [ -118.410252081071718, 37.641387927900993 ], [ -118.410252080886281, 37.642196411366136 ] ] ] } }
]
}
