{
"type": "FeatureCollection",
"name": "06057",
"crs": { "type": "name", "properties": { "name": "urn:ogc:def:crs:OGC:1.3:CRS84" } },
"features": [
{ "type": "Feature", "properties": { "csb_id": "061825003214232", "acres": 2.58481206249462, "geoid": "06057" }, "geometry": { "type": "Polygon", "coordinates": [ [ [ -121.046299645392409, 39.375090169435424 ], [ -121.04683863454882, 39.375090168942862 ], [ -121.046838634177476, 39.375359664006311 ], [ -121.047736948755272, 39.375359663768194 ], [ -121.047467454846256, 39.376347810734103 ], [ -121.047197959957145, 39.376347811268985 ], [ -121.047197960756989, 39.375988484610332 ], [ -121.046838633855941, 39.375718990137109 ], [ -121.045940319522316, 39.375718990334612 ], [ -121.045940319473971, 39.375359664272118 ], [ -121.046299645276406, 39.375359664033901 ], [ -121.046299645392409, 39.375090169435424 ] ] ] } },
{ "type": "Feature", "properties": { "csb_id": "061825003214233", "acres": 6.5220883679897703, "geoid": "06057" }, "geometry": { "type": "Polygon", "coordinates": [ [ [ -121.050791221750657, 39.372125728897693 ], [ -121.051420041925041, 39.372125728767251 ], [ -121.051420042029036, 39.373024044688869 ], [ -121.051959031132682, 39.373024044803316 ], [ -121.051959031333993, 39.37329353889195 ], [ -121.052318357813434, 39.373293538481484 ], [ -121.052318357405269, 39.373024044160395 ], [ -121.051959031132682, 39.373024044803316 ], [ -121.051959031313004, 39.372664718366707 ], [ -121.05294717744556, 39.37266471795089 ], [ -121.053216672961554, 39.373024044520896 ], [ -121.053216673015953, 39.373293538678119 ], [ -121.052947177828628, 39.373293539242226 ], [ -121.052947177906432, 39.373922359781766 ], [ -121.053486167308449, 39.373922359234086 ], [ -121.053486167540498, 39.374191854552421 ], [ -121.052587852499471, 39.374191853971027 ], [ -121.052587851844962, 39.373563033220499 ], [ -121.051689536260412, 39.373563033432738 ], [ -121.051599705757539, 39.37392235992791 ], [ -121.050521727098314, 39.373922359926858 ], [ -121.050521727017141, 39.373563033072699 ], [ -121.05142004211649, 39.373563033050218 ], [ -121.051420042790895, 39.37329353917395 ], [ -121.051060716366933, 39.373024044467613 ], [ -121.050252232738771, 39.373024044527824 ], [ -121.050414262989818, 39.37270086157092 ], [ -121.050701390342297, 39.372664718169943 ], [ -121.050791221750657, 39.372125728897693 ] ] ] } },
{ "type": "Feature", "properties": { "csb_id": "061825003214234", "acres": 4.3860960756418299, "geoid": "06057" }, "geometry": { "type": "Polygon", "coordinates": [ [ [ -121.065793086495901, 39.369071457521926 ], [ -121.06588291759364, 39.369700277499874 ], [ -121.066781233800612, 39.369700277866215 ], [ -121.066781233497764, 39.369969772067734 ], [ -121.06651173899742, 39.370239266863621 ], [ -121.065613422977805, 39.370239266839448 ], [ -121.065613423930259, 39.369969772454311 ], [ -121.065254097643404, 39.369969771993034 ], [ -121.06525409723227, 39.370868087667084 ], [ -121.064715108554765, 39.370868087201039 ], [ -121.0647151079651, 39.370239266609936 ], [ -121.064355782367613, 39.3699697726911 ], [ -121.0643557823322, 39.369340951859961 ], [ -121.064984602434677, 39.369340951418017 ], [ -121.064984602698999, 39.369700277789619 ], [ -121.065613423446408, 39.36970027746051 ], [ -121.065613423580302, 39.369071457166854 ], [ -121.065793086495901, 39.369071457521926 ] ] ] } },
{ "type": "Feature", "properties": { "csb_id": "061825003214235", "acres": 3.1683405396622799, "geoid": "06057" }, "geometry": { "type": "Polygon", "coordinates": [ [ [ -121.109091883776756, 39.366017184766335 ], [ -121.109301723935602, 39.366674078465927 ], [ -121.109091882697754, 39.367005331715127 ], [ -121.108690974840073, 39.36723324398006 ], [ -121.107654578511131, 39.367274826567929 ], [ -121.107564747653285, 39.366646005468297 ], [ -121.107834242112304, 39.366376510981134 ], [ -121.108103736968488, 39.366376511405136 ], [ -121.108103736498919, 39.366646005641677 ], [ -121.108463062152083, 39.366646006054502 ], [ -121.10873255757673, 39.36637651151181 ], [ -121.10873255724097, 39.366017185141018 ], [ -121.109091883776756, 39.366017184766335 ] ] ] } },
{ "type": "Feature", "properties": { "csb_id": "061825003214237", "acres": 3.55814140845311, "geoid": "06057" }, "geometry": { "type": "Polygon", "coordinates": [ [ [ -121.10181552933733, 39.366646005901941 ], [ -121.101815529710663, 39.367274826632219 ], [ -121.102085024148167, 39.367274826043051 ], [ -121.102085023597581, 39.367813815523689 ], [ -121.101815529415006, 39.367813815646961 ], [ -121.101546034840339, 39.367544321450772 ], [ -121.101546035371413, 39.366915500045423 ], [ -121.10091721470603, 39.366915500661882 ], [ -121.100288392962739, 39.366376510928561 ], [ -121.100288393630066, 39.365747690099319 ], [ -121.100557887730247, 39.365747690782854 ], [ -121.100557888447526, 39.366017185410662 ], [ -121.101546035510367, 39.366017185125116 ], [ -121.101546035106338, 39.366376510768639 ], [ -121.10181552933733, 39.366646005901941 ] ] ] } },
{ "type": "Feature", "properties": { "csb_id": "061825003214238", "acres": 3.9018292540070401, "geoid": "06057" }, "geometry": { "type": "Polygon", "coordinates": [ [ [ -121.08914928349364, 39.360896787890702 ], [ -121.089688273007965, 39.360896788422018 ], [ -121.090047599399611, 39.361256114020982 ], [ -121.090047599319945, 39.361795103464239 ], [ -121.090676420455637, 39.361795103085875 ], [ -121.090676419825868, 39.362154429262731 ], [ -121.090317094015504, 39.362423924362325 ], [ -121.090047599486709, 39.362423923604119 ], [ -121.089418778188417, 39.36215442913111 ], [ -121.089418778655087, 39.361525609107645 ], [ -121.08914928468954, 39.361525608830192 ], [ -121.089149284449078, 39.362154429249266 ], [ -121.088789957507558, 39.362154429828337 ], [ -121.088789957629686, 39.361256114488221 ], [ -121.089149283810301, 39.361256114072035 ], [ -121.08914928349364, 39.360896787890702 ] ] ] } },
{ "type": "Feature", "properties": { "csb_id": "061825003214239", "acres": 3.3294288497723499, "geoid": "06057" }, "geometry": { "type": "Polygon", "coordinates": [ [ [ -121.084567876043522, 39.362693418829693 ], [ -121.083669560275396, 39.362423923781719 ], [ -121.083400066191629, 39.362154429064361 ], [ -121.08340006657059, 39.361795102981127 ], [ -121.083669560652922, 39.361795102920837 ], [ -121.083669561235894, 39.360896787716086 ], [ -121.084028886700992, 39.360627293299011 ], [ -121.084298381875712, 39.360627293533213 ], [ -121.084298381699966, 39.361525608345701 ], [ -121.084028886880375, 39.361795103005711 ], [ -121.084028887361072, 39.362154429554543 ], [ -121.0845678762971, 39.362423923566489 ], [ -121.085196697118036, 39.362423924269663 ], [ -121.085196696332616, 39.362693418275654 ], [ -121.084567876043522, 39.362693418829693 ] ] ] } },
{ "type": "Feature", "properties": { "csb_id": "061825003214241", "acres": 3.0536504000922302, "geoid": "06057" }, "geometry": { "type": "Polygon", "coordinates": [ [ [ -121.104510476095669, 39.340684694393538 ], [ -121.104869801332498, 39.340684694403322 ], [ -121.104869801618293, 39.341313514340662 ], [ -121.105139295648556, 39.341313515054118 ], [ -121.105139296613856, 39.340954188986522 ], [ -121.105408790437238, 39.340954188884616 ], [ -121.105768116386756, 39.341313514795395 ], [ -121.105768116360721, 39.341583009014002 ], [ -121.104510474817999, 39.341583009107232 ], [ -121.104510475986089, 39.342211830219227 ], [ -121.104240980660236, 39.34221183049798 ], [ -121.104240980702045, 39.341583009618923 ], [ -121.103881655315973, 39.341583009682459 ], [ -121.103881654781233, 39.340954188746707 ], [ -121.104510475086059, 39.340954188729235 ], [ -121.104510476095669, 39.340684694393538 ] ] ] } },
{ "type": "Feature", "properties": { "csb_id": "061825003214242", "acres": 4.3991299032804099, "geoid": "06057" }, "geometry": { "type": "Polygon", "coordinates": [ [ [ -121.102713844324455, 39.340684693832081 ], [ -121.103612159614386, 39.340954188598552 ], [ -121.10361215959523, 39.341313514757985 ], [ -121.103342666036554, 39.341852503691428 ], [ -121.102983339100064, 39.341852503983738 ], [ -121.102983339657456, 39.34221183039184 ], [ -121.103612160524861, 39.342211829643894 ], [ -121.103881654990587, 39.343110145034899 ], [ -121.102983339874285, 39.343110144957159 ], [ -121.102983339479366, 39.342840651002561 ], [ -121.103342665361609, 39.342840651013766 ], [ -121.103342665587661, 39.342481324940564 ], [ -121.102444349840653, 39.342481324566997 ], [ -121.102444349871973, 39.34185250408725 ], [ -121.102713845200668, 39.341583009054283 ], [ -121.102713844324455, 39.340684693832081 ] ] ] } },
{ "type": "Feature", "properties": { "csb_id": "061825003214243", "acres": 3.2350538218538198, "geoid": "06057" }, "geometry": { "type": "Polygon", "coordinates": [ [ [ -121.057438754749995, 39.338708400734539 ], [ -121.058606564296468, 39.338888063504321 ], [ -121.058965890341966, 39.33915755859077 ], [ -121.058965890619689, 39.339516884189365 ], [ -121.058337070180144, 39.339786378320063 ], [ -121.057438753899575, 39.339786378719694 ], [ -121.057438754749995, 39.338708400734539 ] ] ] } },
{ "type": "Feature", "properties": { "csb_id": "061825003214244", "acres": 5.9552737314358, "geoid": "06057" }, "geometry": { "type": "Polygon", "coordinates": [ [ [ -121.109630872787292, 39.333138846091877 ], [ -121.109630872655359, 39.333408339936703 ], [ -121.110259693495905, 39.333408339832481 ], [ -121.110259693548329, 39.333138845521596 ], [ -121.109630872787292, 39.333138846091877 ], [ -121.109630872613479, 39.332869351404909 ], [ -121.110259692988109, 39.332510024753908 ], [ -121.110888513514553, 39.332510025481469 ], [ -121.111427503292973, 39.332869351222442 ], [ -121.111427503662142, 39.333408340594985 ], [ -121.110888514429348, 39.333408340235557 ], [ -121.110888514402248, 39.333138845458649 ], [ -121.110529187833379, 39.333138845826383 ], [ -121.110529187987609, 39.334037160892265 ], [ -121.111786829259373, 39.334037160957052 ], [ -121.111786828932864, 39.334306655635906 ], [ -121.111427502883672, 39.334665981560725 ], [ -121.111158008566932, 39.334665982032085 ], [ -121.111158008323841, 39.334306655314357 ], [ -121.110259692873484, 39.334306655357629 ], [ -121.110259692925922, 39.334037160982646 ], [ -121.109361378132192, 39.334037160654759 ], [ -121.109361377983575, 39.333138845801308 ], [ -121.109630872787292, 39.333138846091877 ] ] ] } },
{ "type": "Feature", "properties": { "csb_id": "061825003214245", "acres": 4.0369739173594796, "geoid": "06057" }, "geometry": { "type": "Polygon", "coordinates": [ [ [ -121.108103736723251, 39.332510025028562 ], [ -121.10846306255263, 39.332510024688396 ], [ -121.108463062647843, 39.333408339879128 ], [ -121.108732557057024, 39.334037160698017 ], [ -121.109091882857626, 39.334037161038388 ], [ -121.10909188328624, 39.334306655342587 ], [ -121.107834242292725, 39.334306655731808 ], [ -121.107834241654743, 39.334665982004211 ], [ -121.107564747523696, 39.334665982066753 ], [ -121.107205421629402, 39.334306655826246 ], [ -121.10720542115655, 39.333767666354952 ], [ -121.107564747196548, 39.333408340369218 ], [ -121.107834241474308, 39.333408340235934 ], [ -121.107834241966586, 39.333767666189765 ], [ -121.108103736757002, 39.333767666568434 ], [ -121.108103736723251, 39.332510025028562 ] ] ] } },
{ "type": "Feature", "properties": { "csb_id": "061825003214247", "acres": 4.3235718383141997, "geoid": "06057" }, "geometry": { "type": "Polygon", "coordinates": [ [ [ -121.104240981043205, 39.328287942676177 ], [ -121.10513929630153, 39.328287942909199 ], [ -121.105408791111032, 39.328647268917756 ], [ -121.105408790359377, 39.328916763953664 ], [ -121.104869801417806, 39.328916763822306 ], [ -121.104869800993583, 39.32981507924768 ], [ -121.104240980781569, 39.329815078810313 ], [ -121.103612159882132, 39.329545584550118 ], [ -121.103612159595585, 39.329186258651021 ], [ -121.103881654542121, 39.328647269774699 ], [ -121.104240981059007, 39.32864726918919 ], [ -121.104240981043205, 39.328287942676177 ] ] ] } },
{ "type": "Feature", "properties": { "csb_id": "061825003214248", "acres": 5.0108755226862396, "geoid": "06057" }, "geometry": { "type": "Polygon", "coordinates": [ [ [ -121.06830836980302, 39.327748954267719 ], [ -121.068308369359016, 39.327120133613434 ], [ -121.068038875328142, 39.327120133506661 ], [ -121.067679548736422, 39.327389627523935 ], [ -121.067679549112725, 39.327748953485639 ], [ -121.068038874562646, 39.327748953928257 ], [ -121.068038875334167, 39.328018448596289 ], [ -121.067410053912141, 39.328287943261145 ], [ -121.066781234069836, 39.328287943280863 ], [ -121.066781233363528, 39.327748953831396 ], [ -121.067050727688184, 39.327748954304674 ], [ -121.067050727865805, 39.3273896279469 ], [ -121.066781233747946, 39.327389627706246 ], [ -121.066781233363528, 39.327748953831396 ], [ -121.066511739344136, 39.327748953637141 ], [ -121.066511738889517, 39.327120133422859 ], [ -121.067679548171668, 39.327120133133114 ], [ -121.067679548925625, 39.326760806998188 ], [ -121.068577864513415, 39.326760806933613 ], [ -121.068577864302114, 39.326491312750804 ], [ -121.069206684947076, 39.326491312309948 ], [ -121.069206685237617, 39.326760806958106 ], [ -121.068937190026617, 39.327120132878044 ], [ -121.068577863389891, 39.327120133137754 ], [ -121.068577863913148, 39.327748954257316 ], [ -121.06830836980302, 39.327748954267719 ] ] ] } },
{ "type": "Feature", "properties": { "csb_id": "061825003214250", "acres": 3.9857928630175401, "geoid": "06057" }, "geometry": { "type": "Polygon", "coordinates": [ [ [ -121.096695131960004, 39.319843779145089 ], [ -121.096335806199761, 39.320023442283848 ], [ -121.096335806353139, 39.319574285062629 ], [ -121.096066311816742, 39.319214958325453 ], [ -121.095437490853755, 39.318945464550715 ], [ -121.094898501654157, 39.318945464393138 ], [ -121.094539175633315, 39.319214958690729 ], [ -121.094269681206981, 39.319214958567692 ], [ -121.093640860332272, 39.318945464485438 ], [ -121.093640861129145, 39.318675969924747 ], [ -121.094000186792996, 39.318316643221145 ], [ -121.094539176047149, 39.318316643513768 ], [ -121.094539175368496, 39.31867596948026 ], [ -121.095796817632362, 39.318675969335516 ], [ -121.095796817770847, 39.318945464432183 ], [ -121.096964626457677, 39.318945464146928 ], [ -121.096964627245313, 39.31921495909981 ], [ -121.096695132115741, 39.319214958818471 ], [ -121.096695131960004, 39.319843779145089 ] ] ] } },
{ "type": "Feature", "properties": { "csb_id": "061825003214251", "acres": 2.4657674065163202, "geoid": "06057" }, "geometry": { "type": "Polygon", "coordinates": [ [ [ -121.09112557784124, 39.319574284931086 ], [ -121.090586589101548, 39.319214958916973 ], [ -121.089688273023583, 39.318945464379588 ], [ -121.089688273226912, 39.318316643784698 ], [ -121.09004759943582, 39.318316643101376 ], [ -121.090047599780107, 39.318675969811473 ], [ -121.09094591476925, 39.318945464325104 ], [ -121.090945914836354, 39.318316643357328 ], [ -121.091574734908392, 39.318316643158774 ], [ -121.091574735436922, 39.318675969543349 ], [ -121.091215409308276, 39.318675969622667 ], [ -121.09112557784124, 39.319574284931086 ] ] ] } },
{ "type": "Feature", "properties": { "csb_id": "061825003214254", "acres": 3.8299925823586101, "geoid": "06057" }, "geometry": { "type": "Polygon", "coordinates": [ [ [ -121.067769380617293, 39.277622960691843 ], [ -121.068308368959123, 39.277622961399238 ], [ -121.068308369388404, 39.27789245567368 ], [ -121.069835505280793, 39.277892455888534 ], [ -121.069835505816243, 39.278521275984538 ], [ -121.069476179301361, 39.279060265485754 ], [ -121.069206685128336, 39.279060265924436 ], [ -121.069206684747257, 39.278790770874316 ], [ -121.06830836961835, 39.278790771222972 ], [ -121.068308369817643, 39.278161949966034 ], [ -121.067769380617293, 39.277622960691843 ] ] ] } },
{ "type": "Feature", "properties": { "csb_id": "061825003214289", "acres": 2.9467451677090102, "geoid": "06057" }, "geometry": { "type": "Polygon", "coordinates": [ [ [ -120.964193628547775, 39.156530060785812 ], [ -120.964463122565803, 39.156530060967185 ], [ -120.96446312267129, 39.156889386560223 ], [ -120.965361437487545, 39.15688938695741 ], [ -120.965361437750673, 39.156530061299172 ], [ -120.965630932375305, 39.156530060674065 ], [ -120.965630933142606, 39.157158881744728 ], [ -120.965990258588874, 39.157158881714295 ], [ -120.965990258478257, 39.157787701839354 ], [ -120.965091943218667, 39.157787701942517 ], [ -120.965091943736283, 39.157158881484463 ], [ -120.96383430174086, 39.157158881968805 ], [ -120.963834301643089, 39.156889387084824 ], [ -120.964193627622649, 39.156889387240454 ], [ -120.964193628547775, 39.156530060785812 ] ] ] } },
{ "type": "Feature", "properties": { "csb_id": "061825012212917", "acres": 3.2509971649565599, "geoid": "06057" }, "geometry": { "type": "Polygon", "coordinates": [ [ [ -121.10155714048571, 39.371167351887365 ], [ -121.102006298368337, 39.371167352074181 ], [ -121.102365624390274, 39.371526678396833 ], [ -121.10236562444129, 39.371796173129532 ], [ -121.101377477311559, 39.371796172912106 ], [ -121.101377477271967, 39.372424993838152 ], [ -121.101107983480333, 39.372694488207763 ], [ -121.100479161820729, 39.372694488495881 ], [ -121.100528552307367, 39.372215152614011 ], [ -121.100804275176785, 39.372121285590445 ], [ -121.100878228122909, 39.371612913290193 ], [ -121.10155714048571, 39.371167351887365 ] ] ] } },
{ "type": "Feature", "properties": { "csb_id": "061825012213758", "acres": 2.4239136004847301, "geoid": "06057" }, "geometry": { "type": "Polygon", "coordinates": [ [ [ -121.129045587836586, 39.338199181222329 ], [ -121.129584577509576, 39.338199181546749 ], [ -121.12994390294223, 39.338468675659179 ], [ -121.129943903433144, 39.338738170557875 ], [ -121.131740533765736, 39.338738170355867 ], [ -121.131740533853872, 39.339097496408876 ], [ -121.130213398225095, 39.339097496773931 ], [ -121.129045588375206, 39.338468675402119 ], [ -121.129045587836586, 39.338199181222329 ] ] ] } },
{ "type": "Feature", "properties": { "csb_id": "061825012213824", "acres": 5.7927975502228497, "geoid": "06057" }, "geometry": { "type": "Polygon", "coordinates": [ [ [ -121.132369354365807, 39.337570360306138 ], [ -121.132010028659622, 39.337570360543396 ], [ -121.132010028708251, 39.336941539704064 ], [ -121.13174053414923, 39.336941539512019 ], [ -121.131740533932771, 39.337211033977987 ], [ -121.130842218461581, 39.337211034353182 ], [ -121.130482892441634, 39.336941539940625 ], [ -121.130482892511367, 39.336672045565599 ], [ -121.131111713391562, 39.336672045061718 ], [ -121.131111713401452, 39.336941539903179 ], [ -121.131471039896255, 39.336941539598861 ], [ -121.13236935448603, 39.336312719288969 ], [ -121.132369354622796, 39.336043224420827 ], [ -121.131740534494, 39.336043224842612 ], [ -121.131740534404386, 39.335773729598941 ], [ -121.13147103967043, 39.335773729757435 ], [ -121.131471039887316, 39.336043224767813 ], [ -121.131740534494, 39.336043224842612 ], [ -121.13174053427754, 39.336312719244248 ], [ -121.130482892400337, 39.336312719188015 ], [ -121.130482892470098, 39.336043224857981 ], [ -121.130842218722364, 39.336043224571405 ], [ -121.13111171301307, 39.335773730366611 ], [ -121.131111713478546, 39.335414404236374 ], [ -121.132638849256892, 39.335414403620895 ], [ -121.132638849577475, 39.336312719378149 ], [ -121.132908343538759, 39.33631271911819 ], [ -121.132908343464308, 39.336672045244256 ], [ -121.132369355127778, 39.336672044715279 ], [ -121.132369354365807, 39.337570360306138 ] ] ] } },
{ "type": "Feature", "properties": { "csb_id": "061825012214022", "acres": 2.7678557340578802, "geoid": "06057" }, "geometry": { "type": "Polygon", "coordinates": [ [ [ -121.11934378354816, 39.328138049885574 ], [ -121.119343783226441, 39.328497376190924 ], [ -121.119882771758355, 39.32849737605617 ], [ -121.119882772308657, 39.329036365729962 ], [ -121.119613278279218, 39.329665186042412 ], [ -121.118984457202885, 39.329665185527382 ], [ -121.118984457445038, 39.329395691219034 ], [ -121.119343782834264, 39.329395691555682 ], [ -121.119343783155983, 39.329036365165372 ], [ -121.118355636939512, 39.329036365358292 ], [ -121.118355636955371, 39.328766870699518 ], [ -121.118714962003466, 39.328766870426279 ], [ -121.118984457467675, 39.328497375925473 ], [ -121.118984457311882, 39.328138050086309 ], [ -121.11934378354816, 39.328138049885574 ] ] ] } },
{ "type": "Feature", "properties": { "csb_id": "061825012214144", "acres": 2.7871199783779099, "geoid": "06057" }, "geometry": { "type": "Polygon", "coordinates": [ [ [ -121.182315684876812, 39.323915968469116 ], [ -121.183573326383836, 39.323915968069095 ], [ -121.183573325903595, 39.324544788730869 ], [ -121.182944505530344, 39.324814283845527 ], [ -121.182315684523502, 39.324814283210586 ], [ -121.182046190146323, 39.324544789306621 ], [ -121.18204618979756, 39.324185463048273 ], [ -121.182315685140424, 39.32418546288541 ], [ -121.182315684876812, 39.323915968469116 ] ] ] } },
{ "type": "Feature", "properties": { "csb_id": "061825012214179", "acres": 3.78941358958981, "geoid": "06057" }, "geometry": { "type": "Polygon", "coordinates": [ [ [ -121.182046190313386, 39.322388831795827 ], [ -121.182944505617371, 39.322388832293576 ], [ -121.18357332632344, 39.322748157815475 ], [ -121.183573326266824, 39.323646473598224 ], [ -121.182315684306602, 39.323646473210758 ], [ -121.182315684923552, 39.323017653077635 ], [ -121.182046189532343, 39.322748158118969 ], [ -121.182046190313386, 39.322388831795827 ] ] ] } },
{ "type": "Feature", "properties": { "csb_id": "061825012214196", "acres": 2.7872074652742702, "geoid": "06057" }, "geometry": { "type": "Polygon", "coordinates": [ [ [ -121.184471641081728, 39.321490516707172 ], [ -121.184741135948855, 39.322748158574129 ], [ -121.183842820111209, 39.32274815819013 ], [ -121.183573325790832, 39.32238883204608 ], [ -121.183573325673862, 39.322119337682793 ], [ -121.183842820911664, 39.321490516625751 ], [ -121.184471641081728, 39.321490516707172 ] ] ] } },
{ "type": "Feature", "properties": { "csb_id": "061825012214614", "acres": 13.1375459524593, "geoid": "06057" }, "geometry": { "type": "Polygon", "coordinates": [ [ [ -121.13506430072141, 39.302715727539784 ], [ -121.135333795341651, 39.302715727528813 ], [ -121.135693121129663, 39.30298522235644 ], [ -121.136591437016463, 39.302985222274792 ], [ -121.137220257127694, 39.303344547831777 ], [ -121.137220257783781, 39.303614043043346 ], [ -121.136860931765199, 39.303614043103295 ], [ -121.136591436545046, 39.303883537034771 ], [ -121.136591436379618, 39.304781852861964 ], [ -121.135962615607824, 39.304781853080193 ], [ -121.135962615438103, 39.304242863286461 ], [ -121.135333795437631, 39.304242862988055 ], [ -121.135064300838252, 39.304781853043885 ], [ -121.135064301009933, 39.305410673113322 ], [ -121.134794805740981, 39.305769999450909 ], [ -121.134165985712627, 39.305769999774633 ], [ -121.134165985715882, 39.305410673421584 ], [ -121.13353716489938, 39.305410673228742 ], [ -121.133537164036795, 39.305769999115284 ], [ -121.133267670364233, 39.305769999171488 ], [ -121.133267670518478, 39.30451235795929 ], [ -121.133537164343224, 39.304242863401271 ], [ -121.134165985802923, 39.304242863217446 ], [ -121.134165986038056, 39.30361404301258 ], [ -121.134435479692911, 39.303614043059795 ], [ -121.13479480650058, 39.303883536860418 ], [ -121.134794806227021, 39.30424286377297 ], [ -121.135064300267516, 39.304242863788481 ], [ -121.13506430072141, 39.302715727539784 ] ] ] } },
{ "type": "Feature", "properties": { "csb_id": "061825012215039", "acres": 2.7219343360593702, "geoid": "06057" }, "geometry": { "type": "Polygon", "coordinates": [ [ [ -121.126170979916679, 39.285108748027099 ], [ -121.126051760132881, 39.285594048789008 ], [ -121.126260810455605, 39.286366389380866 ], [ -121.127159126359587, 39.286366388855875 ], [ -121.127159126234901, 39.286635883667223 ], [ -121.126889631132343, 39.286905378593225 ], [ -121.125631990175776, 39.286905378879993 ], [ -121.125631990026676, 39.2866358843551 ], [ -121.12599131588496, 39.286635883602322 ], [ -121.125991316866148, 39.286007063121083 ], [ -121.12563199012601, 39.286007062850821 ], [ -121.12563199053109, 39.285378242306464 ], [ -121.126170979916679, 39.285108748027099 ] ] ] } },
{ "type": "Feature", "properties": { "csb_id": "061825012215085", "acres": 3.61005163937322, "geoid": "06057" }, "geometry": { "type": "Polygon", "coordinates": [ [ [ -121.132010028861401, 39.282952790855411 ], [ -121.133267670440461, 39.28295279140891 ], [ -121.133267670288816, 39.283312117611061 ], [ -121.13290834331319, 39.283312117094773 ], [ -121.132908344470891, 39.283940938012364 ], [ -121.132638849501319, 39.284210432234289 ], [ -121.131740534043786, 39.284210432389898 ], [ -121.131471039460465, 39.283940938128438 ], [ -121.131471040003021, 39.283581611780221 ], [ -121.132010028482995, 39.283581612273174 ], [ -121.132010028861401, 39.282952790855411 ] ] ] } },
{ "type": "Feature", "properties": { "csb_id": "061825012215204", "acres": 3.1040927900345898, "geoid": "06057" }, "geometry": { "type": "Polygon", "coordinates": [ [ [ -121.119433614372269, 39.278461214623754 ], [ -121.119433614633692, 39.278640877765504 ], [ -121.120601424577245, 39.278640877646197 ], [ -121.120601424543551, 39.279269698219288 ], [ -121.120331930218285, 39.279269698180642 ], [ -121.120331930179489, 39.279000203591067 ], [ -121.118535299708896, 39.279000203712677 ], [ -121.118535299764815, 39.279539192929413 ], [ -121.118355636957531, 39.27953919322524 ], [ -121.118355635902958, 39.279090035823387 ], [ -121.118175973072923, 39.279000203883221 ], [ -121.118086141516244, 39.278461215044729 ], [ -121.119433614372269, 39.278461214623754 ] ] ] } },
{ "type": "Feature", "properties": { "csb_id": "061825012215208", "acres": 3.8777246375277601, "geoid": "06057" }, "geometry": { "type": "Polygon", "coordinates": [ [ [ -121.121140414135979, 39.279090035029775 ], [ -121.120781087997358, 39.279090035122913 ], [ -121.120781087447654, 39.279359530184713 ], [ -121.118714962139165, 39.279359530520452 ], [ -121.118714962465546, 39.279988350525635 ], [ -121.118355636882754, 39.279988350910045 ], [ -121.118535299708896, 39.279000203712677 ], [ -121.120331930179489, 39.279000203591067 ], [ -121.120331930218285, 39.279269698180642 ], [ -121.120601424543551, 39.279269698219288 ], [ -121.120601424577245, 39.278640877646197 ], [ -121.119433614633692, 39.278640877765504 ], [ -121.119433614372269, 39.278461214623754 ], [ -121.119882772084239, 39.27846121492361 ], [ -121.119882771898858, 39.278101889059094 ], [ -121.120242098173634, 39.278101888668218 ], [ -121.121140413973293, 39.278730709666355 ], [ -121.121140414135979, 39.279090035029775 ] ] ] } },
{ "type": "Feature", "properties": { "csb_id": "061825012215227", "acres": 5.5683393735252196, "geoid": "06057" }, "geometry": { "type": "Polygon", "coordinates": [ [ [ -121.125093000845013, 39.276934079275158 ], [ -121.125991316836902, 39.276934078726214 ], [ -121.125991316063491, 39.277203573068562 ], [ -121.126889631889327, 39.277203573238133 ], [ -121.126889631923916, 39.277562899755274 ], [ -121.126260811290237, 39.277562899765961 ], [ -121.126260810923171, 39.278461214682672 ], [ -121.125991316453579, 39.27846121459271 ], [ -121.125991315693895, 39.277832393898414 ], [ -121.125631989769914, 39.277832394432615 ], [ -121.125362496267698, 39.278101888874076 ], [ -121.125362495812524, 39.278461214933152 ], [ -121.125631989670609, 39.278461214660595 ], [ -121.125631989877007, 39.279090035847496 ], [ -121.125362495939342, 39.279090035653809 ], [ -121.124733674332404, 39.278730709289839 ], [ -121.124733674657236, 39.277562899424971 ], [ -121.12509300089225, 39.27756289929232 ], [ -121.125093000845013, 39.276934079275158 ] ] ] } },
{ "type": "Feature", "properties": { "csb_id": "061825012215298", "acres": 3.64870944881919, "geoid": "06057" }, "geometry": { "type": "Polygon", "coordinates": [ [ [ -121.117816647570308, 39.275137448487001 ], [ -121.117816647676946, 39.274778122197922 ], [ -121.118355636633552, 39.274508627285819 ], [ -121.118714962224942, 39.273879806690978 ], [ -121.119343783423204, 39.273879806618275 ], [ -121.119343783500682, 39.274239132504071 ], [ -121.118984456872838, 39.274239133406041 ], [ -121.118984456724135, 39.274508627608142 ], [ -121.119882772210119, 39.274508628020854 ], [ -121.1198827728374, 39.27477812184577 ], [ -121.119343782793251, 39.274778122486644 ], [ -121.119343782928794, 39.275406942946603 ], [ -121.11898445728697, 39.275406942449941 ], [ -121.118984457435673, 39.275137448188296 ], [ -121.117816647570308, 39.275137448487001 ] ] ] } },
{ "type": "Feature", "properties": { "csb_id": "061825012215306", "acres": 7.0045409323101397, "geoid": "06057" }, "geometry": { "type": "Polygon", "coordinates": [ [ [ -121.117816647676946, 39.274778122197922 ], [ -121.117457320728775, 39.274778121907936 ], [ -121.117816647570308, 39.275137448487001 ], [ -121.117187825850735, 39.275406942652687 ], [ -121.117187826422111, 39.275137447833991 ], [ -121.116918332050545, 39.275137448215538 ], [ -121.116918331606442, 39.275406942801112 ], [ -121.117187825850735, 39.275406942652687 ], [ -121.117187826878038, 39.276035763786723 ], [ -121.11691833142487, 39.276035763702083 ], [ -121.116559005500179, 39.275676437036886 ], [ -121.116559005672713, 39.275137448547056 ], [ -121.115930185534509, 39.275137447809392 ], [ -121.115601036929561, 39.274478449750902 ], [ -121.115660690151572, 39.273879806983139 ], [ -121.115930185306937, 39.273610311787266 ], [ -121.116289511195092, 39.273610312731876 ], [ -121.116289510671422, 39.273879806750116 ], [ -121.11718782693174, 39.273879806336225 ], [ -121.117187826373822, 39.273610311851769 ], [ -121.117457321630354, 39.27361031230582 ], [ -121.117457321302268, 39.274239133000044 ], [ -121.11781664703949, 39.274508627187799 ], [ -121.117816647676946, 39.274778122197922 ] ], [ [ -121.115930185374111, 39.274239133362649 ], [ -121.115930185348105, 39.274778121662372 ], [ -121.11628951076824, 39.274778122049781 ], [ -121.116289511509933, 39.274239133050884 ], [ -121.115930185374111, 39.274239133362649 ] ] ] } },
{ "type": "Feature", "properties": { "csb_id": "061825012215428", "acres": 3.3713296932947201, "geoid": "06057" }, "geometry": { "type": "Polygon", "coordinates": [ [ [ -121.103263939971484, 39.268130589248727 ], [ -121.10443174985987, 39.268130589275913 ], [ -121.104431749262005, 39.268400084018069 ], [ -121.104162254548285, 39.268759409835674 ], [ -121.104162255535812, 39.269388230667019 ], [ -121.103533433805325, 39.269388230674231 ], [ -121.103533434335148, 39.26902890462631 ], [ -121.102904613250459, 39.269028904742655 ], [ -121.102904613593296, 39.268489914939131 ], [ -121.103263939971484, 39.268130589248727 ] ] ] } },
{ "type": "Feature", "properties": { "csb_id": "061825012215451", "acres": 2.7129044395054001, "geoid": "06057" }, "geometry": { "type": "Polygon", "coordinates": [ [ [ -121.113325070555561, 39.267232273966613 ], [ -121.113953891318289, 39.267411937162834 ], [ -121.113953890919547, 39.26866957800609 ], [ -121.113684397234195, 39.268939072421581 ], [ -121.113235239288699, 39.268759409804197 ], [ -121.113055576002139, 39.26840008354025 ], [ -121.113055576035137, 39.268130588768841 ], [ -121.113325070898526, 39.268040757761696 ], [ -121.113325070555561, 39.267232273966613 ] ] ] } },
{ "type": "Feature", "properties": { "csb_id": "061825012215460", "acres": 6.6108153353842702, "geoid": "06057" }, "geometry": { "type": "Polygon", "coordinates": [ [ [ -121.103802929107189, 39.267771262891138 ], [ -121.103294117973633, 39.267801440910837 ], [ -121.102006298634208, 39.268759409257392 ], [ -121.102006298663312, 39.26902890389983 ], [ -121.102365624564001, 39.269388229929753 ], [ -121.103533433805325, 39.269388230674231 ], [ -121.103533434384431, 39.26965772456721 ], [ -121.103263939157998, 39.269927219501433 ], [ -121.102904613777525, 39.26992721978047 ], [ -121.102904614101661, 39.269657725241402 ], [ -121.101736804091061, 39.269657725260643 ], [ -121.101736803420778, 39.269028904041647 ], [ -121.101107983131769, 39.269028904169467 ], [ -121.101107982749411, 39.268759409364577 ], [ -121.102006298495283, 39.2681305894329 ], [ -121.102006297745504, 39.267501767982218 ], [ -121.102365624486964, 39.266962778827342 ], [ -121.102635118915629, 39.266962779605898 ], [ -121.102904614149395, 39.267232273930517 ], [ -121.102904613825274, 39.267501768310133 ], [ -121.103802928349907, 39.267501768027842 ], [ -121.103802929107189, 39.267771262891138 ] ] ] } },
{ "type": "Feature", "properties": { "csb_id": "061825012215557", "acres": 3.8213146903372799, "geoid": "06057" }, "geometry": { "type": "Polygon", "coordinates": [ [ [ -121.166325672724554, 39.261483056246689 ], [ -121.168391797994573, 39.261483055957164 ], [ -121.168391797679703, 39.261752550338755 ], [ -121.168122302690151, 39.262111876600606 ], [ -121.167493482793148, 39.262381371119801 ], [ -121.166595166919336, 39.262381371650768 ], [ -121.166325672704176, 39.262111876648433 ], [ -121.166325672724554, 39.261483056246689 ] ] ] } },
{ "type": "Feature", "properties": { "csb_id": "061825012215577", "acres": 3.2672500839391998, "geoid": "06057" }, "geometry": { "type": "Polygon", "coordinates": [ [ [ -121.199653170071272, 39.260854235222787 ], [ -121.199653169376617, 39.260584741087769 ], [ -121.200551484855822, 39.260584740809897 ], [ -121.200551485273365, 39.26148305551154 ], [ -121.201449799871568, 39.261483055867579 ], [ -121.201180305843565, 39.262381371393715 ], [ -121.20082097906058, 39.26238137089419 ], [ -121.1999226642412, 39.261752550467179 ], [ -121.199922663673462, 39.261483056039829 ], [ -121.200281989599247, 39.261483055611755 ], [ -121.200281990731852, 39.260854235119389 ], [ -121.199653170071272, 39.260854235222787 ] ] ] } },
{ "type": "Feature", "properties": { "csb_id": "061825012215585", "acres": 3.8981909521765301, "geoid": "06057" }, "geometry": { "type": "Polygon", "coordinates": [ [ [ -121.165247695043107, 39.260225415170567 ], [ -121.164708702997117, 39.25995592159174 ], [ -121.164583868908664, 39.25944754742973 ], [ -121.164943194830443, 39.25891478566863 ], [ -121.165517188163776, 39.258608448039396 ], [ -121.165696851843094, 39.259237268094594 ], [ -121.166146009902164, 39.25923726736017 ], [ -121.166146008935655, 39.259866089143337 ], [ -121.165786683374336, 39.259866088847559 ], [ -121.165517188639541, 39.260135582605017 ], [ -121.165517189220822, 39.260494909185503 ], [ -121.165247694118477, 39.260494909951952 ], [ -121.165247695043107, 39.260225415170567 ] ] ] } },
{ "type": "Feature", "properties": { "csb_id": "061825012215610", "acres": 6.2193427475241796, "geoid": "06057" }, "geometry": { "type": "Polygon", "coordinates": [ [ [ -121.11413355426221, 39.258698278464038 ], [ -121.114492880422389, 39.258698278519752 ], [ -121.114492880424606, 39.260854235475634 ], [ -121.115031869993828, 39.260854235470255 ], [ -121.115031869922305, 39.261123729441621 ], [ -121.114133554937837, 39.261123730039635 ], [ -121.114133555038933, 39.261483055942961 ], [ -121.113504734205179, 39.261483055540204 ], [ -121.112965744399503, 39.261123729763312 ], [ -121.112965744766413, 39.260854235467818 ], [ -121.113235239387649, 39.260584740987426 ], [ -121.113504733947451, 39.260584741063369 ], [ -121.11350473353086, 39.25932709891606 ], [ -121.113864059938706, 39.259327099529067 ], [ -121.113864059833062, 39.259686425043483 ], [ -121.114133554228047, 39.259686425876879 ], [ -121.11413355426221, 39.258698278464038 ] ] ] } },
{ "type": "Feature", "properties": { "csb_id": "061825012215675", "acres": 11.3789451953159, "geoid": "06057" }, "geometry": { "type": "Polygon", "coordinates": [ [ [ -121.16731381922321, 39.256811816520212 ], [ -121.16569685219828, 39.256632153065766 ], [ -121.165696852157396, 39.257260974381836 ], [ -121.165517188600532, 39.257260973825154 ], [ -121.16551718895019, 39.256811816424815 ], [ -121.165247693897427, 39.256811816315391 ], [ -121.165247693733079, 39.255644006387463 ], [ -121.164888368472916, 39.255644006842822 ], [ -121.164888368444593, 39.25528468028746 ], [ -121.165247694487547, 39.255284680226197 ], [ -121.165517188607737, 39.255015185818927 ], [ -121.16551718907813, 39.254386365075149 ], [ -121.1661460098303, 39.254386364780764 ], [ -121.16614600902092, 39.255284680741845 ], [ -121.166595167285024, 39.255644006213181 ], [ -121.167762977058999, 39.255644006114217 ], [ -121.167942639541309, 39.255913501039899 ], [ -121.168571461103255, 39.255913501244194 ], [ -121.168571460327428, 39.256182995497909 ], [ -121.168212134978717, 39.256182995761485 ], [ -121.16821213459896, 39.256811816046472 ], [ -121.168391797138412, 39.25681181639456 ], [ -121.168391797503034, 39.2571711429065 ], [ -121.167673145830548, 39.257171142309225 ], [ -121.16731381922321, 39.256811816520212 ] ] ] } },
{ "type": "Feature", "properties": { "csb_id": "061825012215676", "acres": 9.2562445398822195, "geoid": "06057" }, "geometry": { "type": "Polygon", "coordinates": [ [ [ -121.16461887340877, 39.259147436402841 ], [ -121.164259546925834, 39.257710131638092 ], [ -121.165247694476022, 39.257440636724468 ], [ -121.165247694271784, 39.257171142374801 ], [ -121.164618873928376, 39.256542322013743 ], [ -121.164259547692751, 39.255913501315902 ], [ -121.16425954837716, 39.254386365219659 ], [ -121.16551718907813, 39.254386365075149 ], [ -121.165517188607737, 39.255015185818927 ], [ -121.165247694487547, 39.255284680226197 ], [ -121.164888368444593, 39.25528468028746 ], [ -121.164888368472916, 39.255644006842822 ], [ -121.165247693733079, 39.255644006387463 ], [ -121.165247693897427, 39.256811816315391 ], [ -121.16551718895019, 39.256811816424815 ], [ -121.165517188600532, 39.257260973825154 ], [ -121.165337525349798, 39.257260973870473 ], [ -121.165337525887978, 39.257530468225937 ], [ -121.16551718867774, 39.257530468414124 ], [ -121.165517188909334, 39.258338952285861 ], [ -121.164873104181595, 39.258769951147599 ], [ -121.16461887340877, 39.259147436402841 ] ] ] } },
{ "type": "Feature", "properties": { "csb_id": "061825012215699", "acres": 3.65945170676983, "geoid": "06057" }, "geometry": { "type": "Polygon", "coordinates": [ [ [ -121.120242098189337, 39.254835522775409 ], [ -121.120242098998801, 39.254476196554023 ], [ -121.119882772366267, 39.254476197163882 ], [ -121.119882771951453, 39.254206701849476 ], [ -121.120242098363292, 39.253847375933624 ], [ -121.120511592663902, 39.253847376070119 ], [ -121.120511593190116, 39.254206702237376 ], [ -121.121140414216569, 39.254206702267929 ], [ -121.121140414266151, 39.253847376262563 ], [ -121.12176923452725, 39.253847376330754 ], [ -121.121769233901858, 39.254206702174272 ], [ -121.122038729241126, 39.254476197047481 ], [ -121.122038729561041, 39.255105017348093 ], [ -121.121409908857899, 39.255105017403473 ], [ -121.121140414129798, 39.254835522851756 ], [ -121.121140414179393, 39.254476196792268 ], [ -121.120511593073388, 39.254476196295457 ], [ -121.120511592470649, 39.254835522749971 ], [ -121.120242098189337, 39.254835522775409 ] ] ] } },
{ "type": "Feature", "properties": { "csb_id": "061825012215725", "acres": 2.9818138351113701, "geoid": "06057" }, "geometry": { "type": "Polygon", "coordinates": [ [ [ -121.145664420775731, 39.252949061190463 ], [ -121.146562735891663, 39.252949060929012 ], [ -121.146492205153763, 39.254615681523994 ], [ -121.146293241614799, 39.254655860155886 ], [ -121.145664420728991, 39.254206702122019 ], [ -121.145664421504975, 39.253847375813272 ], [ -121.145933916086364, 39.253847376356113 ], [ -121.145933915658304, 39.253308386403624 ], [ -121.145664421128615, 39.253308387188646 ], [ -121.145664420775731, 39.252949061190463 ] ] ] } },
{ "type": "Feature", "properties": { "csb_id": "061825012215746", "acres": 11.9618881171839, "geoid": "06057" }, "geometry": { "type": "Polygon", "coordinates": [ [ [ -121.154557742335896, 39.255284680484721 ], [ -121.154557741816589, 39.255105017071237 ], [ -121.153569595448189, 39.255105017533985 ], [ -121.153569596064713, 39.254206702449927 ], [ -121.153839090409235, 39.254206701931103 ], [ -121.153839090209729, 39.252949060390932 ], [ -121.153569595718764, 39.252949060982218 ], [ -121.153569594920469, 39.25267956585455 ], [ -121.153839089479192, 39.252410071408491 ], [ -121.155366226333172, 39.252410071354717 ], [ -121.155545889422839, 39.252859229163562 ], [ -121.155545888987049, 39.25510501784872 ], [ -121.154557742335896, 39.255284680484721 ] ] ] } },
{ "type": "Feature", "properties": { "csb_id": "061825012216264", "acres": 3.3642428476671098, "geoid": "06057" }, "geometry": { "type": "Polygon", "coordinates": [ [ [ -121.11655900611369, 39.231119999563575 ], [ -121.115481027621456, 39.231119998995261 ], [ -121.115570858986359, 39.230581010611324 ], [ -121.116559006405339, 39.230581010318062 ], [ -121.116559006130387, 39.229952189589675 ], [ -121.1169183315628, 39.229952189434648 ], [ -121.116918332035226, 39.230221683695675 ], [ -121.117816647095722, 39.230221683777529 ], [ -121.117816647507127, 39.230850504920383 ], [ -121.117187826630996, 39.230850504948528 ], [ -121.117187826285686, 39.230581010415193 ], [ -121.116918332390739, 39.230581009767896 ], [ -121.116918332040015, 39.2308505051625 ], [ -121.11655900611369, 39.231119999563575 ] ] ] } },
{ "type": "Feature", "properties": { "csb_id": "061825012216275", "acres": 2.6823869785303902, "geoid": "06057" }, "geometry": { "type": "Polygon", "coordinates": [ [ [ -121.115391195440139, 39.229323368654597 ], [ -121.115660690516961, 39.229323368624556 ], [ -121.115660690967786, 39.230042020902509 ], [ -121.11476237511927, 39.230042020679946 ], [ -121.115031869430851, 39.230581010418668 ], [ -121.115391196451782, 39.230581010363842 ], [ -121.115031869686291, 39.231119999056041 ], [ -121.114762375620955, 39.231119998910692 ], [ -121.114762374649089, 39.230850504502534 ], [ -121.114492880791587, 39.230581010476968 ], [ -121.113864059544014, 39.230581009994587 ], [ -121.113864059862067, 39.230221684135365 ], [ -121.115391195611579, 39.229682694976198 ], [ -121.115391195440139, 39.229323368654597 ] ] ] } },
{ "type": "Feature", "properties": { "csb_id": "061825012216357", "acres": 3.1350558996871198, "geoid": "06057" }, "geometry": { "type": "Polygon", "coordinates": [ [ [ -121.145035600199961, 39.225370781369342 ], [ -121.14539492601601, 39.225370781164472 ], [ -121.145933915961095, 39.225999602421616 ], [ -121.145933915352359, 39.226269096756226 ], [ -121.145394926867354, 39.226897917729531 ], [ -121.144496611303182, 39.226897917220171 ], [ -121.144496611304703, 39.226628423151958 ], [ -121.144766106267667, 39.2262690971192 ], [ -121.145035600405834, 39.226269096995878 ], [ -121.145035600199961, 39.225370781369342 ] ] ] } },
{ "type": "Feature", "properties": { "csb_id": "061825012216408", "acres": 14.9778936798389, "geoid": "06057" }, "geometry": { "type": "Polygon", "coordinates": [ [ [ -121.102365624751329, 39.225101286432142 ], [ -121.102006298322834, 39.225101286734805 ], [ -121.102006298506623, 39.224831792081268 ], [ -121.101377477100272, 39.22483179247908 ], [ -121.101377476837072, 39.225101286666721 ], [ -121.101107982908317, 39.225101286516718 ], [ -121.101107983077526, 39.225370781349447 ], [ -121.100838488452595, 39.225370781477466 ], [ -121.100838487993698, 39.225730107504745 ], [ -121.099940172662329, 39.225730107404374 ], [ -121.099940173311694, 39.225999602205739 ], [ -121.09931135251945, 39.225999601969086 ], [ -121.099311352592551, 39.225370781281349 ], [ -121.098682531396449, 39.225370781850678 ], [ -121.098682532062043, 39.22483179201766 ], [ -121.098952026849076, 39.224831792411727 ], [ -121.098952025581482, 39.224472465971182 ], [ -121.097784216333679, 39.224472466174156 ], [ -121.097514721392869, 39.224202971503573 ], [ -121.09751472129814, 39.223843645418143 ], [ -121.098413037205546, 39.223843645134956 ], [ -121.09895202584427, 39.223574151139836 ], [ -121.098952026304261, 39.223304656093369 ], [ -121.099940173376297, 39.223304656363581 ], [ -121.100209667312413, 39.223574150804872 ], [ -121.100209667834591, 39.223843645705493 ], [ -121.099940173241322, 39.223843645053933 ], [ -121.099940173456531, 39.224202971745889 ], [ -121.100479162445851, 39.224202971208967 ], [ -121.100479162032855, 39.22357415064014 ], [ -121.101107983210539, 39.22357415072684 ], [ -121.10110798337972, 39.22384364546501 ], [ -121.100838488481244, 39.22384364589638 ], [ -121.100838488022362, 39.224202971797467 ], [ -121.10200629818307, 39.224202971443212 ], [ -121.102635118944974, 39.224472466558012 ], [ -121.102635118876805, 39.224831792419053 ], [ -121.102365623905172, 39.224831792639868 ], [ -121.102365624751329, 39.225101286432142 ] ], [ [ -121.099940172977313, 39.224472466685469 ], [ -121.099940172752326, 39.225370781447566 ], [ -121.100209667895371, 39.225370781308214 ], [ -121.100209667156221, 39.224831792195765 ], [ -121.100479161730277, 39.22483179210149 ], [ -121.100479162840841, 39.224472466381435 ], [ -121.099940172977313, 39.224472466685469 ] ] ] } },
{ "type": "Feature", "properties": { "csb_id": "061825012216413", "acres": 4.6836110436036398, "geoid": "06057" }, "geometry": { "type": "Polygon", "coordinates": [ [ [ -121.096257079798136, 39.223843645304882 ], [ -121.095628260314783, 39.223843645769286 ], [ -121.095628260321945, 39.222945330373243 ], [ -121.095987585247087, 39.222945329944359 ], [ -121.095987585578598, 39.223574150720971 ], [ -121.096257080938074, 39.22357415124366 ], [ -121.096257080644349, 39.223304656570704 ], [ -121.09751472243714, 39.223304656543391 ], [ -121.09751472129814, 39.223843645418143 ], [ -121.097155395216149, 39.223843645877096 ], [ -121.096975732985285, 39.224202971104482 ], [ -121.096975732238562, 39.225011455480804 ], [ -121.097335059286806, 39.225011455610613 ], [ -121.097335059099819, 39.225640276430781 ], [ -121.096975732627101, 39.225640276463622 ], [ -121.096706238015415, 39.225280950360535 ], [ -121.096706237855514, 39.224831792071427 ], [ -121.096257079798136, 39.223843645304882 ] ] ] } },
{ "type": "Feature", "properties": { "csb_id": "061825012216476", "acres": 4.6360408634235197, "geoid": "06057" }, "geometry": { "type": "Polygon", "coordinates": [ [ [ -121.245107923259994, 39.219980889616828 ], [ -121.245107923046973, 39.220250384045166 ], [ -121.245736743836986, 39.220250384664922 ], [ -121.245736743397401, 39.220519878717376 ], [ -121.245377417229619, 39.220519878607348 ], [ -121.24510792275457, 39.220879205016359 ], [ -121.245107922328529, 39.221418194000279 ], [ -121.244479102776154, 39.22177752025496 ], [ -121.24420960801254, 39.221777520073474 ], [ -121.244209607889815, 39.221148699751751 ], [ -121.244479102559623, 39.220879204588663 ], [ -121.244479102370136, 39.22051987876506 ], [ -121.243850281698982, 39.220519878681458 ], [ -121.243850281765745, 39.220250384312557 ], [ -121.244209607179741, 39.219980889469909 ], [ -121.24420960719732, 39.219621563954313 ], [ -121.24483842776938, 39.219621563400665 ], [ -121.244838428610919, 39.219980889384757 ], [ -121.245107923259994, 39.219980889616828 ] ] ] } },
{ "type": "Feature", "properties": { "csb_id": "061825012216483", "acres": 2.6573904453380299, "geoid": "06057" }, "geometry": { "type": "Polygon", "coordinates": [ [ [ -121.246006238666254, 39.220250384047873 ], [ -121.245736743836986, 39.220250384664922 ], [ -121.245736743969658, 39.219980889768131 ], [ -121.245107923259994, 39.219980889616828 ], [ -121.245107923339404, 39.219621563164281 ], [ -121.246006238552695, 39.219621563483429 ], [ -121.246006237990954, 39.219352069486284 ], [ -121.247263879879029, 39.219352069048227 ], [ -121.247263879166539, 39.219621563355751 ], [ -121.246904553662574, 39.219980889326102 ], [ -121.246006238104542, 39.219980890012039 ], [ -121.246006238666254, 39.220250384047873 ] ] ] } },
{ "type": "Feature", "properties": { "csb_id": "061825012216643", "acres": 3.56591755818225, "geoid": "06057" }, "geometry": { "type": "Polygon", "coordinates": [ [ [ -121.091675672007241, 39.211626558063166 ], [ -121.091585841347637, 39.211985883907474 ], [ -121.091226514595363, 39.211985884137825 ], [ -121.090957020629048, 39.211626557376881 ], [ -121.090957020446069, 39.211357062856052 ], [ -121.091585841142276, 39.211357063395226 ], [ -121.091675672248556, 39.211087568735039 ], [ -121.091585840631851, 39.210728242110839 ], [ -121.091136683238631, 39.210728242010063 ], [ -121.091136683529072, 39.210279084839229 ], [ -121.09167567189381, 39.210279084551388 ], [ -121.092124829558813, 39.210728242299616 ], [ -121.092484156215875, 39.211985883368854 ], [ -121.092034998629217, 39.211985884017757 ], [ -121.091675672007241, 39.211626558063166 ] ], [ [ -121.092034997915491, 39.211357062806918 ], [ -121.092034997959928, 39.211177399833055 ], [ -121.091855335000218, 39.211177399666902 ], [ -121.091855335944217, 39.211357063269254 ], [ -121.092034997915491, 39.211357062806918 ] ] ] } },
{ "type": "Feature", "properties": { "csb_id": "061825012217053", "acres": 3.7486006499153999, "geoid": "06057" }, "geometry": { "type": "Polygon", "coordinates": [ [ [ -121.218427959537266, 39.19114496889226 ], [ -121.219056780148748, 39.191144968729269 ], [ -121.219056779621539, 39.191414463585559 ], [ -121.219685600104967, 39.191414463530649 ], [ -121.219685600858497, 39.191144969067295 ], [ -121.220583915757402, 39.191144968745363 ], [ -121.220583915087573, 39.19177378964968 ], [ -121.218427959452058, 39.191773789496466 ], [ -121.218427959151157, 39.192043284782947 ], [ -121.217799137925383, 39.19204328490401 ], [ -121.21779913833646, 39.191414463476626 ], [ -121.218427959236365, 39.191414464141552 ], [ -121.218427959537266, 39.19114496889226 ] ] ] } },
{ "type": "Feature", "properties": { "csb_id": "061825012217149", "acres": 3.18456003055383, "geoid": "06057" }, "geometry": { "type": "Polygon", "coordinates": [ [ [ -121.225704313059296, 39.186922887308107 ], [ -121.22633313321974, 39.186922887263165 ], [ -121.226961954230248, 39.187192381682685 ], [ -121.226961954160743, 39.187461876757105 ], [ -121.22633313292026, 39.187461876459949 ], [ -121.225973806902672, 39.187821202868641 ], [ -121.225973807673583, 39.188090697043819 ], [ -121.22633313359627, 39.188090696748503 ], [ -121.226333133600974, 39.188450023538174 ], [ -121.22597380744088, 39.188989012273559 ], [ -121.225704313069983, 39.188989012031477 ], [ -121.225704313256216, 39.188090697503874 ], [ -121.225434818838849, 39.188090697380453 ], [ -121.22543481863552, 39.187821202578462 ], [ -121.225704312905975, 39.187461876429616 ], [ -121.225973807549678, 39.187461876362335 ], [ -121.2259738079063, 39.187192381990123 ], [ -121.225704313135893, 39.187192382291464 ], [ -121.225704313059296, 39.186922887308107 ] ] ] } },
{ "type": "Feature", "properties": { "csb_id": "061825012217285", "acres": 8.9808506561628505, "geoid": "06057" }, "geometry": { "type": "Polygon", "coordinates": [ [ [ -121.173602026737314, 39.180814343425141 ], [ -121.170996911433349, 39.180724511861769 ], [ -121.17099691238792, 39.18108383838527 ], [ -121.170368090671076, 39.181083837762678 ], [ -121.169649438979803, 39.180185523078265 ], [ -121.168391798020934, 39.179826196712497 ], [ -121.169110449660423, 39.179197376287071 ], [ -121.170368091574758, 39.179197375985744 ], [ -121.170368091251817, 39.18009569099965 ], [ -121.170996912432813, 39.18045501755666 ], [ -121.171535901256917, 39.180455017487823 ], [ -121.171535901382512, 39.180185522964798 ], [ -121.17171556422791, 39.180095690763174 ], [ -121.172074890650677, 39.180095690886496 ], [ -121.172164721615573, 39.180455016909129 ], [ -121.17279354237597, 39.180455017692097 ], [ -121.172793542158544, 39.180095691071045 ], [ -121.173871520892661, 39.180095691119455 ], [ -121.173871521325239, 39.180455016952656 ], [ -121.173602026737314, 39.180814343425141 ] ] ] } },
{ "type": "Feature", "properties": { "csb_id": "061825012217323", "acres": 22.333075636372701, "geoid": "06057" }, "geometry": { "type": "Polygon", "coordinates": [ [ [ -121.160396791575465, 39.18009569090416 ], [ -121.159139150644705, 39.180455017078742 ], [ -121.157971340047467, 39.178927880939931 ], [ -121.158689992184108, 39.17838889208506 ], [ -121.158689992934541, 39.178029566017635 ], [ -121.158869655369756, 39.178029566551309 ], [ -121.158869656177586, 39.177400745551431 ], [ -121.159408644757008, 39.177400745289894 ], [ -121.159408644583365, 39.176771924535736 ], [ -121.159139150067702, 39.176771924564072 ], [ -121.159139150013885, 39.17650242965577 ], [ -121.160037465208404, 39.176502430269267 ], [ -121.160037465409488, 39.177400744982542 ], [ -121.160666286157152, 39.177400745175682 ], [ -121.16066628668213, 39.177131250786012 ], [ -121.16093578119397, 39.177131250500793 ], [ -121.161295107376844, 39.177670239646993 ], [ -121.161834095988226, 39.177670240381232 ], [ -121.161834095559612, 39.17740074527547 ], [ -121.162193422629088, 39.177400745149221 ], [ -121.162642579682924, 39.178299060884264 ], [ -121.162642580364903, 39.178658387030019 ], [ -121.162193421967515, 39.178927881563446 ], [ -121.160845949111661, 39.179017712966861 ], [ -121.160666286549841, 39.179197375574297 ], [ -121.160666286554417, 39.179826196174375 ], [ -121.160396791575465, 39.18009569090416 ] ] ] } },
{ "type": "Feature", "properties": { "csb_id": "061825012217336", "acres": 20.487125381695201, "geoid": "06057" }, "geometry": { "type": "Polygon", "coordinates": [ [ [ -121.171266406808655, 39.179556702350688 ], [ -121.171176575074838, 39.179287207829866 ], [ -121.171266406809934, 39.179826196603642 ], [ -121.17063758605164, 39.179826196627957 ], [ -121.170637585824352, 39.179556701981014 ], [ -121.170368091671122, 39.179556701923694 ], [ -121.170368091574758, 39.179197375985744 ], [ -121.169469775954354, 39.179197375642197 ], [ -121.169739270018312, 39.178299060528204 ], [ -121.169739271327572, 39.177670240223129 ], [ -121.170098596781415, 39.177131250850714 ], [ -121.170817248607179, 39.176771924523969 ], [ -121.170996911483499, 39.176771924377306 ], [ -121.171266406701278, 39.177131251099972 ], [ -121.171266406430377, 39.177760071084435 ], [ -121.171895227438753, 39.177490576901413 ], [ -121.173063036970348, 39.177670239726766 ], [ -121.173422363315922, 39.178029566157875 ], [ -121.173422363124018, 39.178299061096091 ], [ -121.173691858436854, 39.178299060727284 ], [ -121.173691857891271, 39.180095690964407 ], [ -121.173063037587326, 39.180095690648621 ], [ -121.173063037164212, 39.17982619693435 ], [ -121.172524048002231, 39.179826196334545 ], [ -121.172344385342797, 39.179287206925757 ], [ -121.172164722166855, 39.179197375842662 ], [ -121.171895226996909, 39.179197375881557 ], [ -121.171895227582922, 39.179556702359825 ], [ -121.171266406808655, 39.179556702350688 ] ] ] } },
{ "type": "Feature", "properties": { "csb_id": "061825012217342", "acres": 13.342689173812801, "geoid": "06057" }, "geometry": { "type": "Polygon", "coordinates": [ [ [ -121.156444204034187, 39.178029566483303 ], [ -121.156444204535163, 39.178299060240164 ], [ -121.155815383952088, 39.178299061102017 ], [ -121.155545889045911, 39.17802956648098 ], [ -121.155545888208835, 39.176771925904418 ], [ -121.155815383852001, 39.176232935769363 ], [ -121.156084877303627, 39.176232935349717 ], [ -121.156623868422344, 39.176861757777672 ], [ -121.157342519522103, 39.176771925644594 ], [ -121.157342520195897, 39.176502431042451 ], [ -121.157971340156692, 39.176502430463103 ], [ -121.157971339623103, 39.176232935643078 ], [ -121.159139150571477, 39.176232936485377 ], [ -121.159139150719184, 39.177131251628964 ], [ -121.159408645135798, 39.177131250972934 ], [ -121.159408644757008, 39.177400745289894 ], [ -121.158869656177586, 39.177400745551431 ], [ -121.158869656052602, 39.177670239417111 ], [ -121.157971340298147, 39.177400745440657 ], [ -121.157971341252946, 39.178658387468289 ], [ -121.158240835607018, 39.178658386830506 ], [ -121.157971340047467, 39.178927880939931 ], [ -121.157612014021254, 39.178748218069941 ], [ -121.157342519728843, 39.178029565401303 ], [ -121.156444204034187, 39.178029566483303 ] ] ] } },
{ "type": "Feature", "properties": { "csb_id": "061825012217345", "acres": 13.3523968398056, "geoid": "06057" }, "geometry": { "type": "Polygon", "coordinates": [ [ [ -121.171895227438753, 39.177490576901413 ], [ -121.171266406430377, 39.177760071084435 ], [ -121.171266406701278, 39.177131251099972 ], [ -121.170996911483499, 39.176771924377306 ], [ -121.170637585730844, 39.176771924411277 ], [ -121.17063758550357, 39.176502429941401 ], [ -121.171176575024404, 39.176232935834967 ], [ -121.17117657543551, 39.17587360921943 ], [ -121.171895226951975, 39.175873609627502 ], [ -121.171895227412435, 39.175244788729657 ], [ -121.172164722399444, 39.174975293782758 ], [ -121.172524048163297, 39.174975293965367 ], [ -121.172524048324249, 39.175244788887383 ], [ -121.172793542443827, 39.175244788361695 ], [ -121.172793542661253, 39.175604114608035 ], [ -121.173691857515848, 39.175604115184377 ], [ -121.173691858018799, 39.175873609121155 ], [ -121.173871521634027, 39.175873609757254 ], [ -121.173871521329048, 39.17632276682037 ], [ -121.173242700113377, 39.177221082268339 ], [ -121.17324270038192, 39.177490576926196 ], [ -121.173691857443814, 39.17749057658687 ], [ -121.173691858436854, 39.178299060727284 ], [ -121.173422363124018, 39.178299061096091 ], [ -121.173422363315922, 39.178029566157875 ], [ -121.173063036970348, 39.177670239726766 ], [ -121.171895227438753, 39.177490576901413 ] ] ] } },
{ "type": "Feature", "properties": { "csb_id": "061825012217382", "acres": 13.0942401778542, "geoid": "06057" }, "geometry": { "type": "Polygon", "coordinates": [ [ [ -121.163361230578161, 39.176771924599606 ], [ -121.163361230728327, 39.176502430100683 ], [ -121.163091736717078, 39.1765024304718 ], [ -121.163091737821418, 39.176771924503768 ], [ -121.163361230578161, 39.176771924599606 ], [ -121.163361231435402, 39.177131251327964 ], [ -121.162912074992903, 39.17713125076606 ], [ -121.162462915783919, 39.176502430318301 ], [ -121.161834094946087, 39.176502430665316 ], [ -121.161295107185254, 39.176771924429971 ], [ -121.160666286152548, 39.176771924903726 ], [ -121.16066628668213, 39.177131250786012 ], [ -121.160396792170303, 39.177131250487605 ], [ -121.160396792077961, 39.177400745504997 ], [ -121.160037465409488, 39.177400744982542 ], [ -121.160037465208404, 39.176502430269267 ], [ -121.160845949781518, 39.176592261850182 ], [ -121.160666285769153, 39.176232935584999 ], [ -121.160845948070957, 39.175873609963013 ], [ -121.161115444339444, 39.175963440706759 ], [ -121.161115443841297, 39.175604114447601 ], [ -121.162193420705904, 39.175604115328802 ], [ -121.162193422163057, 39.175873609469505 ], [ -121.162462916916368, 39.175873609482231 ], [ -121.162462916708847, 39.176232935440858 ], [ -121.163091736089797, 39.175873609796383 ], [ -121.163091736934902, 39.175604114488173 ], [ -121.162822242432668, 39.175244788832522 ], [ -121.162193421941964, 39.175244788557499 ], [ -121.162193421612386, 39.174975294219628 ], [ -121.163091737435224, 39.174975293700342 ], [ -121.163091737458473, 39.174705799538657 ], [ -121.16327139974949, 39.174705799438883 ], [ -121.163361231604767, 39.175604115138853 ], [ -121.163720558609512, 39.175244789013391 ], [ -121.163720558552981, 39.174975294369126 ], [ -121.16506803122104, 39.175065125689194 ], [ -121.164439208835972, 39.176322767150261 ], [ -121.163990053119861, 39.176771924986369 ], [ -121.163361230578161, 39.176771924599606 ] ], [ [ -121.161564601135538, 39.175873609622109 ], [ -121.161295106993677, 39.175873609386137 ], [ -121.161295106948003, 39.176232935038456 ], [ -121.161564601296561, 39.176232935507848 ], [ -121.161564601135538, 39.175873609622109 ] ] ] } },
{ "type": "Feature", "properties": { "csb_id": "061825012217409", "acres": 13.3335355104565, "geoid": "06057" }, "geometry": { "type": "Polygon", "coordinates": [ [ [ -121.160845949736071, 39.175334620047664 ], [ -121.160845948070957, 39.175873609963013 ], [ -121.160666285769153, 39.176232935584999 ], [ -121.160037465507429, 39.176232935537314 ], [ -121.160037465208404, 39.176502430269267 ], [ -121.159767971082033, 39.176502429937145 ], [ -121.159408645414004, 39.175963440879521 ], [ -121.159139149920023, 39.175873609489749 ], [ -121.159139150899946, 39.174975294354901 ], [ -121.15976797062406, 39.174975294023916 ], [ -121.159767970968275, 39.174436305218876 ], [ -121.159947634281266, 39.174346473450413 ], [ -121.160486623236565, 39.174436304623811 ], [ -121.160396790397485, 39.17380748418767 ], [ -121.160666284760509, 39.173807484734752 ], [ -121.160666285052812, 39.173448158013628 ], [ -121.160935780642419, 39.173448158371293 ], [ -121.160935781378626, 39.173807484231261 ], [ -121.161564601724379, 39.173807484615182 ], [ -121.161564601402119, 39.174346473332569 ], [ -121.162193422518868, 39.174346473195037 ], [ -121.16237308539236, 39.174975294322238 ], [ -121.162193421612386, 39.174975294219628 ], [ -121.162193421941964, 39.175244788557499 ], [ -121.162822242432668, 39.175244788832522 ], [ -121.163091736934902, 39.175604114488173 ], [ -121.163091736089797, 39.175873609796383 ], [ -121.162193422163057, 39.175873609469505 ], [ -121.162193420705904, 39.175604115328802 ], [ -121.161115443841297, 39.175604114447601 ], [ -121.160845949736071, 39.175334620047664 ] ], [ [ -121.160666286581801, 39.174975294346261 ], [ -121.160666285673457, 39.174705799469024 ], [ -121.160396791663274, 39.174705799082609 ], [ -121.160396791570932, 39.174975293959882 ], [ -121.160666286581801, 39.174975294346261 ] ] ] } },
{ "type": "Feature", "properties": { "csb_id": "061825012217410", "acres": 10.062303521398499, "geoid": "06057" }, "geometry": { "type": "Polygon", "coordinates": [ [ [ -121.156983193654938, 39.176502429990585 ], [ -121.156713699344792, 39.176232936513749 ], [ -121.156623867904798, 39.175873610214872 ], [ -121.156084878464554, 39.175604115816618 ], [ -121.155635721310475, 39.174975294879289 ], [ -121.155815384078096, 39.174705799456994 ], [ -121.155815383579821, 39.174076979107504 ], [ -121.1567136990287, 39.17407697988321 ], [ -121.156713699097097, 39.17434647278386 ], [ -121.157342520464482, 39.174346473997097 ], [ -121.157342520010687, 39.174076979768337 ], [ -121.157971340782069, 39.174076979292707 ], [ -121.15797133988238, 39.174346473360615 ], [ -121.157612014077642, 39.174346473408605 ], [ -121.157612014566425, 39.174975294245534 ], [ -121.15824083491546, 39.175604114408742 ], [ -121.158240834908796, 39.176232935721188 ], [ -121.157971339623103, 39.176232935643078 ], [ -121.157971340156692, 39.176502430463103 ], [ -121.156983193654938, 39.176502429990585 ] ] ] } },
{ "type": "Feature", "properties": { "csb_id": "061825012217423", "acres": 19.790226583186602, "geoid": "06057" }, "geometry": { "type": "Polygon", "coordinates": [ [ [ -121.172344385518272, 39.172909170158761 ], [ -121.172344385021816, 39.173448157824375 ], [ -121.172973204605512, 39.173448158309604 ], [ -121.172793542538528, 39.17281933705997 ], [ -121.172344385518272, 39.172909170158761 ], [ -121.172164721683529, 39.172549842519608 ], [ -121.172524047632109, 39.172549842949792 ], [ -121.172524048426951, 39.171651527461151 ], [ -121.173063037233902, 39.171651527576245 ], [ -121.173063036835316, 39.171921021912986 ], [ -121.173871520888554, 39.171921021853215 ], [ -121.173691857952605, 39.174076978790708 ], [ -121.173961352341905, 39.174076978479562 ], [ -121.173961351896324, 39.174346473656556 ], [ -121.173691857482765, 39.174705799984572 ], [ -121.173063035411346, 39.174705799540135 ], [ -121.172973205750409, 39.174975293810924 ], [ -121.173691857666967, 39.175244788864802 ], [ -121.173691857515848, 39.175604115184377 ], [ -121.172793542661253, 39.175604114608035 ], [ -121.172793542715567, 39.174975294067259 ], [ -121.172164722399444, 39.174975293782758 ], [ -121.171895227412435, 39.175244788729657 ], [ -121.171895226870888, 39.175604115136395 ], [ -121.171715563712795, 39.175604114463873 ], [ -121.17126640683631, 39.174795630843981 ], [ -121.170996911961041, 39.175244788246488 ], [ -121.169918933095076, 39.175244788418389 ], [ -121.169739270433595, 39.175065125253695 ], [ -121.170637586164872, 39.174975293578051 ], [ -121.17063758571031, 39.174436304861338 ], [ -121.170996911571976, 39.174346473628283 ], [ -121.17099691183158, 39.173807484283408 ], [ -121.170637586307535, 39.173807484536823 ], [ -121.170637585471411, 39.173178663669276 ], [ -121.170996910963623, 39.173268495234126 ], [ -121.171176575822116, 39.172909170016318 ], [ -121.170996912264187, 39.172909168846481 ], [ -121.170996912437232, 39.172549842719953 ], [ -121.171446070136895, 39.172639674731371 ], [ -121.171535901198823, 39.172909170089078 ], [ -121.172344385518272, 39.172909170158761 ] ] ] } },
{ "type": "Feature", "properties": { "csb_id": "061825012217424", "acres": 11.6311619564755, "geoid": "06057" }, "geometry": { "type": "Polygon", "coordinates": [ [ [ -121.163361232175404, 39.174705799488819 ], [ -121.163540894772169, 39.174705799861073 ], [ -121.163540895382781, 39.174436305247937 ], [ -121.163361232325585, 39.174436305109147 ], [ -121.163361232175404, 39.174705799488819 ], [ -121.163091737458473, 39.174705799538657 ], [ -121.163091737435224, 39.174975293700342 ], [ -121.162912074782838, 39.174975294401854 ], [ -121.162822242603383, 39.174346473791381 ], [ -121.162193422518868, 39.174346473195037 ], [ -121.16219342218929, 39.174076978908921 ], [ -121.161834095694132, 39.174076978625955 ], [ -121.16183409590252, 39.173178663560662 ], [ -121.163720558176223, 39.17317866380462 ], [ -121.163720558100877, 39.172819337774435 ], [ -121.163990052368106, 39.172819337778655 ], [ -121.163990052344388, 39.173178663181218 ], [ -121.164259547124075, 39.173178663696326 ], [ -121.165517188449414, 39.173807484304994 ], [ -121.16551718891526, 39.174166810323307 ], [ -121.164618874123946, 39.174346473404604 ], [ -121.164618873534437, 39.174975294092967 ], [ -121.163720558552981, 39.174975294369126 ], [ -121.163720558609512, 39.175244789013391 ], [ -121.163361230747512, 39.175244788528225 ], [ -121.163361232175404, 39.174705799488819 ] ] ] } },
{ "type": "Feature", "properties": { "csb_id": "061825012217428", "acres": 15.266038967660201, "geoid": "06057" }, "geometry": { "type": "Polygon", "coordinates": [ [ [ -121.167313819487831, 39.172010853817994 ], [ -121.167223987330914, 39.172370179436953 ], [ -121.167313819216616, 39.172370179844435 ], [ -121.167313819487831, 39.172010853817994 ], [ -121.167493482063975, 39.172010853577198 ], [ -121.168571460891656, 39.172819336982464 ], [ -121.168571460835651, 39.173448157976473 ], [ -121.168212134721145, 39.173448158188059 ], [ -121.167942640158358, 39.173807484386302 ], [ -121.16794264001085, 39.174076978554474 ], [ -121.167673145392982, 39.174076978820466 ], [ -121.167673146037714, 39.174975294057383 ], [ -121.167493482066803, 39.174975294251013 ], [ -121.167313819144965, 39.174705799337715 ], [ -121.166415504154926, 39.174705799423542 ], [ -121.16551718891526, 39.174166810323307 ], [ -121.1655171891111, 39.173448158080767 ], [ -121.165786683657146, 39.172819337709946 ], [ -121.166146009028168, 39.172819337540339 ], [ -121.166325672896335, 39.172549842613051 ], [ -121.166325672659198, 39.172370180173374 ], [ -121.16578668377592, 39.172280348264138 ], [ -121.165786683118668, 39.172010853250647 ], [ -121.166415504838014, 39.171741359577346 ], [ -121.167044325265366, 39.171741359052369 ], [ -121.167313819487831, 39.172010853817994 ] ] ] } },
{ "type": "Feature", "properties": { "csb_id": "061825012217438", "acres": 5.28968428271238, "geoid": "06057" }, "geometry": { "type": "Polygon", "coordinates": [ [ [ -121.17189522532253, 39.171921022940481 ], [ -121.171266404102113, 39.171921022861156 ], [ -121.171266406870387, 39.171382032860954 ], [ -121.170996912435882, 39.171382033115684 ], [ -121.170996910134662, 39.17084304371761 ], [ -121.171895225009109, 39.170753212411988 ], [ -121.173422363367038, 39.171471864830671 ], [ -121.173422361907726, 39.171651527528432 ], [ -121.172524048426951, 39.171651527461151 ], [ -121.172524047632109, 39.172549842949792 ], [ -121.172164721683529, 39.172549842519608 ], [ -121.17189522532253, 39.171921022940481 ] ] ] } },
{ "type": "Feature", "properties": { "csb_id": "061825012217439", "acres": 6.0643505676316201, "geoid": "06057" }, "geometry": { "type": "Polygon", "coordinates": [ [ [ -121.164259547124075, 39.173178663696326 ], [ -121.164259547762924, 39.172819336965716 ], [ -121.16336123261506, 39.172819337435037 ], [ -121.163361232038994, 39.173178663231703 ], [ -121.162462917144737, 39.173178663637927 ], [ -121.162462917046511, 39.172819337052971 ], [ -121.162193422766194, 39.173178663770848 ], [ -121.16183409590252, 39.173178663560662 ], [ -121.161834096478557, 39.172639674510727 ], [ -121.16291207479739, 39.172639674539013 ], [ -121.162912074054489, 39.172370179884162 ], [ -121.16578668377592, 39.172280348264138 ], [ -121.165786682999894, 39.172549842665482 ], [ -121.165337526221123, 39.172909168766815 ], [ -121.165337526149443, 39.173448157584403 ], [ -121.164888368535003, 39.173448158025543 ], [ -121.164259547124075, 39.173178663696326 ] ] ] } },
{ "type": "Feature", "properties": { "csb_id": "061825012217442", "acres": 21.091368382836698, "geoid": "06057" }, "geometry": { "type": "Polygon", "coordinates": [ [ [ -121.168571460417823, 39.174705799356815 ], [ -121.168571459584399, 39.174346473939309 ], [ -121.168751123737849, 39.174346473677957 ], [ -121.168751123134356, 39.174166810001623 ], [ -121.16794264001085, 39.174076978554474 ], [ -121.167942640158358, 39.173807484386302 ], [ -121.168212134721145, 39.173448158188059 ], [ -121.168571460835651, 39.173448157976473 ], [ -121.168571460891656, 39.172819336982464 ], [ -121.167044325265366, 39.171741359052369 ], [ -121.16857146002323, 39.171382032772563 ], [ -121.169469774829693, 39.171382033600047 ], [ -121.169739269442729, 39.171651526448983 ], [ -121.170368089683492, 39.171112538555498 ], [ -121.170996912608942, 39.171022707106061 ], [ -121.170996912435882, 39.171382033115684 ], [ -121.171266406870387, 39.171382032860954 ], [ -121.171266407211135, 39.172010853794184 ], [ -121.171176573698801, 39.172280348568627 ], [ -121.170996912003275, 39.17228034825996 ], [ -121.170996911570654, 39.173178663576238 ], [ -121.170368089793371, 39.173178664211157 ], [ -121.170637586307535, 39.173807484536823 ], [ -121.17018842745324, 39.17416681077416 ], [ -121.170637585937598, 39.174705799211914 ], [ -121.170637586164872, 39.174975293578051 ], [ -121.169290112220665, 39.174975294638656 ], [ -121.168571460417823, 39.174705799356815 ] ], [ [ -121.170098596365477, 39.174346473534918 ], [ -121.170098596706183, 39.174076978577531 ], [ -121.169110448788999, 39.173807484813238 ], [ -121.169110448967899, 39.174346473938762 ], [ -121.170098596365477, 39.174346473534918 ] ], [ [ -121.170098595728831, 39.172280348138244 ], [ -121.170188426994599, 39.172010853587672 ], [ -121.170098595247836, 39.172010854394394 ], [ -121.170098595728831, 39.172280348138244 ] ] ] } },
{ "type": "Feature", "properties": { "csb_id": "061825012217450", "acres": 14.0799221033927, "geoid": "06057" }, "geometry": { "type": "Polygon", "coordinates": [ [ [ -121.159049318326097, 39.173537990088796 ], [ -121.159049319354637, 39.173897315810201 ], [ -121.159318812828403, 39.173897315831006 ], [ -121.159318813848344, 39.173537989409247 ], [ -121.159049318326097, 39.173537990088796 ], [ -121.15904931860581, 39.173268495367083 ], [ -121.158061172423956, 39.172639674350009 ], [ -121.157522182507932, 39.172639674523182 ], [ -121.157162857046941, 39.172909169054265 ], [ -121.157162857332608, 39.173537989858893 ], [ -121.15662386791162, 39.173537989279545 ], [ -121.156623867997311, 39.173897315483373 ], [ -121.156893362111418, 39.174166809969414 ], [ -121.157342520334026, 39.174166810524305 ], [ -121.157342520464482, 39.174346473997097 ], [ -121.156713699097097, 39.17434647278386 ], [ -121.1567136990287, 39.17407697988321 ], [ -121.155815383579821, 39.174076979107504 ], [ -121.155815383405212, 39.172819337567454 ], [ -121.156444203849773, 39.172819337074408 ], [ -121.156444204479214, 39.17317866385082 ], [ -121.156084878607658, 39.173178663473088 ], [ -121.156084878080065, 39.173448157810874 ], [ -121.156444204158262, 39.173448158422097 ], [ -121.156444204479214, 39.17317866385082 ], [ -121.156713699088343, 39.173178663179549 ], [ -121.156713698631734, 39.172280348603913 ], [ -121.15698319316229, 39.171921022057681 ], [ -121.157342519667949, 39.171921022118759 ], [ -121.157342520341714, 39.171651527796122 ], [ -121.157612013885782, 39.171651527923572 ], [ -121.157612014212674, 39.171921022246231 ], [ -121.158240834639187, 39.172280348065527 ], [ -121.159139150667357, 39.172280347869503 ], [ -121.159139150775005, 39.172819337214705 ], [ -121.159767971293604, 39.173448158376466 ], [ -121.160666285052812, 39.173448158013628 ], [ -121.160666284760509, 39.173807484734752 ], [ -121.160396790397485, 39.17380748418767 ], [ -121.160396791026088, 39.174166810469409 ], [ -121.160217129037079, 39.174166810330256 ], [ -121.160217128906652, 39.174346473481471 ], [ -121.159947634281266, 39.174346473450413 ], [ -121.159588307735433, 39.173897315895864 ], [ -121.15976797062406, 39.174975294023916 ], [ -121.159139150899946, 39.174975294354901 ], [ -121.15913914952047, 39.175244788547296 ], [ -121.158240835328755, 39.175244788161891 ], [ -121.158240835227787, 39.174975294042191 ], [ -121.158510329532035, 39.174975293697443 ], [ -121.158689993091741, 39.174705799146402 ], [ -121.158689991322944, 39.174436305057789 ], [ -121.158420496751148, 39.174346473308255 ], [ -121.158420498000112, 39.173897315705311 ], [ -121.158689992740477, 39.173537989410832 ], [ -121.159049318326097, 39.173537990088796 ] ] ] } },
{ "type": "Feature", "properties": { "csb_id": "061825012217464", "acres": 14.788005241067999, "geoid": "06057" }, "geometry": { "type": "Polygon", "coordinates": [ [ [ -121.158510329033859, 39.171022706885751 ], [ -121.159049318588558, 39.171112538618104 ], [ -121.159049318102163, 39.171022706592623 ], [ -121.158869656308809, 39.17102270700336 ], [ -121.159049318381889, 39.17075321201542 ], [ -121.160037464962045, 39.170753212213505 ], [ -121.161115443996863, 39.172280348490972 ], [ -121.161115444012154, 39.172549842834371 ], [ -121.161834096478557, 39.172639674510727 ], [ -121.161834096698811, 39.173807484355393 ], [ -121.160935781378626, 39.173807484231261 ], [ -121.160935780642419, 39.173448158371293 ], [ -121.159767971293604, 39.173448158376466 ], [ -121.159408644486888, 39.173178663334923 ], [ -121.159139150775005, 39.172819337214705 ], [ -121.159139150321636, 39.171921022038596 ], [ -121.158510330234478, 39.171651527816188 ], [ -121.157971340796138, 39.171651527657616 ], [ -121.157971338915829, 39.170753212295338 ], [ -121.15851032905978, 39.170753212775473 ], [ -121.158510329033859, 39.171022706885751 ] ], [ [ -121.161115443896151, 39.173537989544691 ], [ -121.16129510719513, 39.173537989642128 ], [ -121.161295106512725, 39.173268495241871 ], [ -121.16111544388086, 39.173268495144441 ], [ -121.161115443896151, 39.173537989544691 ] ] ] } },
{ "type": "Feature", "properties": { "csb_id": "061825012217490", "acres": 14.9700661221387, "geoid": "06057" }, "geometry": { "type": "Polygon", "coordinates": [ [ [ -121.15581538263983, 39.172370180167988 ], [ -121.15563572020767, 39.171921021764042 ], [ -121.155635720554116, 39.171471864450552 ], [ -121.155815383058538, 39.17147186417013 ], [ -121.155815383515773, 39.170753211839909 ], [ -121.15554588889205, 39.170753212433105 ], [ -121.155545889327271, 39.170393886542627 ], [ -121.155635719804366, 39.170214223448063 ], [ -121.156444204031033, 39.169944728320324 ], [ -121.156444204190095, 39.169495571123122 ], [ -121.159049318833667, 39.169495570727868 ], [ -121.159588308018371, 39.170124391409651 ], [ -121.159408644934018, 39.170753212298848 ], [ -121.159049318381889, 39.17075321201542 ], [ -121.159049318941314, 39.170214222907333 ], [ -121.158869655502656, 39.170124392010173 ], [ -121.157791677234812, 39.170214223281434 ], [ -121.157791677101258, 39.170483717755047 ], [ -121.157971340637346, 39.170483717339302 ], [ -121.157971340796138, 39.171651527657616 ], [ -121.156983192609474, 39.171651527340728 ], [ -121.15698319316229, 39.171921022057681 ], [ -121.156713698631734, 39.172280348603913 ], [ -121.15581538263983, 39.172370180167988 ] ] ] } },
{ "type": "Feature", "properties": { "csb_id": "061825012217567", "acres": 3.05153095209777, "geoid": "06057" }, "geometry": { "type": "Polygon", "coordinates": [ [ [ -121.141981328643524, 39.167519277530893 ], [ -121.141891496624723, 39.168687087352282 ], [ -121.141172844806675, 39.168687087454757 ], [ -121.141172844733745, 39.168058266345767 ], [ -121.141442339047686, 39.168058266219489 ], [ -121.141442339230636, 39.167788771496909 ], [ -121.141172844845784, 39.167519277382567 ], [ -121.14081351810546, 39.167519277707598 ], [ -121.140813518627823, 39.167159951425461 ], [ -121.141172844772854, 39.166890456429016 ], [ -121.141442339566467, 39.16689045623076 ], [ -121.141711834355647, 39.167159951214629 ], [ -121.141711833464811, 39.1675192775688 ], [ -121.141981328643524, 39.167519277530893 ] ] ] } },
{ "type": "Feature", "properties": { "csb_id": "061825012217683", "acres": 7.4906666147349901, "geoid": "06057" }, "geometry": { "type": "Polygon", "coordinates": [ [ [ -121.024571520946012, 39.163476858273505 ], [ -121.022864719220763, 39.163476859120713 ], [ -121.022864721239628, 39.162309049072711 ], [ -121.022685057055753, 39.161770059418892 ], [ -121.02331387893517, 39.161770059168788 ], [ -121.023493541108934, 39.16168022778669 ], [ -121.023493542243529, 39.161410733044562 ], [ -121.02448168894243, 39.161410733574286 ], [ -121.02448168891668, 39.161680227919348 ], [ -121.023942698469597, 39.161680228298941 ], [ -121.023942699231384, 39.162219216967415 ], [ -121.024661351252689, 39.162219217126122 ], [ -121.024571520946012, 39.163476858273505 ] ] ] } },
{ "type": "Feature", "properties": { "csb_id": "061825012218695", "acres": 9.6661270519557991, "geoid": "06057" }, "geometry": { "type": "Polygon", "coordinates": [ [ [ -121.185729282810371, 39.063853693187845 ], [ -121.184471641608837, 39.064302851290108 ], [ -121.182764842696955, 39.064302850731565 ], [ -121.182764842757948, 39.064123188234433 ], [ -121.182944505246439, 39.06412318800929 ], [ -121.182944505644869, 39.063853693610312 ], [ -121.18276484226898, 39.063763861535492 ], [ -121.183124168332185, 39.063763862080165 ], [ -121.183124168599861, 39.064033356474873 ], [ -121.184022483501934, 39.064033356808196 ], [ -121.184022483281026, 39.063763861712502 ], [ -121.185190293629049, 39.063763861596684 ], [ -121.185190293326258, 39.062506221347071 ], [ -121.184920798794053, 39.062506220935177 ], [ -121.184920799230909, 39.06223672693411 ], [ -121.185190293584185, 39.062236726251164 ], [ -121.185190293279419, 39.061877399919595 ], [ -121.185549619826901, 39.061877400658439 ], [ -121.186088608153781, 39.062236725596051 ], [ -121.186447934837119, 39.062236725926354 ], [ -121.1869869242052, 39.062506220110407 ], [ -121.186986923669906, 39.063763862364596 ], [ -121.185729282810371, 39.063853693187845 ] ] ] } },
{ "type": "Feature", "properties": { "csb_id": "061825012218727", "acres": 16.851298424211201, "geoid": "06057" }, "geometry": { "type": "Polygon", "coordinates": [ [ [ -121.183124168599861, 39.064033356474873 ], [ -121.183124168332185, 39.063763862080165 ], [ -121.182675010495771, 39.063763862214877 ], [ -121.18276484266103, 39.062775714720786 ], [ -121.182495348161083, 39.060979084272581 ], [ -121.183124168713363, 39.060709590313941 ], [ -121.183573326396285, 39.060709590216902 ], [ -121.183573326404982, 39.060529926506526 ], [ -121.183124168431974, 39.060080769148499 ], [ -121.183393663187005, 39.06008076877103 ], [ -121.183393663045933, 39.059811274332503 ], [ -121.18429197845461, 39.059811274724133 ], [ -121.184561472746012, 39.061338411050947 ], [ -121.184022483946023, 39.061338410506416 ], [ -121.183663157102004, 39.061607905336516 ], [ -121.183663157116456, 39.061877400094787 ], [ -121.184920798827079, 39.061877399975131 ], [ -121.184920799230909, 39.06223672693411 ], [ -121.184561472643949, 39.062236725865141 ], [ -121.184920798794053, 39.062506220935177 ], [ -121.185190293326258, 39.062506221347071 ], [ -121.18519029362983, 39.063404536028258 ], [ -121.184561472204123, 39.063404535494826 ], [ -121.184561473083193, 39.06376386208435 ], [ -121.184022483281026, 39.063763861712502 ], [ -121.184022483501934, 39.064033356808196 ], [ -121.183124168599861, 39.064033356474873 ] ] ] } },
{ "type": "Feature", "properties": { "csb_id": "061825012218730", "acres": 6.0738673874242597, "geoid": "06057" }, "geometry": { "type": "Polygon", "coordinates": [ [ [ -121.185369956144996, 39.06160790535327 ], [ -121.185100462213256, 39.060799421146356 ], [ -121.18456147333049, 39.060709589827972 ], [ -121.184471641493005, 39.06097908424568 ], [ -121.184291978337768, 39.060350264155147 ], [ -121.184561472451463, 39.060350263434088 ], [ -121.184920799155847, 39.060080768735787 ], [ -121.185100462262639, 39.059811274805185 ], [ -121.185100461727899, 39.059541780072223 ], [ -121.184920798598284, 39.059541780351637 ], [ -121.185549619566302, 39.059451948201797 ], [ -121.185549619038838, 39.060080769197974 ], [ -121.186088608533211, 39.060350264063743 ], [ -121.186088608470129, 39.06070959037136 ], [ -121.186717429584832, 39.060799421233078 ], [ -121.186717429344384, 39.061338410819914 ], [ -121.186447934958949, 39.061607905009062 ], [ -121.185369956144996, 39.06160790535327 ] ] ] } },
{ "type": "Feature", "properties": { "csb_id": "061825012218747", "acres": 9.9445215275302008, "geoid": "06057" }, "geometry": { "type": "Polygon", "coordinates": [ [ [ -121.186088608533211, 39.060350264063743 ], [ -121.185549619038838, 39.060080769197974 ], [ -121.185549619923307, 39.05918245387965 ], [ -121.184920799625701, 39.059182454192268 ], [ -121.184920799353222, 39.058553632742587 ], [ -121.184471641636136, 39.058373969911386 ], [ -121.18447164129077, 39.058553633159292 ], [ -121.184022483533823, 39.058553632813272 ], [ -121.184022483618392, 39.058284138841408 ], [ -121.184920798664365, 39.058284139164421 ], [ -121.184920799025321, 39.058104475691366 ], [ -121.185100462285135, 39.058104475571938 ], [ -121.185100462424415, 39.057745149504029 ], [ -121.185819114259132, 39.057745149638635 ], [ -121.187166586887159, 39.05837397005412 ], [ -121.187166587047983, 39.059002790917667 ], [ -121.186897092108595, 39.059002791102145 ], [ -121.186627598557223, 39.059272285482976 ], [ -121.186627597388366, 39.059541779883148 ], [ -121.186897092894753, 39.059541779655937 ], [ -121.187166586912468, 39.05990110650238 ], [ -121.187166587741856, 39.060170600932587 ], [ -121.186627597694994, 39.060170600803133 ], [ -121.186627597914196, 39.060709590096018 ], [ -121.186088608470129, 39.06070959037136 ], [ -121.186088608533211, 39.060350264063743 ] ], [ [ -121.186268271552265, 39.059901106315969 ], [ -121.186268271797061, 39.059272285032407 ], [ -121.185998777900821, 39.059272285617809 ], [ -121.185998777576174, 39.059901106433927 ], [ -121.186268271552265, 39.059901106315969 ] ], [ [ -121.185729282977874, 39.058643464712567 ], [ -121.185100462228931, 39.058643465147171 ], [ -121.185100462089622, 39.059002791272221 ], [ -121.185729282264276, 39.059002790677653 ], [ -121.185729282977874, 39.058643464712567 ] ] ] } },
{ "type": "Feature", "properties": { "csb_id": "061825012218749", "acres": 6.5818401323604299, "geoid": "06057" }, "geometry": { "type": "Polygon", "coordinates": [ [ [ -121.181866527279269, 39.059272284975179 ], [ -121.180339390953392, 39.059182454271287 ], [ -121.180249558325798, 39.058553633110677 ], [ -121.179710570510252, 39.058284138399308 ], [ -121.179710569782472, 39.057655318179307 ], [ -121.180339390755378, 39.057385823468053 ], [ -121.181237706714825, 39.057385822967085 ], [ -121.18123770653358, 39.058014644238774 ], [ -121.181417368626441, 39.05837397006956 ], [ -121.181597031760177, 39.058553633184466 ], [ -121.181866526996885, 39.058553632995398 ], [ -121.181866527279269, 39.059272284975179 ] ] ] } },
{ "type": "Feature", "properties": { "csb_id": "061825012218750", "acres": 8.7086633635287694, "geoid": "06057" }, "geometry": { "type": "Polygon", "coordinates": [ [ [ -121.182944504886706, 39.060080769153288 ], [ -121.1824953478298, 39.059811274801575 ], [ -121.18249534754726, 39.059451948612299 ], [ -121.182944505525072, 39.058912959093973 ], [ -121.183663157141609, 39.058553632885179 ], [ -121.183663157127143, 39.058284138285941 ], [ -121.183124168459514, 39.058284138517919 ], [ -121.18339366319033, 39.057475654579861 ], [ -121.184022483261131, 39.057475655280768 ], [ -121.184471641071724, 39.057655318305194 ], [ -121.184561472720048, 39.058014643963809 ], [ -121.184920799025321, 39.058104475691366 ], [ -121.184920798664365, 39.058284139164421 ], [ -121.184022483618392, 39.058284138841408 ], [ -121.184022483533823, 39.058553632813272 ], [ -121.184920799353222, 39.058553632742587 ], [ -121.184920799625701, 39.059182454192268 ], [ -121.185549619923307, 39.05918245387965 ], [ -121.185549619566302, 39.059451948201797 ], [ -121.184471641489878, 39.059541780227327 ], [ -121.18429197778201, 39.059451948621245 ], [ -121.184291978782639, 39.059002791104838 ], [ -121.183842820807271, 39.059002790502994 ], [ -121.183842820597505, 39.05981127490967 ], [ -121.183393663045933, 39.059811274332503 ], [ -121.183393663187005, 39.06008076877103 ], [ -121.182944504886706, 39.060080769153288 ] ] ] } },
{ "type": "Feature", "properties": { "csb_id": "061825012218877", "acres": 5.2422999289110104, "geoid": "06057" }, "geometry": { "type": "Polygon", "coordinates": [ [ [ -121.182675010996761, 39.036365245303735 ], [ -121.183303831313765, 39.036544908705146 ], [ -121.183573326266057, 39.036814403638971 ], [ -121.183573326235603, 39.037443224054478 ], [ -121.183303831622354, 39.037443223723876 ], [ -121.183303831817469, 39.038072044600455 ], [ -121.183842820898178, 39.038072044750564 ], [ -121.183842820758571, 39.038341539497495 ], [ -121.182944504781034, 39.038341539280658 ], [ -121.182944505337701, 39.038700865477715 ], [ -121.182315684291595, 39.038700865501127 ], [ -121.182315684591615, 39.038341539771373 ], [ -121.182675011130726, 39.038341539467872 ], [ -121.182675010791655, 39.03807204479449 ], [ -121.181417369543226, 39.03807204470985 ], [ -121.181417369170134, 39.037712718231163 ], [ -121.182675010441372, 39.037712718869649 ], [ -121.182675010996761, 39.036365245303735 ] ] ] } }
]
}
