{
"type": "FeatureCollection",
"name": "06061",
"crs": { "type": "name", "properties": { "name": "urn:ogc:def:crs:OGC:1.3:CRS84" } },
"features": [
{ "type": "Feature", "properties": { "csb_id": "061825003214295", "acres": 4.0908049840367404, "geoid": "06061" }, "geometry": { "type": "Polygon", "coordinates": [ [ [ -120.930327141953853, 39.060859483066636 ], [ -120.929698320898254, 39.060859483531168 ], [ -120.929698321254691, 39.06103914607047 ], [ -120.929428826203363, 39.060859482879088 ], [ -120.929428826833387, 39.060230662744146 ], [ -120.930057646955433, 39.060230662718077 ], [ -120.930057646886937, 39.059332347096316 ], [ -120.930955962259006, 39.059332347253154 ], [ -120.930955962675228, 39.058703526466914 ], [ -120.931225457648836, 39.058703526726582 ], [ -120.931225457420751, 39.059601841578029 ], [ -120.930955962382612, 39.060230662372319 ], [ -120.930327141874599, 39.060230662405118 ], [ -120.930327141953853, 39.060859483066636 ] ] ] } },
{ "type": "Feature", "properties": { "csb_id": "061825003214296", "acres": 4.5412605960228198, "geoid": "06061" }, "geometry": { "type": "Polygon", "coordinates": [ [ [ -120.92969832107957, 39.05600858033884 ], [ -120.930057647504398, 39.056008580267068 ], [ -120.930057646681405, 39.056637401088778 ], [ -120.930686468336859, 39.056637401342748 ], [ -120.931584783539449, 39.057266221897329 ], [ -120.931584783030999, 39.057535716725575 ], [ -120.930955962835782, 39.057535716350877 ], [ -120.930955962419588, 39.058164537007144 ], [ -120.930327141676827, 39.058164537063988 ], [ -120.930327142361676, 39.057805211248791 ], [ -120.930686467528886, 39.057805211440758 ], [ -120.930686468144899, 39.05726622229809 ], [ -120.929159331840751, 39.057266222141848 ], [ -120.929159332060664, 39.056906895817264 ], [ -120.929698321516128, 39.056906895368421 ], [ -120.92969832107957, 39.05600858033884 ] ] ] } },
{ "type": "Feature", "properties": { "csb_id": "061825003214297", "acres": 3.2384304709295599, "geoid": "06061" }, "geometry": { "type": "Polygon", "coordinates": [ [ [ -120.924577924548416, 39.053044140135277 ], [ -120.925476238837248, 39.053044140158661 ], [ -120.92547623869082, 39.054481444290268 ], [ -120.924577923621271, 39.054481444475059 ], [ -120.924308429727176, 39.053942455647828 ], [ -120.924308429580549, 39.053583128990383 ], [ -120.924937249620399, 39.053583129231221 ], [ -120.924937250730679, 39.053313634909337 ], [ -120.924577923534926, 39.053313635074737 ], [ -120.924577924548416, 39.053044140135277 ] ] ] } },
{ "type": "Feature", "properties": { "csb_id": "061825003214302", "acres": 11.0680111676342, "geoid": "06061" }, "geometry": { "type": "Polygon", "coordinates": [ [ [ -120.944251029121489, 38.98171790641269 ], [ -120.9442510283248, 38.981178917509816 ], [ -120.943891702179016, 38.981178917265822 ], [ -120.943891702674222, 38.981448412341869 ], [ -120.943622207705062, 38.981448411575819 ], [ -120.943622207813704, 38.979022960894127 ], [ -120.944251028211568, 38.979022960785073 ], [ -120.944251028938467, 38.978753466207237 ], [ -120.944790017608767, 38.97875346612053 ], [ -120.94479001775268, 38.979022960929882 ], [ -120.945778164332395, 38.979022960538536 ], [ -120.94577816460027, 38.979382287032642 ], [ -120.946317153555327, 38.979921276052522 ], [ -120.946317153931801, 38.980280602197119 ], [ -120.945778164941714, 38.980550096766137 ], [ -120.945418838138764, 38.980550097098373 ], [ -120.945418838218913, 38.980280602624994 ], [ -120.945149344114725, 38.980280602191478 ], [ -120.944790017963541, 38.980550096668303 ], [ -120.944790017996993, 38.98117891721764 ], [ -120.944520522838175, 38.98171790627633 ], [ -120.944251029121489, 38.98171790641269 ] ], [ [ -120.944251028390823, 38.979651781123792 ], [ -120.94389170273196, 38.979651781407156 ], [ -120.94389170292483, 38.979921275558851 ], [ -120.94425102909149, 38.979921276368607 ], [ -120.944251028390823, 38.979651781123792 ] ] ] } },
{ "type": "Feature", "properties": { "csb_id": "061825008586826", "acres": 6.2532487454215797, "geoid": "06061" }, "geometry": { "type": "Polygon", "coordinates": [ [ [ -121.101083123818256, 38.870172926027557 ], [ -121.100813629199394, 38.87017292677956 ], [ -121.100813629144611, 38.869903432141015 ], [ -121.100184808446485, 38.869903432082303 ], [ -121.100184808422128, 38.870172926255023 ], [ -121.100544134580574, 38.870172926945443 ], [ -121.100544134528036, 38.870801747049001 ], [ -121.100184809245818, 38.870801747382266 ], [ -121.100184808966461, 38.87053225232836 ], [ -121.099915314749396, 38.870532252616378 ], [ -121.099915313728459, 38.870801746809029 ], [ -121.100184809245818, 38.870801747382266 ], [ -121.10018480866708, 38.871161073715236 ], [ -121.099915314473009, 38.871430567517088 ], [ -121.099555987820892, 38.871430567516676 ], [ -121.099555987930614, 38.870801747274456 ], [ -121.099286493020713, 38.870801747056163 ], [ -121.099286493931871, 38.871161073085815 ], [ -121.099016998753868, 38.871430568146238 ], [ -121.098657673012852, 38.871430568124858 ], [ -121.098657673224068, 38.870801746696273 ], [ -121.099016998414484, 38.870801747113134 ], [ -121.099555987736622, 38.870172926217542 ], [ -121.099555987646184, 38.869274611520289 ], [ -121.101083124087864, 38.869274611048603 ], [ -121.101083123818256, 38.870172926027557 ] ] ] } },
{ "type": "Feature", "properties": { "csb_id": "061825008586828", "acres": 11.7488546136103, "geoid": "06061" }, "geometry": { "type": "Polygon", "coordinates": [ [ [ -121.083206649747126, 38.862357583632395 ], [ -121.082937155346926, 38.862357583799948 ], [ -121.08293715562111, 38.862627078314532 ], [ -121.083206649894748, 38.862627078379766 ], [ -121.083206649747126, 38.862357583632395 ], [ -121.083835470074916, 38.862357583414031 ], [ -121.083835470551634, 38.861998257547299 ], [ -121.084464291239314, 38.861998257117342 ], [ -121.0844642916189, 38.862627078266733 ], [ -121.084194796606496, 38.862986404478434 ], [ -121.084464291694999, 38.863255898600357 ], [ -121.084464291697259, 38.863525393445414 ], [ -121.084194796732348, 38.863884718996125 ], [ -121.083835470620997, 38.863884719828846 ], [ -121.083835470794256, 38.863525393037541 ], [ -121.08320664998223, 38.863525393116447 ], [ -121.083206650077898, 38.863884719209416 ], [ -121.082667661001835, 38.863884719447462 ], [ -121.082308334518956, 38.863525393506315 ], [ -121.08230833402034, 38.863255898567964 ], [ -121.082937155785359, 38.863255898671646 ], [ -121.082937155511189, 38.862986404137558 ], [ -121.081410019784329, 38.862986404079642 ], [ -121.081410019207425, 38.863255898544061 ], [ -121.082038840578079, 38.86325589866734 ], [ -121.08203884008023, 38.863525393605684 ], [ -121.081140524798755, 38.863525392885094 ], [ -121.080871030491522, 38.862986404393617 ], [ -121.080871029790273, 38.862357583240858 ], [ -121.081140524295435, 38.86199825713755 ], [ -121.083206649651473, 38.861998257602757 ], [ -121.083206649747126, 38.862357583632395 ] ] ] } },
{ "type": "Feature", "properties": { "csb_id": "061825008586829", "acres": 9.2034045102251394, "geoid": "06061" }, "geometry": { "type": "Polygon", "coordinates": [ [ [ -121.078715073671631, 38.859033817023665 ], [ -121.078715073844251, 38.859303310993774 ], [ -121.07898456830317, 38.85930331118724 ], [ -121.07898456819251, 38.859662637455727 ], [ -121.078445579470284, 38.859662637739703 ], [ -121.078445578949896, 38.85993213259048 ], [ -121.079343894592583, 38.859932132505975 ], [ -121.07934389372123, 38.860201627201903 ], [ -121.078984568477338, 38.860560953075094 ], [ -121.078715073040755, 38.860560953044732 ], [ -121.078715073357031, 38.860201626972064 ], [ -121.078445579249035, 38.86020162635554 ], [ -121.078445578510212, 38.860830447935307 ], [ -121.07934389420717, 38.860830447361373 ], [ -121.07988288383207, 38.861459267889799 ], [ -121.079882883830564, 38.861728762865717 ], [ -121.079343894125159, 38.861728763170653 ], [ -121.078984568458708, 38.861459267925675 ], [ -121.077187937346025, 38.861459267942934 ], [ -121.077187937776571, 38.860560952974701 ], [ -121.077457431999449, 38.860560952881372 ], [ -121.077457432597313, 38.860201627111017 ], [ -121.076918443136336, 38.860201626548296 ], [ -121.076918443384827, 38.859932131991449 ], [ -121.077816757632462, 38.859932132177732 ], [ -121.07808625310912, 38.859662637355846 ], [ -121.078086252456004, 38.859033816791012 ], [ -121.078715073671631, 38.859033817023665 ] ] ] } },
{ "type": "Feature", "properties": { "csb_id": "061825008586831", "acres": 6.8735683550847098, "geoid": "06061" }, "geometry": { "type": "Polygon", "coordinates": [ [ [ -121.080421872183365, 38.858404996017292 ], [ -121.080511704059958, 38.86083044762146 ], [ -121.080242210085629, 38.860830447630505 ], [ -121.080242209909244, 38.859662637250061 ], [ -121.079343894037564, 38.85966263718975 ], [ -121.079343894674565, 38.859033816881613 ], [ -121.078715073671631, 38.859033817023665 ], [ -121.07871507398788, 38.858674491013758 ], [ -121.079343894136812, 38.858674490406315 ], [ -121.079343893885223, 38.858404995990085 ], [ -121.078715073511887, 38.858404996201749 ], [ -121.07871507398788, 38.858674491013758 ], [ -121.078445578484988, 38.85867449093228 ], [ -121.07781675790325, 38.858404996544692 ], [ -121.077816758199234, 38.85813550134511 ], [ -121.079613388873497, 38.858135501199648 ], [ -121.079613388433586, 38.85777617538966 ], [ -121.079882883771276, 38.85777617504958 ], [ -121.080421872183365, 38.858404996017292 ] ] ] } },
{ "type": "Feature", "properties": { "csb_id": "061825008586832", "acres": 4.01586242100697, "geoid": "06061" }, "geometry": { "type": "Polygon", "coordinates": [ [ [ -121.073864170340187, 38.857776175590502 ], [ -121.074133663979708, 38.857776176093033 ], [ -121.074133664630423, 38.857506680888434 ], [ -121.073864169741412, 38.857506680851323 ], [ -121.073864170340187, 38.857776175590502 ], [ -121.073594674758127, 38.85777617582854 ], [ -121.073594675553338, 38.857237186358248 ], [ -121.074492990430585, 38.857237186994652 ], [ -121.07449299139833, 38.856608365297852 ], [ -121.075121810720916, 38.856608365960682 ], [ -121.075660801794953, 38.856877860090137 ], [ -121.075660799885085, 38.857506681316401 ], [ -121.075121810682802, 38.857776175613395 ], [ -121.075121812778661, 38.857506681200633 ], [ -121.07449299080497, 38.857506681329724 ], [ -121.074492991779749, 38.85813550176406 ], [ -121.073864171512881, 38.858135501844856 ], [ -121.073864170340187, 38.857776175590502 ] ] ] } },
{ "type": "Feature", "properties": { "csb_id": "061825008586834", "acres": 6.1105696039598696, "geoid": "06061" }, "geometry": { "type": "Polygon", "coordinates": [ [ [ -121.086260922223602, 38.852655778557775 ], [ -121.086620247639019, 38.852655778768508 ], [ -121.086620248065955, 38.853554093741849 ], [ -121.086889742846324, 38.853554093524473 ], [ -121.086889742344042, 38.853284599078826 ], [ -121.087788058002459, 38.853284599342437 ], [ -121.08778805787145, 38.852925272705917 ], [ -121.088416878679496, 38.852925272932616 ], [ -121.088686373236229, 38.853284598725971 ], [ -121.088686373140533, 38.853823587835258 ], [ -121.087788058305151, 38.853823587916182 ], [ -121.087788058153805, 38.85355409362522 ], [ -121.087518563889304, 38.853554093841268 ], [ -121.087159237183116, 38.853823588501584 ], [ -121.087159237235724, 38.854811735414458 ], [ -121.086260922331945, 38.854811734851076 ], [ -121.086260921565312, 38.854452408921006 ], [ -121.086620248492892, 38.854452408805919 ], [ -121.086620247571901, 38.853823588195695 ], [ -121.08599142714796, 38.853823588254414 ], [ -121.085632100730209, 38.853554093488611 ], [ -121.085632101205405, 38.853284598880045 ], [ -121.086260922290606, 38.853284598619879 ], [ -121.086260922223602, 38.852655778557775 ] ] ] } },
{ "type": "Feature", "properties": { "csb_id": "061825008586837", "acres": 7.9169526913143198, "geoid": "06061" }, "geometry": { "type": "Polygon", "coordinates": [ [ [ -121.090842330243831, 38.851487968376752 ], [ -121.091381318548983, 38.851487968261509 ], [ -121.091381319026411, 38.851757463328383 ], [ -121.092369465134453, 38.851757462838712 ], [ -121.09236946515243, 38.852386283607331 ], [ -121.092010140093421, 38.852386283636882 ], [ -121.092010139756098, 38.852026957384929 ], [ -121.091740645552989, 38.852026957776602 ], [ -121.091740644941382, 38.852655778494146 ], [ -121.092010139223603, 38.852655778568121 ], [ -121.092010139763374, 38.853554093427164 ], [ -121.092369465784046, 38.853554093467743 ], [ -121.092369466242658, 38.853823588434359 ], [ -121.091381318346791, 38.853823588107929 ], [ -121.091381319295721, 38.853554093606995 ], [ -121.091740644709276, 38.853554093748755 ], [ -121.091740645452617, 38.853284599023183 ], [ -121.091111824244805, 38.853284599394883 ], [ -121.091111824545209, 38.853554093421984 ], [ -121.090483003349604, 38.853554093814466 ], [ -121.090483003947583, 38.853284599158933 ], [ -121.09084232936776, 38.853284598856547 ], [ -121.090842329992114, 38.852925272638501 ], [ -121.089584688435579, 38.852925273269534 ], [ -121.089584688712819, 38.85202695803288 ], [ -121.090483004017045, 38.852026957797001 ], [ -121.090483003269128, 38.852655778141553 ], [ -121.091111824059595, 38.852655778074677 ], [ -121.091111824882006, 38.852386283841959 ], [ -121.090842329957582, 38.852386284002066 ], [ -121.090842330243831, 38.851487968376752 ] ] ] } },
{ "type": "Feature", "properties": { "csb_id": "061825008586840", "acres": 3.20933515352929, "geoid": "06061" }, "geometry": { "type": "Polygon", "coordinates": [ [ [ -121.094435590994294, 38.845828582076074 ], [ -121.095333906422525, 38.845828582555804 ], [ -121.095693232347784, 38.846008245708013 ], [ -121.095693232572714, 38.846906560138436 ], [ -121.09416609660984, 38.846906560775686 ], [ -121.094166096549557, 38.846637065480898 ], [ -121.09443559085345, 38.846277740027226 ], [ -121.094435590994294, 38.845828582076074 ] ], [ [ -121.095064411858672, 38.846277739867119 ], [ -121.095064411744204, 38.84663706633274 ], [ -121.095333906505914, 38.846637065553125 ], [ -121.09533390671838, 38.846277739715944 ], [ -121.095064411858672, 38.846277739867119 ] ] ] } },
{ "type": "Feature", "properties": { "csb_id": "061825008586847", "acres": 3.3060166879977699, "geoid": "06061" }, "geometry": { "type": "Polygon", "coordinates": [ [ [ -121.097130536123203, 38.832353852655082 ], [ -121.097489862977483, 38.832353852965497 ], [ -121.097759357547972, 38.832982673400373 ], [ -121.096861042271968, 38.833880988675439 ], [ -121.096861042705697, 38.834150483738206 ], [ -121.095693232374146, 38.834150483251655 ], [ -121.095693232889104, 38.833880988887515 ], [ -121.096232221321401, 38.833880988700308 ], [ -121.096232221242317, 38.833252167848698 ], [ -121.096861041866973, 38.833252168614791 ], [ -121.097130536910811, 38.832982673982798 ], [ -121.097130536123203, 38.832353852655082 ] ] ] } },
{ "type": "Feature", "properties": { "csb_id": "061825008586848", "acres": 5.9200788031660396, "geoid": "06061" }, "geometry": { "type": "Polygon", "coordinates": [ [ [ -121.100544135239559, 38.832084358425 ], [ -121.100544134975266, 38.832713178667355 ], [ -121.100813629943744, 38.832713179275636 ], [ -121.100813629537953, 38.833252168274619 ], [ -121.100544134376818, 38.833611494209975 ], [ -121.100184809302533, 38.833611494635313 ], [ -121.100184808767153, 38.834509809331969 ], [ -121.099915314694272, 38.834779304229016 ], [ -121.099555987839565, 38.8347793038539 ], [ -121.099286493160932, 38.834509810151907 ], [ -121.099286493888101, 38.83415048341147 ], [ -121.099555988276293, 38.833611494472038 ], [ -121.099915314169536, 38.83361149477674 ], [ -121.099915314759699, 38.832982673683716 ], [ -121.099555987790581, 38.832713178907753 ], [ -121.098657672687935, 38.832713178731012 ], [ -121.09865767314642, 38.832353852757791 ], [ -121.100184808383119, 38.832353852886662 ], [ -121.100184808922833, 38.83208435789706 ], [ -121.100544135239559, 38.832084358425 ] ] ] } },
{ "type": "Feature", "properties": { "csb_id": "061825008586861", "acres": 2.72067113569268, "geoid": "06061" }, "geometry": { "type": "Polygon", "coordinates": [ [ [ -121.137914050982957, 38.810165465823644 ], [ -121.137914050095915, 38.809716307777826 ], [ -121.138632702722973, 38.809716307408564 ], [ -121.138632702807655, 38.809087487017351 ], [ -121.13899202857263, 38.808728160969103 ], [ -121.139261523309287, 38.808728161217985 ], [ -121.139171692024249, 38.810165465656382 ], [ -121.137914050982957, 38.810165465823644 ] ] ] } },
{ "type": "Feature", "properties": { "csb_id": "061825008586862", "acres": 4.3261221295988701, "geoid": "06061" }, "geometry": { "type": "Polygon", "coordinates": [ [ [ -121.108359478072529, 38.809267150374005 ], [ -121.108898466757253, 38.809267150598743 ], [ -121.109167962042264, 38.809536644767704 ], [ -121.109527287944658, 38.809985802267221 ], [ -121.109527287389668, 38.810524791394954 ], [ -121.108628972215669, 38.81052479182425 ], [ -121.108628972698199, 38.81079428601403 ], [ -121.10808998291958, 38.810794286197144 ], [ -121.107730656618855, 38.810524791369609 ], [ -121.107730656629869, 38.810165465345108 ], [ -121.108000151142335, 38.809895970747505 ], [ -121.108269646791697, 38.809895970759904 ], [ -121.108359478072529, 38.809267150374005 ] ] ] } },
{ "type": "Feature", "properties": { "csb_id": "061825008586866", "acres": 6.8834535640582404, "geoid": "06061" }, "geometry": { "type": "Polygon", "coordinates": [ [ [ -121.109796782323158, 38.810165465200214 ], [ -121.110156109044965, 38.809536645017147 ], [ -121.110515435158447, 38.809356981856432 ], [ -121.110515434993417, 38.808458666310756 ], [ -121.110784929411253, 38.808189171513682 ], [ -121.111144254664566, 38.80818917159629 ], [ -121.111144254782474, 38.807829845837404 ], [ -121.110784929504149, 38.80774001386358 ], [ -121.111593412790725, 38.807740013786365 ], [ -121.11195273948492, 38.808099340095083 ], [ -121.111952738807361, 38.808638329172858 ], [ -121.11222223396787, 38.808638328961536 ], [ -121.112222233462745, 38.808368834849681 ], [ -121.112851054013348, 38.808458666549086 ], [ -121.11294088568043, 38.808728160627702 ], [ -121.112581559546811, 38.809087487081406 ], [ -121.111683244597472, 38.809087487419383 ], [ -121.111683244304274, 38.808728161162733 ], [ -121.111413750237546, 38.808728160829084 ], [ -121.111144255234422, 38.809087486793764 ], [ -121.11114425561216, 38.809716307760951 ], [ -121.110425602736512, 38.810165465800424 ], [ -121.109796782323158, 38.810165465200214 ] ] ] } },
{ "type": "Feature", "properties": { "csb_id": "061825008586868", "acres": 5.9029732852223402, "geoid": "06061" }, "geometry": { "type": "Polygon", "coordinates": [ [ [ -121.111952738807361, 38.808638329172858 ], [ -121.11195273948492, 38.808099340095083 ], [ -121.111593412790725, 38.807740013786365 ], [ -121.110784929504149, 38.80774001386358 ], [ -121.110784928765071, 38.807560351339987 ], [ -121.110425603243314, 38.807560350913612 ], [ -121.110156108682133, 38.807201025064238 ], [ -121.110156108471173, 38.806931530666084 ], [ -121.110425603450736, 38.806931531244715 ], [ -121.110695097909613, 38.80657220426577 ], [ -121.110695097951364, 38.806302709418134 ], [ -121.111683244031482, 38.806302709831819 ], [ -121.111683244203405, 38.807201025399912 ], [ -121.112581559359654, 38.807740014669953 ], [ -121.112491727931129, 38.808368834913018 ], [ -121.112222233462745, 38.808368834849681 ], [ -121.11222223396787, 38.808638328961536 ], [ -121.111952738807361, 38.808638329172858 ] ] ] } },
{ "type": "Feature", "properties": { "csb_id": "061825008586877", "acres": 5.1063213852421203, "geoid": "06061" }, "geometry": { "type": "Polygon", "coordinates": [ [ [ -121.187051897327564, 38.789863540058974 ], [ -121.186692571080187, 38.788066909169153 ], [ -121.18821970660936, 38.788066909024593 ], [ -121.188219706651793, 38.789055056613599 ], [ -121.187860380510187, 38.789324550535511 ], [ -121.187590886412153, 38.789953371749306 ], [ -121.187051897327564, 38.789863540058974 ] ], [ [ -121.187411222536099, 38.789414382417746 ], [ -121.187321391681706, 38.789324551320114 ], [ -121.187321391597635, 38.789414383638125 ], [ -121.187411222536099, 38.789414382417746 ] ] ] } },
{ "type": "Feature", "properties": { "csb_id": "061825008586882", "acres": 5.8757608952823599, "geoid": "06061" }, "geometry": { "type": "Polygon", "coordinates": [ [ [ -121.184895939515044, 38.788156740914502 ], [ -121.184536613435327, 38.788066909227545 ], [ -121.184536614184509, 38.787797415273459 ], [ -121.185165434457929, 38.787797414908162 ], [ -121.185165434501513, 38.787438088892117 ], [ -121.182739983164936, 38.787438089543173 ], [ -121.182739983772848, 38.786899099076962 ], [ -121.183099309956944, 38.786539773687473 ], [ -121.183368804699654, 38.786539773635525 ], [ -121.183368804267147, 38.786899099708329 ], [ -121.183997624857341, 38.786899100823135 ], [ -121.183997625253127, 38.78653977318821 ], [ -121.184895939619707, 38.786539773758875 ], [ -121.184895940252815, 38.787168594304632 ], [ -121.185794254911329, 38.787168594530634 ], [ -121.185165434866292, 38.788426235132796 ], [ -121.184895940397496, 38.788426235738477 ], [ -121.184895939515044, 38.788156740914502 ] ] ] } },
{ "type": "Feature", "properties": { "csb_id": "061825008586889", "acres": 3.6449341918526401, "geoid": "06061" }, "geometry": { "type": "Polygon", "coordinates": [ [ [ -121.167109297790034, 38.783036343997672 ], [ -121.165582162126569, 38.783036344154361 ], [ -121.165312666807438, 38.782766849747468 ], [ -121.16531266678129, 38.782407523012616 ], [ -121.165582161033853, 38.78213802868904 ], [ -121.165851655995127, 38.782138028216529 ], [ -121.165851656451494, 38.782407523121407 ], [ -121.166480476301388, 38.782407523045045 ], [ -121.166480477191101, 38.782138028300722 ], [ -121.166839802304395, 38.782138028634584 ], [ -121.167378792614514, 38.78276684935188 ], [ -121.167378792376553, 38.783305838089511 ], [ -121.167109297797154, 38.783305838136329 ], [ -121.167109297790034, 38.783036343997672 ] ] ] } },
{ "type": "Feature", "properties": { "csb_id": "061825008586894", "acres": 2.8855479388014098, "geoid": "06061" }, "geometry": { "type": "Polygon", "coordinates": [ [ [ -121.175553461423846, 38.772346391898353 ], [ -121.176721271228857, 38.772705718153311 ], [ -121.176451776090332, 38.772705718155947 ], [ -121.176451776411568, 38.773334538543224 ], [ -121.175912787241444, 38.773693864591934 ], [ -121.175283966544526, 38.773693864621443 ], [ -121.175014471922253, 38.773334539016865 ], [ -121.175014472579917, 38.7730650444445 ], [ -121.175283966903322, 38.772705717831784 ], [ -121.175553461129198, 38.772705717788988 ], [ -121.17555346113879, 38.773065044551899 ], [ -121.176182281510876, 38.773065043940839 ], [ -121.176182282377368, 38.772705718199219 ], [ -121.175553461129198, 38.772705717788988 ], [ -121.175553461423846, 38.772346391898353 ] ] ] } },
{ "type": "Feature", "properties": { "csb_id": "061825008586895", "acres": 4.5496381450273704, "geoid": "06061" }, "geometry": { "type": "Polygon", "coordinates": [ [ [ -121.17609244975273, 38.770819255761516 ], [ -121.176092449869415, 38.771178582071727 ], [ -121.176990765285197, 38.771178581910739 ], [ -121.176811102347003, 38.771268413741801 ], [ -121.176811102413438, 38.771537908578971 ], [ -121.177350092009831, 38.771537908464353 ], [ -121.177978912858975, 38.771807402732492 ], [ -121.177978912685546, 38.77216672922026 ], [ -121.177350092059655, 38.77270571826331 ], [ -121.176990765246032, 38.772705717797386 ], [ -121.177260259659818, 38.771717571038153 ], [ -121.176721271283256, 38.771717571155357 ], [ -121.176721270828082, 38.772076897333264 ], [ -121.175822955967092, 38.772076897740895 ], [ -121.175822955885295, 38.771178581639447 ], [ -121.175463629958827, 38.77117858181888 ], [ -121.175463629574452, 38.770819256209485 ], [ -121.17609244975273, 38.770819255761516 ] ] ] } },
{ "type": "Feature", "properties": { "csb_id": "061825008586898", "acres": 7.7623238813387303, "geoid": "06061" }, "geometry": { "type": "Polygon", "coordinates": [ [ [ -121.176990765074791, 38.7700107725734 ], [ -121.177260260144138, 38.770010772111306 ], [ -121.177350092007117, 38.77054976165342 ], [ -121.176990765109039, 38.770549761567864 ], [ -121.176990765838895, 38.770819256388229 ], [ -121.177260260181939, 38.771178582383058 ], [ -121.177619586607022, 38.771268413944526 ], [ -121.176092449869415, 38.771178582071727 ], [ -121.17609244975273, 38.770819255761516 ], [ -121.176721271147812, 38.770819255562643 ], [ -121.176721270596076, 38.770549761836918 ], [ -121.176092450097627, 38.770549761408397 ], [ -121.17609244975273, 38.770819255761516 ], [ -121.175463629574452, 38.770819256209485 ], [ -121.175463629958827, 38.77117858181888 ], [ -121.175822955885295, 38.771178581639447 ], [ -121.175822955967092, 38.772076897740895 ], [ -121.176721270828082, 38.772076897333264 ], [ -121.176721271283256, 38.771717571155357 ], [ -121.177260259659818, 38.771717571038153 ], [ -121.176990765246032, 38.772705717797386 ], [ -121.175553461423846, 38.772346391898353 ], [ -121.17555346101048, 38.772166729074065 ], [ -121.174565314919704, 38.772076897576028 ], [ -121.174655145653631, 38.771717571699092 ], [ -121.17519413547339, 38.771717571035502 ], [ -121.175194135455982, 38.770909087451173 ], [ -121.175553461259938, 38.77028026724529 ], [ -121.176990765358553, 38.770190435203915 ], [ -121.176990765074791, 38.7700107725734 ] ] ] } },
{ "type": "Feature", "properties": { "csb_id": "061825008586939", "acres": 2.7346187122005898, "geoid": "06061" }, "geometry": { "type": "Polygon", "coordinates": [ [ [ -121.189118021494309, 38.73605445469704 ], [ -121.189118021745898, 38.735695127986517 ], [ -121.189746842099538, 38.735695128155456 ], [ -121.190184420745709, 38.735414054285947 ], [ -121.191184147279898, 38.735335802244172 ], [ -121.191184147356822, 38.736054454229013 ], [ -121.189118021494309, 38.73605445469704 ] ] ] } },
{ "type": "Feature", "properties": { "csb_id": "061825012219117", "acres": 4.5929764928324204, "geoid": "06061" }, "geometry": { "type": "Polygon", "coordinates": [ [ [ -121.27780659926718, 38.998007182724571 ], [ -121.277806598774475, 38.997737688634587 ], [ -121.276638789857884, 38.997737688006609 ], [ -121.276638790045283, 38.997108868792978 ], [ -121.277537104443837, 38.997108868663567 ], [ -121.277806599183052, 38.996749542040973 ], [ -121.278435420235837, 38.996659711104783 ], [ -121.278704915185244, 38.996839373678178 ], [ -121.278794746240521, 38.997737688603124 ], [ -121.27780659926718, 38.998007182724571 ] ] ] } },
{ "type": "Feature", "properties": { "csb_id": "061825012219183", "acres": 7.3680493855389901, "geoid": "06061" }, "geometry": { "type": "Polygon", "coordinates": [ [ [ -121.133267669868673, 38.959738952032588 ], [ -121.133088006689462, 38.959469457633865 ], [ -121.132638849136441, 38.959469457474029 ], [ -121.132908344087483, 38.95857114247503 ], [ -121.13371682786908, 38.958032153225233 ], [ -121.134255816721534, 38.957942321622234 ], [ -121.134615142631702, 38.957942321761571 ], [ -121.135064300228251, 38.958301647404497 ], [ -121.135064300399037, 38.958930468177279 ], [ -121.134435479618489, 38.958930468540288 ], [ -121.134435479729319, 38.959199962551999 ], [ -121.135064300589335, 38.959199962655418 ], [ -121.135064300569795, 38.959559289007629 ], [ -121.133896490629425, 38.959559288601049 ], [ -121.133896490173584, 38.959828783265451 ], [ -121.133267669868673, 38.959738952032588 ] ], [ [ -121.134165985711178, 38.958660973227019 ], [ -121.133896490275063, 38.958660973518299 ], [ -121.133896490943513, 38.958930467914186 ], [ -121.134165985128774, 38.958930468089349 ], [ -121.134165985711178, 38.958660973227019 ] ] ] } },
{ "type": "Feature", "properties": { "csb_id": "061825012219210", "acres": 2.66748390073248, "geoid": "06061" }, "geometry": { "type": "Polygon", "coordinates": [ [ [ -121.157522182206847, 38.94743203261752 ], [ -121.158689993156017, 38.947432032564997 ], [ -121.158689992955743, 38.947701527269473 ], [ -121.158420498571743, 38.947701527103369 ], [ -121.158420498227969, 38.948330348227891 ], [ -121.158689992386826, 38.948330347999843 ], [ -121.158689992186552, 38.948599842738766 ], [ -121.15779167737972, 38.948599842268457 ], [ -121.157791677533126, 38.948330348229824 ], [ -121.157522182554928, 38.948330347600951 ], [ -121.157522182206847, 38.94743203261752 ] ] ] } },
{ "type": "Feature", "properties": { "csb_id": "061825012219232", "acres": 2.9556111729127101, "geoid": "06061" }, "geometry": { "type": "Polygon", "coordinates": [ [ [ -121.175039330444264, 38.94105399414741 ], [ -121.176566466173881, 38.94105399395 ], [ -121.176566466778439, 38.941952309745993 ], [ -121.175039331409138, 38.941952309650006 ], [ -121.175039331252989, 38.941682814682345 ], [ -121.175398657366699, 38.941682814947889 ], [ -121.175398657188609, 38.941323488889722 ], [ -121.175039330600413, 38.941323489091374 ], [ -121.175039330444264, 38.94105399414741 ] ] ] } },
{ "type": "Feature", "properties": { "csb_id": "061825012219255", "acres": 2.56237996540291, "geoid": "06061" }, "geometry": { "type": "Polygon", "coordinates": [ [ [ -121.28589143642553, 38.93593359682243 ], [ -121.285442278867379, 38.935304776710716 ], [ -121.285082953089912, 38.935304776264857 ], [ -121.285082953429566, 38.934945450451075 ], [ -121.28607109977716, 38.934945450601219 ], [ -121.286071099513777, 38.935304776492558 ], [ -121.286969415436616, 38.935304776050039 ], [ -121.286969414912576, 38.935574271242764 ], [ -121.28661008867067, 38.935933596839583 ], [ -121.28589143642553, 38.93593359682243 ] ] ] } },
{ "type": "Feature", "properties": { "csb_id": "061825012219273", "acres": 5.7775609972758799, "geoid": "06061" }, "geometry": { "type": "Polygon", "coordinates": [ [ [ -121.131740534079668, 38.931981009922517 ], [ -121.132369355111877, 38.931981010001302 ], [ -121.132638849743827, 38.932250504668389 ], [ -121.132638849082497, 38.932879325421226 ], [ -121.132369355179392, 38.93350814542535 ], [ -121.131740534581169, 38.933777639985017 ], [ -121.131111713651379, 38.93377763994792 ], [ -121.131111713958106, 38.932879324968688 ], [ -121.130842218641376, 38.932879325458067 ], [ -121.130842218562591, 38.932519999260585 ], [ -121.131111713407151, 38.932250504430712 ], [ -121.131740534425305, 38.932250504486156 ], [ -121.131740534079668, 38.931981009922517 ] ] ] } },
{ "type": "Feature", "properties": { "csb_id": "061825012219293", "acres": 2.9274478253257299, "geoid": "06061" }, "geometry": { "type": "Polygon", "coordinates": [ [ [ -121.223728019125645, 38.926411454799933 ], [ -121.223728019124493, 38.925513139921371 ], [ -121.224895829615249, 38.925513139636479 ], [ -121.224895829386512, 38.926141959876979 ], [ -121.224626334652257, 38.926680949713372 ], [ -121.223997514437798, 38.926680949729196 ], [ -121.223997513772701, 38.926501286738215 ], [ -121.223728019125645, 38.926411454799933 ] ] ] } },
{ "type": "Feature", "properties": { "csb_id": "061825012219306", "acres": 5.3847469277605304, "geoid": "06061" }, "geometry": { "type": "Polygon", "coordinates": [ [ [ -121.224356839450166, 38.924884319053746 ], [ -121.224356839640222, 38.923357182739707 ], [ -121.224626334336563, 38.923087688949884 ], [ -121.225704313225194, 38.923177519731745 ], [ -121.225973807939795, 38.923986004404071 ], [ -121.225524649335426, 38.924614824776491 ], [ -121.224626334998405, 38.924614825283783 ], [ -121.224626335361592, 38.924884319857831 ], [ -121.224356839450166, 38.924884319053746 ] ] ] } },
{ "type": "Feature", "properties": { "csb_id": "061825012219313", "acres": 14.771979201837199, "geoid": "06061" }, "geometry": { "type": "Polygon", "coordinates": [ [ [ -121.190939510755271, 38.923986003512745 ], [ -121.19067001674378, 38.923986003762153 ], [ -121.190939510729393, 38.924255498080974 ], [ -121.19093951110159, 38.92461482533519 ], [ -121.19129883808688, 38.924614825629249 ], [ -121.191298837065332, 38.924255498141299 ], [ -121.190939510729393, 38.924255498080974 ], [ -121.190939510755271, 38.923986003512745 ], [ -121.192197152354481, 38.923986003867583 ], [ -121.192197152830843, 38.923716510096249 ], [ -121.192825973085348, 38.923716508818103 ], [ -121.193095468312592, 38.92425549863195 ], [ -121.193095467772181, 38.924884319912081 ], [ -121.19246664688923, 38.925513139756525 ], [ -121.191837826948344, 38.925513139618005 ], [ -121.191119175005355, 38.925153814060046 ], [ -121.190939511894285, 38.924884318831452 ], [ -121.190041196355821, 38.924884319845226 ], [ -121.190041196376512, 38.925153813744899 ], [ -121.189142880772394, 38.925153814045139 ], [ -121.190041196302801, 38.92272836250563 ], [ -121.190400522132165, 38.922458867765123 ], [ -121.191298838073649, 38.922458868010146 ], [ -121.191298838078083, 38.923177520480436 ], [ -121.191119174523024, 38.92335718401948 ], [ -121.190400522545616, 38.923357182591673 ], [ -121.19040052250557, 38.92371650933498 ], [ -121.190939510755271, 38.923986003512745 ] ] ] } },
{ "type": "Feature", "properties": { "csb_id": "061825012219325", "acres": 3.0606163728797302, "geoid": "06061" }, "geometry": { "type": "Polygon", "coordinates": [ [ [ -121.111528440657722, 38.921291057454063 ], [ -121.111528440400605, 38.92093173128977 ], [ -121.110630124832724, 38.920931731987807 ], [ -121.110144386005402, 38.92048257418643 ], [ -121.111438608261679, 38.920123247914795 ], [ -121.112067429361218, 38.920662237058728 ], [ -121.111887766526408, 38.921291058197866 ], [ -121.111528440657722, 38.921291057454063 ] ] ] } },
{ "type": "Feature", "properties": { "csb_id": "061825012219343", "acres": 2.76469710411051, "geoid": "06061" }, "geometry": { "type": "Polygon", "coordinates": [ [ [ -121.119343783664391, 38.914374029909837 ], [ -121.119882772244495, 38.914374029998285 ], [ -121.119882772380137, 38.915901165697676 ], [ -121.119613277238415, 38.915901165875162 ], [ -121.118984456551473, 38.915541839701433 ], [ -121.118984457269107, 38.914643524601871 ], [ -121.119343783062703, 38.914643524682518 ], [ -121.119343783664391, 38.914374029909837 ] ] ] } },
{ "type": "Feature", "properties": { "csb_id": "061825012219347", "acres": 4.3966688962467497, "geoid": "06061" }, "geometry": { "type": "Polygon", "coordinates": [ [ [ -121.193544625394694, 38.915002850904671 ], [ -121.193544625748245, 38.914643524983482 ], [ -121.193275131396675, 38.914643524290241 ], [ -121.193275130807706, 38.914104535163737 ], [ -121.193903951582911, 38.91410453600519 ], [ -121.193903951804714, 38.914374030600669 ], [ -121.194442941370454, 38.914374029922541 ], [ -121.194442940998343, 38.913745209140487 ], [ -121.194802267435207, 38.913745209502373 ], [ -121.195431088027391, 38.914104535280444 ], [ -121.195431087977468, 38.914374030183779 ], [ -121.194802267234195, 38.914374030124662 ], [ -121.194442941339631, 38.914643524995107 ], [ -121.194442940619069, 38.915002850990312 ], [ -121.194802267033182, 38.915002850798942 ], [ -121.194802267020336, 38.915452008824374 ], [ -121.193903951263351, 38.915452008450956 ], [ -121.193544625394694, 38.915002850904671 ] ] ] } },
{ "type": "Feature", "properties": { "csb_id": "061825013245811", "acres": 3.34274417439407, "geoid": "06061" }, "geometry": { "type": "Polygon", "coordinates": [ [ [ -121.156963298377391, 38.870917899307194 ], [ -121.156963298695345, 38.870558573142723 ], [ -121.156693804137049, 38.870019583932951 ], [ -121.15633447800063, 38.870019583528673 ], [ -121.156334478050326, 38.869660258102549 ], [ -121.15660397272751, 38.869660258211681 ], [ -121.156603971645666, 38.869929752473048 ], [ -121.158490434893579, 38.870019584176148 ], [ -121.158490434868796, 38.870289078755 ], [ -121.157592118773579, 38.870917899671412 ], [ -121.156963298377391, 38.870917899307194 ] ] ] } },
{ "type": "Feature", "properties": { "csb_id": "061825013245812", "acres": 6.4357264900002402, "geoid": "06061" }, "geometry": { "type": "Polygon", "coordinates": [ [ [ -121.153370037469003, 38.871456888316899 ], [ -121.153010711248527, 38.87118739381588 ], [ -121.150585260383679, 38.871187394117186 ], [ -121.150585259902144, 38.871456888297999 ], [ -121.150315765696647, 38.87145688841111 ], [ -121.150315765269596, 38.870828067934013 ], [ -121.151483575226635, 38.871097562295475 ], [ -121.15238188999642, 38.871097562422307 ], [ -121.152471722062771, 38.870199246671532 ], [ -121.153010711548134, 38.870558572996778 ], [ -121.153370036994005, 38.870558573566413 ], [ -121.153370037363828, 38.870019583886169 ], [ -121.15363953212993, 38.869660257877875 ], [ -121.15390902579945, 38.869660257586546 ], [ -121.154268352184658, 38.870019584204456 ], [ -121.154268352057841, 38.870289078332135 ], [ -121.15363953133722, 38.870289078936317 ], [ -121.153639531435232, 38.870558573466859 ], [ -121.154268352235363, 38.870558573329504 ], [ -121.154537846644317, 38.871456888199894 ], [ -121.153370037469003, 38.871456888316899 ] ] ] } },
{ "type": "Feature", "properties": { "csb_id": "061825013245837", "acres": 4.2553281626958404, "geoid": "06061" }, "geometry": { "type": "Polygon", "coordinates": [ [ [ -121.158490434723689, 38.869660257510255 ], [ -121.158131108606284, 38.869929752343992 ], [ -121.156603971645666, 38.869929752473048 ], [ -121.156693803312109, 38.86957042664563 ], [ -121.157861613826995, 38.869570426543987 ], [ -121.15840060275896, 38.869300931472488 ], [ -121.158490434992686, 38.868941605946119 ], [ -121.159927738759094, 38.869031436898538 ], [ -121.159927738669566, 38.869390763216394 ], [ -121.159658244090281, 38.869570426144499 ], [ -121.15929891855167, 38.869570426352546 ], [ -121.159298918136969, 38.869300932190683 ], [ -121.159029423780567, 38.869300931681188 ], [ -121.159029423212161, 38.870019584442844 ], [ -121.158490434893579, 38.870019584176148 ], [ -121.158490434723689, 38.869660257510255 ] ] ] } },
{ "type": "Feature", "properties": { "csb_id": "061825013245883", "acres": 4.7164289455329698, "geoid": "06061" }, "geometry": { "type": "Polygon", "coordinates": [ [ [ -121.162712516575567, 38.868043290126579 ], [ -121.163251505140124, 38.868043290200397 ], [ -121.163521000006739, 38.868402616866973 ], [ -121.163520999613041, 38.868941605418421 ], [ -121.162982010600899, 38.869300931881767 ], [ -121.162353189923351, 38.869300932246205 ], [ -121.162353189490332, 38.869570426159399 ], [ -121.162622684661571, 38.869929752260724 ], [ -121.163521000385103, 38.869929752568716 ], [ -121.163520999991405, 38.870468741216783 ], [ -121.163251505618305, 38.870468741599531 ], [ -121.162712516502069, 38.870019583808542 ], [ -121.161993863375926, 38.870019583761255 ], [ -121.16208369568389, 38.869031437352 ], [ -121.162353190051888, 38.869031437480459 ], [ -121.162353190453331, 38.868402616680413 ], [ -121.162712516575567, 38.868043290126579 ] ] ] } },
{ "type": "Feature", "properties": { "csb_id": "061825013245898", "acres": 15.5228355848701, "geoid": "06061" }, "geometry": { "type": "Polygon", "coordinates": [ [ [ -121.152741216891968, 38.869390762949642 ], [ -121.15274121659742, 38.869031437606708 ], [ -121.152112395898044, 38.869031437334577 ], [ -121.152112395642376, 38.869390763071912 ], [ -121.152741216891968, 38.869390762949642 ], [ -121.15238189092581, 38.870468741682302 ], [ -121.15238188999642, 38.871097562422307 ], [ -121.151483575226635, 38.871097562295475 ], [ -121.150315765269596, 38.870828067934013 ], [ -121.150315764893421, 38.869929752734841 ], [ -121.150585260029345, 38.86939076319878 ], [ -121.150585259961943, 38.868402616375022 ], [ -121.151483575504557, 38.868402616873546 ], [ -121.152381890433787, 38.867773796185958 ], [ -121.152381889886115, 38.867504300954828 ], [ -121.153010711282292, 38.867504301597727 ], [ -121.153010711483105, 38.868492447729793 ], [ -121.153280205723277, 38.86894160544054 ], [ -121.153280206120741, 38.869390763032314 ], [ -121.152741216891968, 38.869390762949642 ] ], [ [ -121.152471722160683, 38.868492447875347 ], [ -121.152112395977227, 38.86849244789591 ], [ -121.152112395224052, 38.868761942297127 ], [ -121.152471721613352, 38.868761942509956 ], [ -121.152471722160683, 38.868492447875347 ] ] ] } },
{ "type": "Feature", "properties": { "csb_id": "061825013245900", "acres": 6.2246233143292802, "geoid": "06061" }, "geometry": { "type": "Polygon", "coordinates": [ [ [ -121.156693804271598, 38.867234806932409 ], [ -121.157861613481884, 38.867234806716631 ], [ -121.157861614015786, 38.868133121520323 ], [ -121.158131107936455, 38.868133121913608 ], [ -121.158131108580434, 38.86849244804818 ], [ -121.157861613531139, 38.86876194257971 ], [ -121.156064983251056, 38.86876194233912 ], [ -121.156064983129028, 38.867863627365537 ], [ -121.156334477732443, 38.867594132930947 ], [ -121.156693803747814, 38.867594132723248 ], [ -121.156693804271598, 38.867234806932409 ] ] ] } },
{ "type": "Feature", "properties": { "csb_id": "061825013245919", "acres": 5.60985156631933, "geoid": "06061" }, "geometry": { "type": "Polygon", "coordinates": [ [ [ -121.1617243698594, 38.868941605776911 ], [ -121.160826054182152, 38.86849244798605 ], [ -121.160826054352327, 38.867594132796526 ], [ -121.160556559171013, 38.867594132469868 ], [ -121.160556559563801, 38.866965312227457 ], [ -121.160826054665549, 38.866965312087125 ], [ -121.160826053685838, 38.867234806714904 ], [ -121.161185380249918, 38.867234806866286 ], [ -121.161185380674894, 38.866695817385683 ], [ -121.161454875388998, 38.866695817600018 ], [ -121.161454874407013, 38.867234806686476 ], [ -121.16172436916824, 38.867594132935906 ], [ -121.162083695867153, 38.867594132671563 ], [ -121.162353189587577, 38.867863627447633 ], [ -121.162353190581882, 38.868133121943039 ], [ -121.16262268417826, 38.868133121879495 ], [ -121.162353190453331, 38.868402616680413 ], [ -121.16235319018044, 38.868761942723168 ], [ -121.1617243698594, 38.868941605776911 ] ], [ [ -121.161454874723518, 38.867863627488411 ], [ -121.161185380486884, 38.867863627201309 ], [ -121.16118537971299, 38.868133122090889 ], [ -121.16145487464172, 38.868133121516848 ], [ -121.161454874723518, 38.867863627488411 ] ] ] } },
{ "type": "Feature", "properties": { "csb_id": "061825013246755", "acres": 2.72760431678774, "geoid": "06061" }, "geometry": { "type": "Polygon", "coordinates": [ [ [ -121.176546572040209, 38.844148103885132 ], [ -121.176277076617808, 38.844417598586858 ], [ -121.176007581897935, 38.84441759875439 ], [ -121.175328056189045, 38.843929314769227 ], [ -121.175288930180713, 38.843159956833347 ], [ -121.176546570996663, 38.843519282797544 ], [ -121.176546572040209, 38.844148103885132 ] ] ] } },
{ "type": "Feature", "properties": { "csb_id": "061825013246861", "acres": 5.0161908820405996, "geoid": "06061" }, "geometry": { "type": "Polygon", "coordinates": [ [ [ -121.216880928453548, 38.841004000551003 ], [ -121.216880927859322, 38.840734505499746 ], [ -121.215892780554157, 38.840644674488225 ], [ -121.215892781368026, 38.840375179915391 ], [ -121.217419916722136, 38.840375179256576 ], [ -121.217419916990011, 38.84010568547766 ], [ -121.217150422020111, 38.840105685152004 ], [ -121.21715042272146, 38.839746358481719 ], [ -121.218318231966592, 38.839746358634308 ], [ -121.218318232362222, 38.841273494541568 ], [ -121.217779242766895, 38.841273495340836 ], [ -121.217779242523818, 38.841004000440726 ], [ -121.216880928453548, 38.841004000551003 ] ] ] } },
{ "type": "Feature", "properties": { "csb_id": "061825013247067", "acres": 3.3828485714743399, "geoid": "06061" }, "geometry": { "type": "Polygon", "coordinates": [ [ [ -121.215353791241483, 38.834715793248527 ], [ -121.215353791498202, 38.834446298454317 ], [ -121.215982612203788, 38.834176804063802 ], [ -121.215982612744483, 38.833817477930928 ], [ -121.216880927522226, 38.833817477746166 ], [ -121.216880927209132, 38.834446298815315 ], [ -121.216611432772552, 38.835075119354947 ], [ -121.215623286726171, 38.835075119831991 ], [ -121.215623286488494, 38.834715793271698 ], [ -121.215353791241483, 38.834715793248527 ] ] ] } }
]
}
