{
"type": "FeatureCollection",
"name": "06071",
"crs": { "type": "name", "properties": { "name": "urn:ogc:def:crs:OGC:1.3:CRS84" } },
"features": [
{ "type": "Feature", "properties": { "csb_id": "061825005237442", "acres": 2.9892173694659898, "geoid": "06071" }, "geometry": { "type": "Polygon", "coordinates": [ [ [ -117.518003861820915, 34.127987421855892 ], [ -117.518273356545564, 34.126460285604153 ], [ -117.518003861676476, 34.126460285336179 ], [ -117.518003861655586, 34.12619079084196 ], [ -117.518632681794386, 34.126190791231501 ], [ -117.519081839591422, 34.126550117415697 ], [ -117.51908183990615, 34.126819611520901 ], [ -117.518632682203972, 34.127358600859587 ], [ -117.518542850999268, 34.12798742203087 ], [ -117.518003861820915, 34.127987421855892 ] ] ] } },
{ "type": "Feature", "properties": { "csb_id": "061825005237445", "acres": 3.6626085920636902, "geoid": "06071" }, "geometry": { "type": "Polygon", "coordinates": [ [ [ -117.517105547093465, 34.126280623440579 ], [ -117.517195377653209, 34.125741633552501 ], [ -117.518003861838125, 34.12538230769195 ], [ -117.518363187345997, 34.124843318718469 ], [ -117.518812344978684, 34.12529247575111 ], [ -117.518632681794386, 34.126190791231501 ], [ -117.518003861655586, 34.12619079084196 ], [ -117.518003861676476, 34.126460285336179 ], [ -117.517105547093465, 34.126280623440579 ] ] ] } },
{ "type": "Feature", "properties": { "csb_id": "061825005237505", "acres": 3.3285678496122202, "geoid": "06071" }, "geometry": { "type": "Polygon", "coordinates": [ [ [ -117.630203440895713, 34.056930682212773 ], [ -117.63074242950708, 34.056930683201585 ], [ -117.630742429630573, 34.057290009163339 ], [ -117.630472935676792, 34.05729000867936 ], [ -117.630472935326551, 34.058098492237043 ], [ -117.630742429704199, 34.058098492253215 ], [ -117.630742430073994, 34.05845781855998 ], [ -117.629933946077443, 34.058457818843145 ], [ -117.629933946254553, 34.057559503414929 ], [ -117.62930512488785, 34.057559503653977 ], [ -117.629305125760368, 34.05693068279772 ], [ -117.629933945487721, 34.056930682824671 ], [ -117.629933946381598, 34.057290008850487 ], [ -117.630203440906072, 34.057290008642347 ], [ -117.630203440895713, 34.056930682212773 ] ] ] } },
{ "type": "Feature", "properties": { "csb_id": "061825005237649", "acres": 4.57679565204631, "geoid": "06071" }, "geometry": { "type": "Polygon", "coordinates": [ [ [ -117.579538458139282, 34.010667445449094 ], [ -117.579538458694202, 34.00976912999247 ], [ -117.579807953108826, 34.009769130418888 ], [ -117.579807953128665, 34.009499635984696 ], [ -117.57917913257694, 34.009499636004563 ], [ -117.579179132399517, 34.009230141009404 ], [ -117.57953845847166, 34.009230141434841 ], [ -117.579538458677533, 34.008870815458103 ], [ -117.578819805842173, 34.008601320161588 ], [ -117.579538458454948, 34.008331826286813 ], [ -117.57971812223235, 34.00797249996311 ], [ -117.580257110515248, 34.008062331616337 ], [ -117.580257110923384, 34.008780983406346 ], [ -117.580616436970288, 34.008780983773875 ], [ -117.579987616123859, 34.009679298529299 ], [ -117.579987616247976, 34.010577614022154 ], [ -117.579538458139282, 34.010667445449094 ] ] ] } },
{ "type": "Feature", "properties": { "csb_id": "061825005237650", "acres": 3.59602712095178, "geoid": "06071" }, "geometry": { "type": "Polygon", "coordinates": [ [ [ -117.578909637554545, 34.00851148861436 ], [ -117.578640142815033, 34.008870815055403 ], [ -117.578909637884138, 34.008870815022327 ], [ -117.578909637214025, 34.00949963538995 ], [ -117.57917913257694, 34.009499636004563 ], [ -117.579179132508827, 34.009769130035927 ], [ -117.578909637522599, 34.009769130091648 ], [ -117.578909637831188, 34.010038624701259 ], [ -117.579179132686278, 34.010038624846977 ], [ -117.57917913230996, 34.01066744555861 ], [ -117.579538458139282, 34.010667445449094 ], [ -117.579538458813246, 34.01084710881991 ], [ -117.579089300889763, 34.011116603124869 ], [ -117.578640143679607, 34.010936940551417 ], [ -117.578640143617335, 34.010397951183243 ], [ -117.578011322035167, 34.010397951032836 ], [ -117.578550311269495, 34.010308119725856 ], [ -117.578640143221634, 34.01003862480043 ], [ -117.578550311821004, 34.008331825958315 ], [ -117.57864014289953, 34.00770300532524 ], [ -117.578909638428186, 34.007703005358209 ], [ -117.578909637554545, 34.00851148861436 ] ], [ [ -117.578819806810642, 34.010308119835685 ], [ -117.578819806808667, 34.01057761426123 ], [ -117.57908930115596, 34.010577614146968 ], [ -117.579089301289059, 34.010308119519991 ], [ -117.578819806810642, 34.010308119835685 ] ] ] } },
{ "type": "Feature", "properties": { "csb_id": "061825005237694", "acres": 4.3831648845864697, "geoid": "06071" }, "geometry": { "type": "Polygon", "coordinates": [ [ [ -117.596067460252485, 33.999887662384317 ], [ -117.595528470706967, 33.99988766240493 ], [ -117.595528470335069, 34.000157156721215 ], [ -117.594989481788843, 34.000157156445866 ], [ -117.594989481308986, 33.999258841367102 ], [ -117.595258976436966, 33.998989346690564 ], [ -117.597235269925676, 33.998989346857449 ], [ -117.597235269894583, 33.999258841617419 ], [ -117.596696280850821, 33.999258841372935 ], [ -117.596426786499705, 33.999618167909091 ], [ -117.596426785496192, 34.00006732534154 ], [ -117.59606746018396, 34.000067325473722 ], [ -117.596067460252485, 33.999887662384317 ] ] ] } },
{ "type": "Feature", "properties": { "csb_id": "061825005237714", "acres": 2.65655820745727, "geoid": "06071" }, "geometry": { "type": "Polygon", "coordinates": [ [ [ -117.607476063758142, 33.997552042798624 ], [ -117.607476064360995, 33.997282547975708 ], [ -117.607745558074072, 33.997013052924999 ], [ -117.608015052738438, 33.997013053704386 ], [ -117.608015053075064, 33.996653727542736 ], [ -117.607745558507389, 33.996384232706269 ], [ -117.607476064137217, 33.996384232575004 ], [ -117.607476063463807, 33.995845243312068 ], [ -117.608015052974181, 33.995845243012454 ], [ -117.60837437958304, 33.996114738076834 ], [ -117.608374378924793, 33.997282547633816 ], [ -117.608015052690106, 33.997282547949538 ], [ -117.60801505264179, 33.99755204210247 ], [ -117.607476063758142, 33.997552042798624 ] ] ] } },
{ "type": "Feature", "properties": { "csb_id": "061825005237716", "acres": 5.3540720412353302, "geoid": "06071" }, "geometry": { "type": "Polygon", "coordinates": [ [ [ -117.610620167222265, 33.99575541220451 ], [ -117.609093031020009, 33.995845243339474 ], [ -117.608913368628237, 33.995755412255541 ], [ -117.608913368759247, 33.995485916882188 ], [ -117.6094523576933, 33.995396085570306 ], [ -117.609452357976878, 33.994587602356034 ], [ -117.609721851815934, 33.994318107879216 ], [ -117.609991347140905, 33.994318107676953 ], [ -117.610350672742044, 33.994857096639862 ], [ -117.611159156736889, 33.995126590992228 ], [ -117.611159156559609, 33.996024906776341 ], [ -117.610709999238694, 33.996024906682941 ], [ -117.610620167222265, 33.99575541220451 ] ], [ [ -117.610260841603946, 33.995396085640706 ], [ -117.610260840756979, 33.995126591282684 ], [ -117.609991346887611, 33.99512659130508 ], [ -117.609991346803156, 33.995396085663138 ], [ -117.610260841603946, 33.995396085640706 ] ] ] } },
{ "type": "Feature", "properties": { "csb_id": "061825005237774", "acres": 11.0666993533004, "geoid": "06071" }, "geometry": { "type": "Polygon", "coordinates": [ [ [ -117.569567158872786, 33.989107879437299 ], [ -117.569926485227938, 33.989107878277217 ], [ -117.569926484580947, 33.988838384288968 ], [ -117.569567159467525, 33.988838385449093 ], [ -117.569567158872786, 33.989107879437299 ], [ -117.569297663125539, 33.98910787907289 ], [ -117.569297663988863, 33.988479057991576 ], [ -117.569836652834397, 33.987940070062187 ], [ -117.569926484869001, 33.988209563058454 ], [ -117.570106147121678, 33.988209564139282 ], [ -117.570106146670867, 33.987940068769667 ], [ -117.569926485284455, 33.987940068560718 ], [ -117.56983665312093, 33.987580742826019 ], [ -117.57010614756787, 33.987401080167302 ], [ -117.570106147906841, 33.986951923252761 ], [ -117.56902816987342, 33.986951922247819 ], [ -117.568668843093974, 33.98668242763847 ], [ -117.5683993476094, 33.986412932779345 ], [ -117.568399349187601, 33.98587394339873 ], [ -117.568668843832981, 33.985604449547743 ], [ -117.569028170227725, 33.985604449026454 ], [ -117.569028168832887, 33.985873943923018 ], [ -117.568758674699168, 33.985873944116385 ], [ -117.568938336588857, 33.986682427386313 ], [ -117.56920783269932, 33.986682427847988 ], [ -117.569207833184876, 33.986143438718798 ], [ -117.569028169562884, 33.986143438324291 ], [ -117.569028168832887, 33.985873943923018 ], [ -117.569297664274373, 33.98587394377293 ], [ -117.569297663737402, 33.986502764122925 ], [ -117.569567158994133, 33.986682427532955 ], [ -117.570375643240212, 33.986682428012649 ], [ -117.57100446334411, 33.987311248510316 ], [ -117.571004463466551, 33.987580743827891 ], [ -117.570734968827807, 33.987580743924774 ], [ -117.570734968590614, 33.987850237204832 ], [ -117.571004463343584, 33.987850238181117 ], [ -117.571363789166952, 33.988389227764088 ], [ -117.571363788806067, 33.988748553223061 ], [ -117.571094295394587, 33.989107879986229 ], [ -117.571004463818625, 33.989557036734517 ], [ -117.569926483527851, 33.98955703677602 ], [ -117.569567159585887, 33.989377374003617 ], [ -117.569567158872786, 33.989107879437299 ] ], [ [ -117.570195978033155, 33.98910787865433 ], [ -117.570195979248965, 33.989287541843012 ], [ -117.570375642922684, 33.989287542707103 ], [ -117.570375641292941, 33.989107879518436 ], [ -117.570195978033155, 33.98910787865433 ] ], [ [ -117.570195978727668, 33.98838922535375 ], [ -117.570106147777878, 33.988748553729266 ], [ -117.570645136462531, 33.988748552885184 ], [ -117.570645137519037, 33.988389226085253 ], [ -117.570195978727668, 33.98838922535375 ] ] ] } },
{ "type": "Feature", "properties": { "csb_id": "061825005238134", "acres": 10.4086622278419, "geoid": "06071" }, "geometry": { "type": "Polygon", "coordinates": [ [ [ -117.623735570762847, 33.936556434956039 ], [ -117.623376244442454, 33.936556435076774 ], [ -117.623376244140445, 33.936286940202031 ], [ -117.623106750065375, 33.936286939610874 ], [ -117.623106749436772, 33.936556434485603 ], [ -117.623376244442454, 33.936556435076774 ], [ -117.623735570179008, 33.936915761200176 ], [ -117.623735570762847, 33.936556434956039 ], [ -117.624005064706935, 33.936556434284725 ], [ -117.624274559733067, 33.936915760303563 ], [ -117.62427455989922, 33.937724244066828 ], [ -117.624005065107241, 33.937724244760126 ], [ -117.624005064702629, 33.938083570666457 ], [ -117.624274559919641, 33.938083571046761 ], [ -117.624274559893109, 33.938353065032594 ], [ -117.623735570212659, 33.938353064984163 ], [ -117.623735570895676, 33.937454749952195 ], [ -117.623376244931407, 33.937454750137299 ], [ -117.623376243110158, 33.937724245010962 ], [ -117.623196581660707, 33.937814075571673 ], [ -117.622837254761322, 33.93745474993348 ], [ -117.622208435071428, 33.936556434889553 ], [ -117.622208434339996, 33.935747951333646 ], [ -117.622567760853826, 33.935388624769743 ], [ -117.624364390875982, 33.935478456703933 ], [ -117.624274559169208, 33.936286940120851 ], [ -117.623735570523948, 33.936376771872638 ], [ -117.623735570762847, 33.936556434956039 ] ], [ [ -117.624005064946189, 33.93583778283989 ], [ -117.623825402663812, 33.935837782687244 ], [ -117.623825401802094, 33.936017445225303 ], [ -117.624005065559672, 33.936017445176049 ], [ -117.624005064946189, 33.93583778283989 ] ], [ [ -117.623466076221661, 33.93583778282067 ], [ -117.623376244843854, 33.935747950842192 ], [ -117.62337624442678, 33.935837782025835 ], [ -117.623466076221661, 33.93583778282067 ] ] ] } },
{ "type": "Feature", "properties": { "csb_id": "061825005238201", "acres": 2.9041530046574699, "geoid": "06071" }, "geometry": { "type": "Polygon", "coordinates": [ [ [ -117.620501635511602, 33.926764797796096 ], [ -117.619962645919301, 33.926764798130201 ], [ -117.619962646272796, 33.926225808547464 ], [ -117.620232140392318, 33.926225808928294 ], [ -117.620321972655177, 33.924968167354379 ], [ -117.620860961879302, 33.924429178462198 ], [ -117.620771129938561, 33.926225808476907 ], [ -117.620501635511602, 33.926764797796096 ] ] ] } }
]
}
