{
"type": "FeatureCollection",
"name": "06081",
"crs": { "type": "name", "properties": { "name": "urn:ogc:def:crs:OGC:1.3:CRS84" } },
"features": [
{ "type": "Feature", "properties": { "csb_id": "061825012336889", "acres": 10.482355874146, "geoid": "06081" }, "geometry": { "type": "Polygon", "coordinates": [ [ [ -122.510699460079607, 37.552412052584025 ], [ -122.509801144715297, 37.552412053488887 ], [ -122.509441819199509, 37.551962896435874 ], [ -122.509441818828023, 37.551693400382064 ], [ -122.509711313370659, 37.551423906420773 ], [ -122.509441819343678, 37.551154411643573 ], [ -122.50944181864044, 37.550795085077837 ], [ -122.509711313530929, 37.550525591168146 ], [ -122.511867270266535, 37.550615423655124 ], [ -122.511867270298126, 37.552052726977394 ], [ -122.511597775646237, 37.55268154840541 ], [ -122.510699459994981, 37.552681547849794 ], [ -122.510699460079607, 37.552412052584025 ] ], [ [ -122.511238449729689, 37.551962896481243 ], [ -122.511238449579693, 37.551783232690568 ], [ -122.511597775100554, 37.551783232237817 ], [ -122.511597775847733, 37.551513737881479 ], [ -122.510968954663582, 37.551513738132826 ], [ -122.510968954723921, 37.552052727311803 ], [ -122.511238449729689, 37.551962896481243 ] ] ] } },
{ "type": "Feature", "properties": { "csb_id": "061825012336958", "acres": 2.8948698478313899, "geoid": "06081" }, "geometry": { "type": "Polygon", "coordinates": [ [ [ -122.483300843802667, 37.537859345203252 ], [ -122.483570338701327, 37.537859345006773 ], [ -122.483570339375603, 37.538667829094202 ], [ -122.483031350144856, 37.539296649849611 ], [ -122.482672023923726, 37.539566144092348 ], [ -122.48240252957693, 37.53956614450351 ], [ -122.48240252854643, 37.538398334184954 ], [ -122.483031349781243, 37.538398334173309 ], [ -122.483300844513465, 37.538128839592765 ], [ -122.483300843802667, 37.537859345203252 ] ] ] } },
{ "type": "Feature", "properties": { "csb_id": "061825012337038", "acres": 7.2385928486464097, "geoid": "06081" }, "geometry": { "type": "Polygon", "coordinates": [ [ [ -122.499380687419603, 37.523576132452845 ], [ -122.499380687978871, 37.523845627126221 ], [ -122.500279002792226, 37.523845626873353 ], [ -122.500279002580697, 37.523576132320962 ], [ -122.499380687419603, 37.523576132452845 ], [ -122.499380688170973, 37.522677817373477 ], [ -122.500279002973841, 37.522677816746821 ], [ -122.500817992237558, 37.522947311365577 ], [ -122.500817992589631, 37.523576132195295 ], [ -122.500548497519631, 37.523845626925699 ], [ -122.50054849796858, 37.525013436531196 ], [ -122.501177318537117, 37.525013436338256 ], [ -122.501177318715307, 37.525282931513921 ], [ -122.500279002822069, 37.52528293103876 ], [ -122.50027900261054, 37.525013436599856 ], [ -122.499919677239959, 37.524743942078693 ], [ -122.499111192692894, 37.524743942198775 ], [ -122.49911119377559, 37.52411512171259 ], [ -122.49875186679823, 37.524115121146011 ], [ -122.498751867423607, 37.523845626739487 ], [ -122.499111193096496, 37.523845627306102 ], [ -122.499380687419603, 37.523576132452845 ] ], [ [ -122.499919677234743, 37.524474447842842 ], [ -122.500279003285712, 37.52447444741275 ], [ -122.500279003003712, 37.524115121404428 ], [ -122.499919677279451, 37.524115121222323 ], [ -122.499919677234743, 37.524474447842842 ] ] ] } },
{ "type": "Feature", "properties": { "csb_id": "061825012337053", "acres": 8.9799760973944807, "geoid": "06081" }, "geometry": { "type": "Polygon", "coordinates": [ [ [ -122.501716307096657, 37.521689670124118 ], [ -122.501716307818953, 37.521959164950438 ], [ -122.501985800564597, 37.521959165371179 ], [ -122.50198580215843, 37.521689669808026 ], [ -122.501716307096657, 37.521689670124118 ], [ -122.501716307786964, 37.521420175888721 ], [ -122.503243443604219, 37.521330344345508 ], [ -122.503782433051228, 37.521959164598108 ], [ -122.503782432958204, 37.522228659406828 ], [ -122.503512938378165, 37.522587985503677 ], [ -122.50288411726109, 37.522857479788691 ], [ -122.501716307485708, 37.522947311893553 ], [ -122.501177318095756, 37.522677816840954 ], [ -122.501177318308848, 37.52204899596633 ], [ -122.50027900279477, 37.522048996733737 ], [ -122.500279003681428, 37.521779501793603 ], [ -122.500548497637695, 37.521420175549743 ], [ -122.500817992190434, 37.521420175859319 ], [ -122.500817992570617, 37.521779501785282 ], [ -122.501716307096657, 37.521689670124118 ] ] ] } },
{ "type": "Feature", "properties": { "csb_id": "061825012337072", "acres": 17.520383321841301, "geoid": "06081" }, "geometry": { "type": "Polygon", "coordinates": [ [ [ -122.495158606801638, 37.517467589525282 ], [ -122.494889111856835, 37.517467588328394 ], [ -122.494889110997619, 37.517826915029069 ], [ -122.495158605520032, 37.517826914755837 ], [ -122.495158606801638, 37.517467589525282 ], [ -122.495787426822346, 37.517467589098025 ], [ -122.495787426702378, 37.517826915677553 ], [ -122.495428101002489, 37.518096410356996 ], [ -122.495158606285585, 37.518096410123903 ], [ -122.495158606422464, 37.518365903754798 ], [ -122.495428100705197, 37.518365903375674 ], [ -122.495428099944149, 37.518725229614418 ], [ -122.494260290979142, 37.518994723914275 ], [ -122.494260290385853, 37.519623545329935 ], [ -122.495158605508934, 37.520162534319176 ], [ -122.49542810050869, 37.520162534309996 ], [ -122.495428100177293, 37.519893039718355 ], [ -122.495787426257522, 37.519623545184913 ], [ -122.496955236424753, 37.519893039991189 ], [ -122.497224730969577, 37.519623545308207 ], [ -122.497853552000478, 37.519623545483981 ], [ -122.49785355140844, 37.519893039488082 ], [ -122.497584056598996, 37.519893039477701 ], [ -122.497584056962026, 37.520881186629587 ], [ -122.497224730545113, 37.521060849270192 ], [ -122.496416247523683, 37.521060849391581 ], [ -122.495787426240909, 37.520611691792922 ], [ -122.494889111514041, 37.520611691743731 ], [ -122.494889111275143, 37.52025236558346 ], [ -122.494350121880828, 37.520252366048211 ], [ -122.494350121707171, 37.520611691717264 ], [ -122.49372130141839, 37.520611691813755 ], [ -122.493721301870224, 37.519982870705476 ], [ -122.49309248094761, 37.519982870740535 ], [ -122.493092481093527, 37.519713376995696 ], [ -122.493361975071196, 37.519623545162339 ], [ -122.493361975223664, 37.51872522968101 ], [ -122.493990796215797, 37.518096408628878 ], [ -122.493990796291058, 37.517198093843234 ], [ -122.4951586060361, 37.517198094107222 ], [ -122.495158606801638, 37.517467589525282 ] ], [ [ -122.496326416079157, 37.520162534543992 ], [ -122.496416247692537, 37.520252365884097 ], [ -122.496416247589281, 37.520162534398658 ], [ -122.496326416079157, 37.520162534543992 ] ] ] } },
{ "type": "Feature", "properties": { "csb_id": "061825012337077", "acres": 6.0651608217604496, "geoid": "06081" }, "geometry": { "type": "Polygon", "coordinates": [ [ [ -122.498482371365398, 37.519982871095287 ], [ -122.498212878416396, 37.519623544895452 ], [ -122.498212877775345, 37.519084555719594 ], [ -122.498482372382156, 37.518994724411833 ], [ -122.498482372393553, 37.518096408862029 ], [ -122.499021361366644, 37.518096408958094 ], [ -122.499021361642491, 37.517826915790145 ], [ -122.499919676845295, 37.517916746399095 ], [ -122.49991967690562, 37.518365903373216 ], [ -122.499380686702168, 37.518994724271472 ], [ -122.499380688359523, 37.519264219062286 ], [ -122.499919676556928, 37.519264219104301 ], [ -122.499919677295935, 37.519623545133655 ], [ -122.499380686489729, 37.519623545091612 ], [ -122.499021361365422, 37.51989303994791 ], [ -122.498482371365398, 37.519982871095287 ] ], [ [ -122.499650181361062, 37.518365903775312 ], [ -122.499650182741846, 37.518186240453218 ], [ -122.499380687849481, 37.518186240258252 ], [ -122.499380687228992, 37.518365904192571 ], [ -122.499650181361062, 37.518365903775312 ] ] ] } },
{ "type": "Feature", "properties": { "csb_id": "061825012337090", "acres": 3.6195582627699299, "geoid": "06081" }, "geometry": { "type": "Polygon", "coordinates": [ [ [ -122.497584057126332, 37.518725229972659 ], [ -122.496685742467392, 37.51872522971702 ], [ -122.496685741972556, 37.518096409352928 ], [ -122.498212878058041, 37.517826914506685 ], [ -122.498482372393553, 37.518096408862029 ], [ -122.498482372382156, 37.518994724411833 ], [ -122.497584057126332, 37.518725229972659 ] ] ] } },
{ "type": "Feature", "properties": { "csb_id": "061825012337097", "acres": 3.0717839089377601, "geoid": "06081" }, "geometry": { "type": "Polygon", "coordinates": [ [ [ -122.497853551708147, 37.517826914240779 ], [ -122.497853551555806, 37.517467588270172 ], [ -122.497584057393212, 37.517198093454091 ], [ -122.497224731421269, 37.517198093783215 ], [ -122.496955236441607, 37.51692859939282 ], [ -122.496955237028502, 37.516569273205825 ], [ -122.497853552273043, 37.516569272931264 ], [ -122.498482372126745, 37.516928599468145 ], [ -122.498751867629863, 37.51692859956735 ], [ -122.498751866690171, 37.517198093664582 ], [ -122.49821287844378, 37.5175574200928 ], [ -122.498212878058041, 37.517826914506685 ], [ -122.497853551708147, 37.517826914240779 ] ] ] } },
{ "type": "Feature", "properties": { "csb_id": "061825012337098", "acres": 4.4609264085999403, "geoid": "06081" }, "geometry": { "type": "Polygon", "coordinates": [ [ [ -122.490397534583337, 37.517467588545856 ], [ -122.490397534784194, 37.517198093991809 ], [ -122.490128040196979, 37.517198093523803 ], [ -122.49012804043025, 37.517467588690188 ], [ -122.490397534621152, 37.517557420345057 ], [ -122.489858545701566, 37.517826914071165 ], [ -122.489499219053499, 37.517826914254563 ], [ -122.489499220123236, 37.517198093991063 ], [ -122.489858545532115, 37.516659104268399 ], [ -122.491655175938149, 37.516659104948658 ], [ -122.491565344664721, 37.517198093451483 ], [ -122.491295850547033, 37.517198093609373 ], [ -122.491026355216789, 37.51746758846086 ], [ -122.491026354174309, 37.517826913806395 ], [ -122.490756861227368, 37.517826915710593 ], [ -122.490397534583337, 37.517467588545856 ] ] ] } },
{ "type": "Feature", "properties": { "csb_id": "061825012337199", "acres": 3.1016506447148502, "geoid": "06081" }, "geometry": { "type": "Polygon", "coordinates": [ [ [ -122.38601329915268, 37.50498100604608 ], [ -122.385743804601816, 37.504801342523606 ], [ -122.385743804408676, 37.503903027904691 ], [ -122.38664211989861, 37.503903027763123 ], [ -122.386911614541077, 37.504442016399466 ], [ -122.387181108382535, 37.504531848508257 ], [ -122.38718110848032, 37.504801343000821 ], [ -122.38601329915268, 37.50498100604608 ] ] ] } },
{ "type": "Feature", "properties": { "csb_id": "061825012337202", "acres": 3.93333562676606, "geoid": "06081" }, "geometry": { "type": "Polygon", "coordinates": [ [ [ -122.449703852876667, 37.505430163240653 ], [ -122.449703852469611, 37.505070837958094 ], [ -122.449434357844638, 37.505070837916342 ], [ -122.449434358013733, 37.504531848326927 ], [ -122.449973346959169, 37.504531847935851 ], [ -122.449973347233907, 37.503543702866679 ], [ -122.449703852818018, 37.503543701828747 ], [ -122.449703853478226, 37.502914881897759 ], [ -122.449973347180531, 37.502914880729499 ], [ -122.450602167854441, 37.503274206751861 ], [ -122.450602167896477, 37.504172522084552 ], [ -122.450332673394442, 37.504172521949634 ], [ -122.450332672686031, 37.505070837408574 ], [ -122.449973346923386, 37.505430164033555 ], [ -122.449703852876667, 37.505430163240653 ] ] ] } },
{ "type": "Feature", "properties": { "csb_id": "061825012337214", "acres": 4.2661575099452502, "geoid": "06081" }, "geometry": { "type": "Polygon", "coordinates": [ [ [ -122.384306500366662, 37.502016565267191 ], [ -122.384306499883806, 37.501836902529568 ], [ -122.382779363338983, 37.501747070629911 ], [ -122.382779364000228, 37.501477576495937 ], [ -122.383048858664083, 37.501208081404691 ], [ -122.384575993979112, 37.501118250350949 ], [ -122.3851149837473, 37.500938587187932 ], [ -122.385114983548689, 37.501836902853263 ], [ -122.384845489369454, 37.502016565466562 ], [ -122.384306500366662, 37.502016565267191 ] ] ] } },
{ "type": "Feature", "properties": { "csb_id": "061825012337370", "acres": 2.9368702705555001, "geoid": "06081" }, "geometry": { "type": "Polygon", "coordinates": [ [ [ -122.418442480959953, 37.485757058451895 ], [ -122.419340795362814, 37.485936721643732 ], [ -122.419340795968012, 37.486655373897875 ], [ -122.418801807379467, 37.486924868747543 ], [ -122.417943647968656, 37.486854293278199 ], [ -122.417903491644338, 37.486385879575664 ], [ -122.418172986512332, 37.486296047858723 ], [ -122.418442480959953, 37.485757058451895 ] ], [ [ -122.418442480461991, 37.486296048300922 ], [ -122.418442480605307, 37.486565542640776 ], [ -122.418711975532844, 37.486565542485678 ], [ -122.418711975509567, 37.486296047900964 ], [ -122.418442480461991, 37.486296048300922 ] ] ] } },
{ "type": "Feature", "properties": { "csb_id": "061825012337427", "acres": 4.2574576984746999, "geoid": "06081" }, "geometry": { "type": "Polygon", "coordinates": [ [ [ -122.398230386403185, 37.481265482440932 ], [ -122.398499881569592, 37.481265482842822 ], [ -122.398499881652285, 37.481894302810353 ], [ -122.39885920698255, 37.481894302823711 ], [ -122.398859207268544, 37.482163797425798 ], [ -122.397960892160114, 37.482792618507936 ], [ -122.396793082465948, 37.482792618644687 ], [ -122.396793082462892, 37.48252312384632 ], [ -122.397601566170664, 37.481624808652157 ], [ -122.398230386512964, 37.481624808642316 ], [ -122.398230386403185, 37.481265482440932 ] ] ] } },
{ "type": "Feature", "properties": { "csb_id": "061825012337446", "acres": 9.6061662508044598, "geoid": "06081" }, "geometry": { "type": "Polygon", "coordinates": [ [ [ -122.401823647738823, 37.482163797402599 ], [ -122.401247967908958, 37.48275594923598 ], [ -122.400925332964121, 37.48279261806907 ], [ -122.400925332395204, 37.482523123766796 ], [ -122.401194827102714, 37.482523123954181 ], [ -122.401194827279227, 37.48162480888297 ], [ -122.40092533222429, 37.48162480857161 ], [ -122.400925332622251, 37.480995987579973 ], [ -122.401554152804763, 37.480995987787303 ], [ -122.401554153561079, 37.480726493460885 ], [ -122.400925332053362, 37.480726493129623 ], [ -122.400925332582318, 37.480456998412343 ], [ -122.401554153340143, 37.480097672175603 ], [ -122.40236263709032, 37.48009767302544 ], [ -122.402721963727785, 37.479828178136458 ], [ -122.402721963540657, 37.479558682979516 ], [ -122.403889773005403, 37.479558683279414 ], [ -122.40388977322938, 37.480097672709938 ], [ -122.402991457975133, 37.480097672298534 ], [ -122.40299145844601, 37.480726493456757 ], [ -122.403260952905114, 37.480726493234378 ], [ -122.403260952538957, 37.480995987926342 ], [ -122.402991457953917, 37.481265482328958 ], [ -122.402093142999092, 37.481265482272271 ], [ -122.402093143078417, 37.481894303453629 ], [ -122.401554153367215, 37.481894302907257 ], [ -122.401554152924007, 37.482163797995533 ], [ -122.401823647738823, 37.482163797402599 ] ] ] } },
{ "type": "Feature", "properties": { "csb_id": "061825012337467", "acres": 8.9484541591760998, "geoid": "06081" }, "geometry": { "type": "Polygon", "coordinates": [ [ [ -122.414040735817068, 37.477402726903826 ], [ -122.414040736432696, 37.477133232417891 ], [ -122.413681409226058, 37.477133231789963 ], [ -122.413681409717086, 37.476234916755729 ], [ -122.41431022996791, 37.475965422484634 ], [ -122.415208545641462, 37.475875590565998 ], [ -122.415478040052136, 37.475067106701545 ], [ -122.415747534820056, 37.475067106631421 ], [ -122.415747535466991, 37.475606096410722 ], [ -122.41601702933616, 37.475875590598292 ], [ -122.416286524057242, 37.475875590925988 ], [ -122.416735177394003, 37.476506868045156 ], [ -122.41547803987271, 37.476863737400421 ], [ -122.415148014502861, 37.477612216477084 ], [ -122.414849219886818, 37.477762053207336 ], [ -122.414579725376726, 37.477762052759736 ], [ -122.414040735817068, 37.477402726903826 ] ], [ [ -122.414579724654757, 37.477133232409592 ], [ -122.414579725030578, 37.476504411693163 ], [ -122.414310230692138, 37.476504411627566 ], [ -122.414310230230498, 37.477133231854374 ], [ -122.414579724654757, 37.477133232409592 ] ], [ [ -122.41493905094211, 37.476863737345639 ], [ -122.415208545799672, 37.476863737120233 ], [ -122.415208545670794, 37.476414579476781 ], [ -122.41493905134503, 37.476414579946976 ], [ -122.41493905094211, 37.476863737345639 ] ] ] } },
{ "type": "Feature", "properties": { "csb_id": "061825012337468", "acres": 4.7958375532911903, "geoid": "06081" }, "geometry": { "type": "Polygon", "coordinates": [ [ [ -122.41637635561338, 37.47560609608788 ], [ -122.416376355851213, 37.475246769987812 ], [ -122.416645849717938, 37.475067106944884 ], [ -122.418172985888106, 37.474797612265142 ], [ -122.418172985745841, 37.474438286077778 ], [ -122.418801806820625, 37.474438286572713 ], [ -122.418747767970856, 37.475187818135353 ], [ -122.41817298636478, 37.475606096470571 ], [ -122.418172986101453, 37.475336601471767 ], [ -122.417544165888287, 37.475336601403583 ], [ -122.417544165674968, 37.475965422339236 ], [ -122.417274671193169, 37.476145085362745 ], [ -122.416915344223099, 37.476145085098871 ], [ -122.416645850194925, 37.475875591087416 ], [ -122.416645850767722, 37.475606096232312 ], [ -122.41637635561338, 37.47560609608788 ] ] ] } },
{ "type": "Feature", "properties": { "csb_id": "061825012337479", "acres": 7.4686067620393999, "geoid": "06081" }, "geometry": { "type": "Polygon", "coordinates": [ [ [ -122.431288390065532, 37.473899298167012 ], [ -122.431288388869902, 37.473270476240494 ], [ -122.430929063616418, 37.473000982986811 ], [ -122.430300242692965, 37.472911149460529 ], [ -122.430300242805131, 37.47228233077341 ], [ -122.430659569110006, 37.472282331070431 ], [ -122.430659569513992, 37.47255182619157 ], [ -122.430929063456489, 37.47255182495104 ], [ -122.430929063201901, 37.472012835054414 ], [ -122.430659568392628, 37.472012835068824 ], [ -122.430659568855077, 37.47183317146407 ], [ -122.430929063136659, 37.471653508692839 ], [ -122.431557883354529, 37.47165350866505 ], [ -122.431557884322643, 37.472282330537062 ], [ -122.432456199533817, 37.47228232986209 ], [ -122.43245619925743, 37.472102666395244 ], [ -122.432725693764368, 37.472102667178262 ], [ -122.432995188211208, 37.472372160782811 ], [ -122.432995189091415, 37.472641656753368 ], [ -122.432725694172063, 37.473000982573708 ], [ -122.432456200035062, 37.473270477587072 ], [ -122.431827378361348, 37.473270476747345 ], [ -122.431827378788583, 37.47389929707974 ], [ -122.431288390065532, 37.473899298167012 ] ] ] } },
{ "type": "Feature", "properties": { "csb_id": "061825012337487", "acres": 2.8386944436639099, "geoid": "06081" }, "geometry": { "type": "Polygon", "coordinates": [ [ [ -122.41996961705766, 37.470934856144297 ], [ -122.420239111412684, 37.47093485678468 ], [ -122.420508605880542, 37.471204351332162 ], [ -122.420508605993362, 37.471473845814266 ], [ -122.419969617292224, 37.471473846112346 ], [ -122.419969617069697, 37.472102666811089 ], [ -122.419700122086184, 37.472372161330405 ], [ -122.419340796434582, 37.472372160876922 ], [ -122.418801806665755, 37.472102666370183 ], [ -122.418801806943122, 37.471833172306802 ], [ -122.419340796371714, 37.471833172037854 ], [ -122.419340796115407, 37.471204351653157 ], [ -122.419969616626119, 37.471204351261989 ], [ -122.41996961705766, 37.470934856144297 ] ] ] } },
{ "type": "Feature", "properties": { "csb_id": "061825012337544", "acres": 4.8856348153073998, "geoid": "06081" }, "geometry": { "type": "Polygon", "coordinates": [ [ [ -122.422035741873131, 37.454765181668307 ], [ -122.420778101055888, 37.454855013306478 ], [ -122.4207781009993, 37.455034676148941 ], [ -122.420239110995837, 37.455034675776361 ], [ -122.420239111389463, 37.454765181876127 ], [ -122.4205086063604, 37.454405855348696 ], [ -122.420508605977034, 37.453866866316226 ], [ -122.420239110926957, 37.453687203718246 ], [ -122.420778100825714, 37.453597371409323 ], [ -122.420778100938918, 37.453238045552105 ], [ -122.421406920676645, 37.453238045726614 ], [ -122.421406920548478, 37.453866866194176 ], [ -122.421676416016425, 37.453866867216384 ], [ -122.422035742480034, 37.454136361011649 ], [ -122.422035741873131, 37.454765181668307 ] ] ] } },
{ "type": "Feature", "properties": { "csb_id": "061825012337592", "acres": 4.6706885657348298, "geoid": "06081" }, "geometry": { "type": "Polygon", "coordinates": [ [ [ -122.427964622855612, 37.447129501516542 ], [ -122.426796812908833, 37.447129502061799 ], [ -122.426796812471622, 37.447398996360057 ], [ -122.426167991680003, 37.447398996361876 ], [ -122.425629003115944, 37.447129501558663 ], [ -122.425629002501196, 37.446770175463911 ], [ -122.425898497869454, 37.446500680866308 ], [ -122.426527317643391, 37.446500680789214 ], [ -122.42652731873666, 37.446770175509137 ], [ -122.42706630756787, 37.446770175707179 ], [ -122.427066307584923, 37.446231186735737 ], [ -122.42742563347845, 37.446231186193948 ], [ -122.4274256331271, 37.446500681058573 ], [ -122.428593443721141, 37.446680344280374 ], [ -122.42859344315228, 37.447039670137542 ], [ -122.428234116871621, 37.447309165005912 ], [ -122.427964622461431, 37.447309165037794 ], [ -122.427964622855612, 37.447129501516542 ] ] ] } },
{ "type": "Feature", "properties": { "csb_id": "061825012337757", "acres": 7.5422064407395402, "geoid": "06081" }, "geometry": { "type": "Polygon", "coordinates": [ [ [ -122.427695128374808, 37.42179701102441 ], [ -122.427066307445742, 37.421797010244973 ], [ -122.427066307586173, 37.422336000609313 ], [ -122.426437486954299, 37.422336000130542 ], [ -122.426167992823167, 37.421527516646286 ], [ -122.426437487371402, 37.420539369341277 ], [ -122.426796813022676, 37.420539368964249 ], [ -122.427335801684222, 37.420808864222138 ], [ -122.428323948885108, 37.420808863494237 ], [ -122.428862938715909, 37.421168190713622 ], [ -122.428862937621844, 37.421437684429023 ], [ -122.428593443893305, 37.421707180390953 ], [ -122.427964622782028, 37.422066504040785 ], [ -122.427695128374268, 37.422066506279194 ], [ -122.427695128374808, 37.42179701102441 ] ] ] } },
{ "type": "Feature", "properties": { "csb_id": "061825012337789", "acres": 16.368153175717701, "geoid": "06081" }, "geometry": { "type": "Polygon", "coordinates": [ [ [ -122.425539171615569, 37.420808863328539 ], [ -122.425269676825565, 37.419730885689546 ], [ -122.425269676561342, 37.419012233283041 ], [ -122.425000182837024, 37.418473244232423 ], [ -122.425000181767643, 37.417574928759777 ], [ -122.42589849784882, 37.417305433824552 ], [ -122.426167992616158, 37.416946107884655 ], [ -122.426796813253304, 37.416946107927707 ], [ -122.426796812462428, 37.41730543439143 ], [ -122.427695127544283, 37.417574928497828 ], [ -122.42769512796113, 37.418473243964634 ], [ -122.426527318115973, 37.418563075288496 ], [ -122.42652731826945, 37.418832569845804 ], [ -122.427066307368108, 37.419102065225054 ], [ -122.427964622693665, 37.41910206462957 ], [ -122.427964623127252, 37.418832569729119 ], [ -122.428323947421319, 37.418832570719715 ], [ -122.428593444799176, 37.419102064685411 ], [ -122.428593442380432, 37.419641053924529 ], [ -122.427964622923298, 37.419641054114962 ], [ -122.427964622846758, 37.419461390963654 ], [ -122.42616799259801, 37.419461390906584 ], [ -122.426167991884071, 37.419910548399201 ], [ -122.426437486467492, 37.419910548691838 ], [ -122.426437487371402, 37.420539369341277 ], [ -122.425898497562343, 37.420539369139554 ], [ -122.425898497943166, 37.420808863892404 ], [ -122.425539171615569, 37.420808863328539 ] ] ] } },
{ "type": "Feature", "properties": { "csb_id": "061825012337815", "acres": 2.3412154656309299, "geoid": "06081" }, "geometry": { "type": "Polygon", "coordinates": [ [ [ -122.424730687489031, 37.41577829820249 ], [ -122.424730688333653, 37.415598635437433 ], [ -122.425000182642179, 37.415598635489346 ], [ -122.425000182715792, 37.415239309069719 ], [ -122.42437136194134, 37.415239308549019 ], [ -122.424371360969985, 37.414700319636367 ], [ -122.424640856757662, 37.414879982936398 ], [ -122.425539171522928, 37.414879982512687 ], [ -122.42553917166093, 37.414610488343989 ], [ -122.42589849764255, 37.414610488790679 ], [ -122.426167992546638, 37.41487998274971 ], [ -122.426167992494399, 37.415149477384652 ], [ -122.425539171698006, 37.415149477515762 ], [ -122.425269677426712, 37.415508803863496 ], [ -122.425269676311814, 37.415778297953359 ], [ -122.424730687489031, 37.41577829820249 ] ] ] } },
{ "type": "Feature", "properties": { "csb_id": "061825012337831", "acres": 3.8988198431237699, "geoid": "06081" }, "geometry": { "type": "Polygon", "coordinates": [ [ [ -122.429761253431593, 37.414251161984652 ], [ -122.428593443533771, 37.41425116243299 ], [ -122.428593443758757, 37.41371217273965 ], [ -122.429132432089929, 37.413532510242554 ], [ -122.430659568930849, 37.413442678715136 ], [ -122.430659569270674, 37.413981667963405 ], [ -122.430300242415043, 37.413981667626345 ], [ -122.430300242461811, 37.414610488623566 ], [ -122.429761253651137, 37.414610488025851 ], [ -122.429761253431593, 37.414251161984652 ] ] ] } },
{ "type": "Feature", "properties": { "csb_id": "061825012337842", "acres": 3.8204976137361402, "geoid": "06081" }, "geometry": { "type": "Polygon", "coordinates": [ [ [ -122.422305236308262, 37.413173183898898 ], [ -122.421766247253316, 37.413173183615761 ], [ -122.421766247060404, 37.413532510525428 ], [ -122.419969616700243, 37.413532510206622 ], [ -122.41996961648897, 37.413173184398083 ], [ -122.420508606372593, 37.412903689260716 ], [ -122.421766246966712, 37.412903689662144 ], [ -122.4214069217591, 37.412544363244564 ], [ -122.422035742306278, 37.412544362936046 ], [ -122.422035742006003, 37.412903689306269 ], [ -122.422664562144277, 37.412903689296385 ], [ -122.422664562628896, 37.413532509913054 ], [ -122.42230523621366, 37.413532510440348 ], [ -122.422305236308262, 37.413173183898898 ] ] ] } },
{ "type": "Feature", "properties": { "csb_id": "061825012337857", "acres": 21.9925584248954, "geoid": "06081" }, "geometry": { "type": "Polygon", "coordinates": [ [ [ -122.425269677198699, 37.414251162584421 ], [ -122.425000182346253, 37.413981667801977 ], [ -122.425000181931352, 37.413712173186276 ], [ -122.424640856530388, 37.413712172778283 ], [ -122.424640855728683, 37.412813857752056 ], [ -122.424371361330245, 37.412813858249329 ], [ -122.424371361633263, 37.412634194697638 ], [ -122.425000182778348, 37.412634194854903 ], [ -122.425000181755181, 37.412274868333114 ], [ -122.424640856197811, 37.412005374015891 ], [ -122.424640856004231, 37.410208743312424 ], [ -122.424101866672828, 37.410118912589738 ], [ -122.424101865910714, 37.409849417510976 ], [ -122.424371361141596, 37.409579923247023 ], [ -122.424640855724803, 37.409579922874634 ], [ -122.42464085483725, 37.409849417853927 ], [ -122.425539171369678, 37.410388406470233 ], [ -122.425539171394377, 37.410747733090162 ], [ -122.426796812537702, 37.411646047664398 ], [ -122.427335800071518, 37.411646048548832 ], [ -122.427335801596485, 37.411017227552847 ], [ -122.427964620498258, 37.4110172274424 ], [ -122.427964619941591, 37.411915542987884 ], [ -122.427335800335783, 37.411915542486668 ], [ -122.427335801581748, 37.412813857525201 ], [ -122.427695127599904, 37.413173184017815 ], [ -122.427695127756209, 37.413712173194099 ], [ -122.42706630768167, 37.413712172648523 ], [ -122.426796813094697, 37.413173183589095 ], [ -122.426796812569179, 37.413981667625997 ], [ -122.426167991606519, 37.414071498948019 ], [ -122.42616799204167, 37.414251162292246 ], [ -122.425269677198699, 37.414251162584421 ] ], [ [ -122.426437486282893, 37.412185036867335 ], [ -122.426437486768123, 37.411915542585085 ], [ -122.426167991553825, 37.411915542409872 ], [ -122.426167992598351, 37.412185037060212 ], [ -122.426437486282893, 37.412185036867335 ] ] ] } },
{ "type": "Feature", "properties": { "csb_id": "061825012337861", "acres": 18.012357854725501, "geoid": "06081" }, "geometry": { "type": "Polygon", "coordinates": [ [ [ -122.423473045840964, 37.413712173395737 ], [ -122.42266456258487, 37.411646048289285 ], [ -122.423473046557575, 37.411646047786434 ], [ -122.42356287826469, 37.411107058602397 ], [ -122.422383509900982, 37.410938975722097 ], [ -122.422305236155196, 37.409579922907923 ], [ -122.422035742040507, 37.409579922633625 ], [ -122.421766247361489, 37.408951102047354 ], [ -122.422574730784817, 37.409220597050194 ], [ -122.422574731293409, 37.409849417320267 ], [ -122.424101866843415, 37.409939249982934 ], [ -122.424101866672828, 37.410118912589738 ], [ -122.424640856004231, 37.410208743312424 ], [ -122.424640856197811, 37.412005374015891 ], [ -122.425000181755181, 37.412274868333114 ], [ -122.425000182778348, 37.412634194854903 ], [ -122.424371361633263, 37.412634194697638 ], [ -122.424371361069333, 37.413712172785644 ], [ -122.424640856530388, 37.413712172778283 ], [ -122.424640855642835, 37.413981667393998 ], [ -122.425000182346253, 37.413981667801977 ], [ -122.425269677198699, 37.414251162584421 ], [ -122.423473046096916, 37.414251162115185 ], [ -122.423473045840964, 37.413712173395737 ] ], [ [ -122.423562877796996, 37.410208743790371 ], [ -122.423203551779764, 37.410208743049559 ], [ -122.423203552258073, 37.410388406866808 ], [ -122.423562877389145, 37.410478237734544 ], [ -122.423562877796996, 37.410208743790371 ] ] ] } },
{ "type": "Feature", "properties": { "csb_id": "061825012337901", "acres": 7.1125216132017499, "geoid": "06081" }, "geometry": { "type": "Polygon", "coordinates": [ [ [ -122.41574753458643, 37.407423966614417 ], [ -122.416106861477346, 37.406345988246422 ], [ -122.416376355468756, 37.40634598794982 ], [ -122.416645850300256, 37.406615481959179 ], [ -122.416645849958087, 37.406974808787091 ], [ -122.417544165269334, 37.406974808921547 ], [ -122.418172986298345, 37.407244303120734 ], [ -122.418172985732895, 37.407783292007146 ], [ -122.417005176216733, 37.407873124487203 ], [ -122.417005176585576, 37.408412113019715 ], [ -122.416376355257185, 37.408412112894993 ], [ -122.416017029203005, 37.40832228178504 ], [ -122.41574753458643, 37.407423966614417 ] ] ] } },
{ "type": "Feature", "properties": { "csb_id": "061825012337914", "acres": 55.399064996746397, "geoid": "06081" }, "geometry": { "type": "Polygon", "coordinates": [ [ [ -122.420239111619807, 37.412813857397346 ], [ -122.41961029005148, 37.41254436324386 ], [ -122.419610290488478, 37.411915542419038 ], [ -122.419969617081748, 37.41191554251111 ], [ -122.419969616427721, 37.411735879639743 ], [ -122.419340795664738, 37.411735879179275 ], [ -122.419071301929506, 37.411915542310709 ], [ -122.418711975447351, 37.412544363207203 ], [ -122.41871197547313, 37.412813857562561 ], [ -122.418172985570251, 37.412813857882078 ], [ -122.417813659743857, 37.412544363268424 ], [ -122.417813660239005, 37.412185036728943 ], [ -122.418172986256664, 37.412185036987168 ], [ -122.41871197517851, 37.41191554238042 ], [ -122.418711975152704, 37.411646047946057 ], [ -122.419071301466602, 37.411376552928466 ], [ -122.419071301548172, 37.411107059059852 ], [ -122.418442480629153, 37.410837564589961 ], [ -122.417903491026451, 37.409939248558949 ], [ -122.417274670727238, 37.409939249043354 ], [ -122.417005176139966, 37.409669754397406 ], [ -122.417005176206303, 37.409040933344251 ], [ -122.417544165393423, 37.409040933187747 ], [ -122.417813659619426, 37.408681607774128 ], [ -122.417813659910237, 37.40787312378766 ], [ -122.418172985732895, 37.407783292007146 ], [ -122.418172986563988, 37.407513797453369 ], [ -122.418442480556379, 37.407513797229299 ], [ -122.418442480577937, 37.406974808908437 ], [ -122.418172985935328, 37.406345987771189 ], [ -122.417903491475798, 37.406345987518833 ], [ -122.417903491090215, 37.406076493327838 ], [ -122.41817298615095, 37.405717167506516 ], [ -122.418801806578472, 37.405447672301989 ], [ -122.419700122388818, 37.405447672675258 ], [ -122.420688269340204, 37.406076493130776 ], [ -122.420688269322767, 37.406345987809601 ], [ -122.420239111632299, 37.406345988064004 ], [ -122.420239111083617, 37.406615482474088 ], [ -122.420867932256314, 37.406884977215022 ], [ -122.421137426419676, 37.407513797894289 ], [ -122.421766247428707, 37.409849417110586 ], [ -122.421406921606135, 37.409939248920246 ], [ -122.421406920984211, 37.410478237938648 ], [ -122.422226962587942, 37.410915816070158 ], [ -122.422484899938681, 37.411735879449679 ], [ -122.422035742139641, 37.412274868682239 ], [ -122.422035742306278, 37.412544362936046 ], [ -122.4214069217591, 37.412544363244564 ], [ -122.42176624775928, 37.412813857522053 ], [ -122.420239111619807, 37.412813857397346 ] ], [ [ -122.419700122159512, 37.410837564450816 ], [ -122.419340795523439, 37.411017227465145 ], [ -122.419340796298968, 37.411376553649866 ], [ -122.419700122167853, 37.411376553191324 ], [ -122.419700122159512, 37.410837564450816 ] ], [ [ -122.419969616352489, 37.410208743583247 ], [ -122.419700121836726, 37.410208743275469 ], [ -122.419700121840918, 37.410478237712937 ], [ -122.419969616236742, 37.41047823826564 ], [ -122.419969616352489, 37.410208743583247 ], [ -122.420239110868252, 37.410208743293133 ], [ -122.420239111729316, 37.410478237975475 ], [ -122.421137426746071, 37.410478237755761 ], [ -122.421137426232193, 37.410208743196705 ], [ -122.420508606365672, 37.409939248925262 ], [ -122.419969616468236, 37.409939248877095 ], [ -122.419969616352489, 37.410208743583247 ] ], [ [ -122.418442480885176, 37.408412112969572 ], [ -122.41817298657719, 37.408322281411536 ], [ -122.418172985830267, 37.408412112703914 ], [ -122.418442480885176, 37.408412112969572 ] ] ] } },
{ "type": "Feature", "properties": { "csb_id": "061825012337965", "acres": 20.016657701077701, "geoid": "06081" }, "geometry": { "type": "Polygon", "coordinates": [ [ [ -122.415747534959195, 37.400327275523182 ], [ -122.415478040692904, 37.400327275644457 ], [ -122.415478040277577, 37.400596769489169 ], [ -122.415747534423886, 37.400596769612761 ], [ -122.415747534959195, 37.400327275523182 ], [ -122.416017029538395, 37.400327275662036 ], [ -122.416017028883147, 37.400596769996433 ], [ -122.416376356238374, 37.400596770191051 ], [ -122.416645850753937, 37.400866265695846 ], [ -122.416376356101708, 37.400866265604499 ], [ -122.416376356337608, 37.401225591763847 ], [ -122.416645851195526, 37.401225592100054 ], [ -122.416645850753937, 37.400866265695846 ], [ -122.417005176798398, 37.4005967705776 ], [ -122.41727467114805, 37.400686601162384 ], [ -122.41727467108673, 37.400866264318736 ], [ -122.417813659762658, 37.400866264696916 ], [ -122.417813660171277, 37.401764580685231 ], [ -122.41871197566546, 37.401764579429809 ], [ -122.418711975908479, 37.402123907073381 ], [ -122.417813659953978, 37.402662894691559 ], [ -122.417274670473446, 37.402662895296913 ], [ -122.41601702933275, 37.401764579933221 ], [ -122.41395090417528, 37.401764579736152 ], [ -122.412783094984704, 37.401495086134737 ], [ -122.412783094568681, 37.400866264977168 ], [ -122.413950904846089, 37.400866265574464 ], [ -122.413950904061238, 37.400596769545565 ], [ -122.413681409286184, 37.400596770215508 ], [ -122.413681409790954, 37.400327275020729 ], [ -122.414310229958005, 37.400327275020018 ], [ -122.414310230638222, 37.399788286398341 ], [ -122.414579724975013, 37.399428961188683 ], [ -122.415208546002802, 37.399428960216383 ], [ -122.415208546020281, 37.399698454754201 ], [ -122.415747534842609, 37.399518791639359 ], [ -122.415747534959195, 37.400327275523182 ] ], [ [ -122.414579724728043, 37.401225590461245 ], [ -122.414849219743772, 37.401225591964923 ], [ -122.414849219243379, 37.401045927479935 ], [ -122.414579725817518, 37.401045928550538 ], [ -122.414579724728043, 37.401225590461245 ] ], [ [ -122.416915345145199, 37.401764579831713 ], [ -122.417274671141286, 37.401854410936863 ], [ -122.417274671405991, 37.401764581656899 ], [ -122.416915345145199, 37.401764579831713 ] ] ] } },
{ "type": "Feature", "properties": { "csb_id": "061825012337975", "acres": 3.5957921031264202, "geoid": "06081" }, "geometry": { "type": "Polygon", "coordinates": [ [ [ -122.417544165088302, 37.400596769945921 ], [ -122.41727467114805, 37.400686601162384 ], [ -122.416645850483462, 37.400327275458217 ], [ -122.416915344947085, 37.39969845454241 ], [ -122.417544166055052, 37.399698454959506 ], [ -122.417544165465259, 37.399518791733996 ], [ -122.417813659775689, 37.399518791931726 ], [ -122.418172985595675, 37.399698454326824 ], [ -122.418172986694969, 37.400866264601071 ], [ -122.417544165268211, 37.400866264377804 ], [ -122.417544165088302, 37.400596769945921 ] ], [ [ -122.417903491068074, 37.400147612268675 ], [ -122.417544165825092, 37.400057780765472 ], [ -122.417544165415237, 37.400147612056969 ], [ -122.417903491068074, 37.400147612268675 ] ] ] } },
{ "type": "Feature", "properties": { "csb_id": "061825012337976", "acres": 4.3110420425215503, "geoid": "06081" }, "geometry": { "type": "Polygon", "coordinates": [ [ [ -122.412783094100149, 37.400327275467291 ], [ -122.412513598771966, 37.400057780654301 ], [ -122.412513598754543, 37.399428960546352 ], [ -122.413411914872455, 37.39942896050291 ], [ -122.413411915271396, 37.399698454429725 ], [ -122.414310230638222, 37.399788286398341 ], [ -122.414310230601956, 37.400147613300909 ], [ -122.413681409790954, 37.400327275020729 ], [ -122.413681409286184, 37.400596770215508 ], [ -122.413950904061238, 37.400596769545565 ], [ -122.413950904846089, 37.400866265574464 ], [ -122.412783094568681, 37.400866264977168 ], [ -122.412783094100149, 37.400327275467291 ] ] ] } },
{ "type": "Feature", "properties": { "csb_id": "061825012337988", "acres": 4.9969194102701104, "geoid": "06081" }, "geometry": { "type": "Polygon", "coordinates": [ [ [ -122.416017029088763, 37.39915946517165 ], [ -122.415747535064995, 37.399249296595769 ], [ -122.416376355607625, 37.399159465858133 ], [ -122.416915344852868, 37.399428960496422 ], [ -122.416645850483462, 37.400327275458217 ], [ -122.416376356238374, 37.400596770191051 ], [ -122.416017028883147, 37.400596769996433 ], [ -122.416017029538395, 37.400327275662036 ], [ -122.415747534959195, 37.400327275523182 ], [ -122.415747534842609, 37.399518791639359 ], [ -122.414579724975013, 37.399428961188683 ], [ -122.414579724417365, 37.399159465400416 ], [ -122.415208545596442, 37.398800139616455 ], [ -122.416017029492565, 37.398800139012216 ], [ -122.416017029088763, 37.39915946517165 ] ] ] } },
{ "type": "Feature", "properties": { "csb_id": "061825012338063", "acres": 6.4473504893352303, "geoid": "06081" }, "geometry": { "type": "Polygon", "coordinates": [ [ [ -122.410716969547167, 37.396284856319788 ], [ -122.410716969527726, 37.395656036035867 ], [ -122.410447474954452, 37.395656036265912 ], [ -122.410447474490752, 37.395386541607913 ], [ -122.41071696919542, 37.395027214762933 ], [ -122.411615284467146, 37.394757720563881 ], [ -122.412513599766669, 37.394757720317152 ], [ -122.412513599784091, 37.395386541396512 ], [ -122.413142420516422, 37.395656035858202 ], [ -122.413142420251575, 37.395925530979326 ], [ -122.411615284870692, 37.395925530321882 ], [ -122.411615284500684, 37.396284856706224 ], [ -122.410716969547167, 37.396284856319788 ] ] ] } },
{ "type": "Feature", "properties": { "csb_id": "061825012338082", "acres": 7.2216923124247296, "geoid": "06081" }, "geometry": { "type": "Polygon", "coordinates": [ [ [ -122.240576054116929, 37.392601763959391 ], [ -122.24030655949737, 37.392601763890347 ], [ -122.24030655990255, 37.392871258928587 ], [ -122.239947233952648, 37.392871258807688 ], [ -122.239677739443792, 37.392601763406724 ], [ -122.239677738857793, 37.392242437953598 ], [ -122.240306559070063, 37.391972943471423 ], [ -122.240306558975732, 37.391703449211199 ], [ -122.241204874847753, 37.391703448932631 ], [ -122.241743863647187, 37.391972944140221 ], [ -122.241743864927642, 37.392871258710699 ], [ -122.24300150544704, 37.393140752690563 ], [ -122.243270998958266, 37.393500079566209 ], [ -122.243270999299526, 37.393769574138055 ], [ -122.242642178184255, 37.393769574065594 ], [ -122.242642179268657, 37.393589910447957 ], [ -122.241833696553513, 37.393500079742928 ], [ -122.241474368329378, 37.392961089144066 ], [ -122.240576054090724, 37.392871258382378 ], [ -122.240576054116929, 37.392601763959391 ] ] ] } },
{ "type": "Feature", "properties": { "csb_id": "061825012338166", "acres": 6.8407276700023898, "geoid": "06081" }, "geometry": { "type": "Polygon", "coordinates": [ [ [ -122.234377679043348, 37.379576192673014 ], [ -122.234377679131995, 37.379306697382084 ], [ -122.234018353042046, 37.379306697988589 ], [ -122.234018352437715, 37.379576192177801 ], [ -122.234377679043348, 37.379576192673014 ], [ -122.234377678643966, 37.379845687081044 ], [ -122.234916667918341, 37.379845686867341 ], [ -122.234916668558725, 37.379576191972873 ], [ -122.235275994688934, 37.379576191769921 ], [ -122.235545488415312, 37.379845687066322 ], [ -122.235545488929461, 37.380205013306302 ], [ -122.23437767931199, 37.380205012963479 ], [ -122.234377678912608, 37.380474507314588 ], [ -122.23401835297652, 37.380474507563612 ], [ -122.233479364042623, 37.380205012872715 ], [ -122.23347936427048, 37.379037203177376 ], [ -122.234018352503256, 37.378408382250299 ], [ -122.235545488863153, 37.378408382044817 ], [ -122.235545489404188, 37.378677877288268 ], [ -122.235275993987429, 37.379037203624904 ], [ -122.234916667956412, 37.379037203455688 ], [ -122.234916667975384, 37.378677876702675 ], [ -122.234647173967829, 37.378677876979765 ], [ -122.234647173801037, 37.379576192622068 ], [ -122.234377679043348, 37.379576192673014 ] ] ] } },
{ "type": "Feature", "properties": { "csb_id": "061825012338179", "acres": 5.2728103403454698, "geoid": "06081" }, "geometry": { "type": "Polygon", "coordinates": [ [ [ -122.224586043031451, 37.377779562450769 ], [ -122.224586042106083, 37.377510067666798 ], [ -122.22395722145734, 37.377510067055908 ], [ -122.223957222023913, 37.377240573349148 ], [ -122.224586042098707, 37.376611752407264 ], [ -122.225394526041768, 37.37652192072305 ], [ -122.226292842087418, 37.376881246636785 ], [ -122.226292841596987, 37.377240572822608 ], [ -122.226023346660895, 37.377510067252729 ], [ -122.225394526284759, 37.377779562244363 ], [ -122.224586043031451, 37.377779562450769 ] ] ] } },
{ "type": "Feature", "properties": { "csb_id": "061825012338192", "acres": 9.2913914504380202, "geoid": "06081" }, "geometry": { "type": "Polygon", "coordinates": [ [ [ -122.22844879847851, 37.375713436520925 ], [ -122.228448796866928, 37.375443942309083 ], [ -122.227191156157872, 37.37544394186606 ], [ -122.227191155253735, 37.374815121193699 ], [ -122.226652167565149, 37.374815121737555 ], [ -122.226652166556306, 37.374276132738721 ], [ -122.226921661893797, 37.374276132465745 ], [ -122.226921662670847, 37.374545626669672 ], [ -122.227819976288188, 37.374545627105086 ], [ -122.227819977741007, 37.37427613168537 ], [ -122.228448797299563, 37.374276132439874 ], [ -122.228448797232062, 37.374815121780884 ], [ -122.228987786619584, 37.374815121231315 ], [ -122.228987787479809, 37.374276131776249 ], [ -122.231053910922327, 37.374276132570962 ], [ -122.231413238555106, 37.374545626499319 ], [ -122.231413237573591, 37.375084616118798 ], [ -122.231053911184276, 37.375084616250327 ], [ -122.231053912821508, 37.374815121023509 ], [ -122.230155595861149, 37.37481512134984 ], [ -122.229347112062939, 37.375443941847095 ], [ -122.228987787209519, 37.375443941630479 ], [ -122.228718292277065, 37.375713436537737 ], [ -122.22844879847851, 37.375713436520925 ] ] ] } },
{ "type": "Feature", "properties": { "csb_id": "061825012338404", "acres": 2.9611348530103698, "geoid": "06081" }, "geometry": { "type": "Polygon", "coordinates": [ [ [ -122.221891096052701, 37.342924928821816 ], [ -122.223328401099351, 37.342924928946211 ], [ -122.2233284015702, 37.343643581087292 ], [ -122.222789412061275, 37.344092738632462 ], [ -122.222160590752225, 37.344092738609945 ], [ -122.222160591556687, 37.343823244144581 ], [ -122.222430085430275, 37.343823243625152 ], [ -122.222430085932601, 37.343463917470125 ], [ -122.221891096547651, 37.343284255173209 ], [ -122.221891096052701, 37.342924928821816 ] ] ] } },
{ "type": "Feature", "properties": { "csb_id": "061825012338546", "acres": 6.0705545276439699, "geoid": "06081" }, "geometry": { "type": "Polygon", "coordinates": [ [ [ -122.379814923349045, 37.328911209905193 ], [ -122.380084418400344, 37.328012895095767 ], [ -122.380353913064241, 37.32774340029124 ], [ -122.382150543482112, 37.327743400921818 ], [ -122.382509869850168, 37.328012894928136 ], [ -122.382420037851958, 37.328372220737585 ], [ -122.382150543231589, 37.328641715656282 ], [ -122.381252228529789, 37.328641715669619 ], [ -122.3812522278307, 37.328911210747087 ], [ -122.379814923349045, 37.328911209905193 ] ] ] } },
{ "type": "Feature", "properties": { "csb_id": "061825012338547", "acres": 3.1480238130522502, "geoid": "06081" }, "geometry": { "type": "Polygon", "coordinates": [ [ [ -122.25216432135835, 37.32936036759866 ], [ -122.25216432104996, 37.329629862377189 ], [ -122.250457522780621, 37.329629862386724 ], [ -122.250457522083877, 37.329899356781468 ], [ -122.249828701369154, 37.329899356883978 ], [ -122.249828701839675, 37.329629862117493 ], [ -122.250098196067825, 37.329360367962579 ], [ -122.250727017545756, 37.329360368065437 ], [ -122.250727016966607, 37.329001041559891 ], [ -122.250098196332061, 37.329001041943684 ], [ -122.250098196922963, 37.328731546848857 ], [ -122.250457521993681, 37.328462052347646 ], [ -122.250996512230472, 37.328462052818985 ], [ -122.250996511614105, 37.329360367565826 ], [ -122.25216432135835, 37.32936036759866 ] ] ] } },
{ "type": "Feature", "properties": { "csb_id": "061825012338567", "acres": 12.9063186277557, "geoid": "06081" }, "geometry": { "type": "Polygon", "coordinates": [ [ [ -122.382420038066883, 37.327743400247847 ], [ -122.380623407495833, 37.327743399930583 ], [ -122.380713239260956, 37.327114579776364 ], [ -122.381252228022319, 37.326845085414561 ], [ -122.381252227835489, 37.325407780344712 ], [ -122.38215054278804, 37.325407780843086 ], [ -122.382150543621165, 37.325677274754959 ], [ -122.381881048534993, 37.325677275684036 ], [ -122.38188104839243, 37.325946769570393 ], [ -122.382420037853763, 37.325946769563707 ], [ -122.382420037522991, 37.325407781031807 ], [ -122.383048858731456, 37.325497612575006 ], [ -122.383048858221144, 37.325677274974112 ], [ -122.383318353686803, 37.325767106752764 ], [ -122.383318353043592, 37.325946770237529 ], [ -122.383048859019695, 37.325946769594118 ], [ -122.383048858722574, 37.32621626443315 ], [ -122.383677678855079, 37.32657559080058 ], [ -122.384216668793684, 37.326575591145463 ], [ -122.38421666902785, 37.326934916774249 ], [ -122.383947173867668, 37.327114579331727 ], [ -122.383048858515608, 37.32711457927612 ], [ -122.383048858620896, 37.328012894693678 ], [ -122.382509869850168, 37.328012894928136 ], [ -122.382420038066883, 37.327743400247847 ] ], [ [ -122.38215054337067, 37.326575590141715 ], [ -122.3818810486313, 37.326575591195301 ], [ -122.381881048488751, 37.326845084996528 ], [ -122.38215054342038, 37.326845085045662 ], [ -122.38215054337067, 37.326575590141715 ] ] ] } },
{ "type": "Feature", "properties": { "csb_id": "061825012338577", "acres": 7.3947440823579402, "geoid": "06081" }, "geometry": { "type": "Polygon", "coordinates": [ [ [ -122.383048858722574, 37.32621626443315 ], [ -122.383048859019695, 37.325946769594118 ], [ -122.383318353043592, 37.325946770237529 ], [ -122.383408184711456, 37.325138286140579 ], [ -122.383048858731456, 37.325497612575006 ], [ -122.382779363471087, 37.325407780433785 ], [ -122.382779363825392, 37.32486879106591 ], [ -122.384306500279237, 37.324868791551197 ], [ -122.384575994290188, 37.325407780725556 ], [ -122.385114984110928, 37.325497612025245 ], [ -122.38511498409585, 37.325767106657914 ], [ -122.384575995051975, 37.32594676986232 ], [ -122.385114984050531, 37.326575590402712 ], [ -122.385114984035383, 37.326845084933304 ], [ -122.384216669125422, 37.326845085800407 ], [ -122.384216668793684, 37.326575591145463 ], [ -122.383677678855079, 37.32657559080058 ], [ -122.383048858722574, 37.32621626443315 ] ] ] } },
{ "type": "Feature", "properties": { "csb_id": "061825012338778", "acres": 3.09561012770234, "geoid": "06081" }, "geometry": { "type": "Polygon", "coordinates": [ [ [ -122.241474369476805, 37.297380343650154 ], [ -122.239138749828953, 37.297470175637002 ], [ -122.239138749870705, 37.29720068088568 ], [ -122.240037065309153, 37.296841354373385 ], [ -122.241743864662155, 37.296931185917543 ], [ -122.241474369476805, 37.297380343650154 ] ] ] } },
{ "type": "Feature", "properties": { "csb_id": "061825012338840", "acres": 7.16569917674079, "geoid": "06081" }, "geometry": { "type": "Polygon", "coordinates": [ [ [ -122.222430085209851, 37.287858201591682 ], [ -122.222430085823163, 37.288217528095217 ], [ -122.222699579937043, 37.288217527719084 ], [ -122.222699580524903, 37.287858201587888 ], [ -122.222430085209851, 37.287858201591682 ], [ -122.222430085804206, 37.287588707144849 ], [ -122.223178915973719, 37.287378866661498 ], [ -122.223601668012279, 37.287448783986036 ], [ -122.22341823282369, 37.288217527999961 ], [ -122.223058906823226, 37.288576854168461 ], [ -122.222699579913254, 37.288756517565034 ], [ -122.221531770719068, 37.288756517007442 ], [ -122.220992781244391, 37.288487022018238 ], [ -122.22063345560457, 37.287678539490855 ], [ -122.220094465750634, 37.287409044794813 ], [ -122.221531770738991, 37.287319212436365 ], [ -122.222160591774582, 37.287588707408311 ], [ -122.221801264937739, 37.287858201890309 ], [ -122.221531770553312, 37.287858202473544 ], [ -122.221531770119341, 37.288217528247763 ], [ -122.222160591709326, 37.288217527872511 ], [ -122.222430085209851, 37.287858201591682 ] ] ] } },
{ "type": "Feature", "properties": { "csb_id": "061825012338844", "acres": 3.7679766546741802, "geoid": "06081" }, "geometry": { "type": "Polygon", "coordinates": [ [ [ -122.211470639682716, 37.286780223559695 ], [ -122.210572323656024, 37.286690392340041 ], [ -122.210572324279383, 37.286061570851253 ], [ -122.210841818962137, 37.286061570857477 ], [ -122.210841818945198, 37.285792076398863 ], [ -122.211111312962856, 37.285792076664762 ], [ -122.211111313066368, 37.28552258193676 ], [ -122.212009628879187, 37.285522582185891 ], [ -122.212009628390391, 37.286690391597766 ], [ -122.211740134098946, 37.286690391740592 ], [ -122.211740134079605, 37.286959886840215 ], [ -122.211470639682716, 37.286780223559695 ] ] ] } },
{ "type": "Feature", "properties": { "csb_id": "061825012338857", "acres": 7.5557061561951198, "geoid": "06081" }, "geometry": { "type": "Polygon", "coordinates": [ [ [ -122.209943503656106, 37.286061571531675 ], [ -122.209674008315773, 37.285522581670854 ], [ -122.209314682784395, 37.285522581579123 ], [ -122.209314682962329, 37.283725951381655 ], [ -122.210841818711742, 37.283725951052368 ], [ -122.210572324240346, 37.284444604059864 ], [ -122.210572323557017, 37.285253087266604 ], [ -122.211111313169852, 37.285253087182319 ], [ -122.211111312962856, 37.285792076664762 ], [ -122.210841818945198, 37.285792076398863 ], [ -122.210841818962137, 37.286061570857477 ], [ -122.209943503656106, 37.286061571531675 ] ] ] } },
{ "type": "Feature", "properties": { "csb_id": "061825012338861", "acres": 4.3274091167666597, "geoid": "06081" }, "geometry": { "type": "Polygon", "coordinates": [ [ [ -122.209045188391215, 37.285253087328869 ], [ -122.208506198634566, 37.283815783112843 ], [ -122.208146873193002, 37.283815783221819 ], [ -122.208146872237606, 37.283186962257744 ], [ -122.208506198779475, 37.28354628841776 ], [ -122.209045187876328, 37.283456456695852 ], [ -122.209404513741475, 37.283097130852099 ], [ -122.209674008653721, 37.283097131023709 ], [ -122.21021299817501, 37.283456456806377 ], [ -122.210212998107863, 37.283725951007995 ], [ -122.209314682962329, 37.283725951381655 ], [ -122.209314682505138, 37.285253087424067 ], [ -122.209045188391215, 37.285253087328869 ] ] ] } },
{ "type": "Feature", "properties": { "csb_id": "061825012338883", "acres": 5.1838592534143997, "geoid": "06081" }, "geometry": { "type": "Polygon", "coordinates": [ [ [ -122.211740132410227, 37.283725951742568 ], [ -122.210572324190835, 37.283725951029929 ], [ -122.21021299817501, 37.283456456806377 ], [ -122.210841818775506, 37.283097130359607 ], [ -122.2117401341647, 37.283186962357028 ], [ -122.211740134167243, 37.282288647127189 ], [ -122.212009627368872, 37.282019152560423 ], [ -122.212907943447419, 37.282019152488587 ], [ -122.213077035622121, 37.28234338819825 ], [ -122.21284118248353, 37.282705521630476 ], [ -122.211740132410227, 37.283725951742568 ] ] ] } },
{ "type": "Feature", "properties": { "csb_id": "061825012339071", "acres": 8.6577357860005595, "geoid": "06081" }, "geometry": { "type": "Polygon", "coordinates": [ [ [ -122.412513599709897, 37.259471438760301 ], [ -122.41161528456901, 37.25947143914032 ], [ -122.411615284298506, 37.258573123801312 ], [ -122.41071696919758, 37.258573123649661 ], [ -122.410447474332329, 37.25785447106577 ], [ -122.410447474800463, 37.257315482209449 ], [ -122.410716969404703, 37.257045987235195 ], [ -122.410986463695963, 37.257045987540032 ], [ -122.410986463613483, 37.257315481946826 ], [ -122.412783094596804, 37.257315482271814 ], [ -122.413142420385284, 37.257674808542866 ], [ -122.41314242090921, 37.257944302639444 ], [ -122.412513599833517, 37.257944302989181 ], [ -122.412513600147108, 37.258842618167193 ], [ -122.412244105300033, 37.258842618072364 ], [ -122.412244105076041, 37.259112112420425 ], [ -122.412513599803361, 37.259112112760079 ], [ -122.412513599709897, 37.259471438760301 ] ], [ [ -122.411884779577804, 37.25821379770256 ], [ -122.411884778640797, 37.258573123333065 ], [ -122.412244105523996, 37.258573123697353 ], [ -122.412244105510339, 37.258213796963943 ], [ -122.411884779577804, 37.25821379770256 ] ] ] } },
{ "type": "Feature", "properties": { "csb_id": "061825012339072", "acres": 3.5146700171441698, "geoid": "06081" }, "geometry": { "type": "Polygon", "coordinates": [ [ [ -122.33696528391846, 37.258842618070673 ], [ -122.336965284229308, 37.258213797805034 ], [ -122.337234778685612, 37.258213797825739 ], [ -122.337234778961786, 37.257944302734323 ], [ -122.336965284541591, 37.257674808083529 ], [ -122.336695789845237, 37.257674807951915 ], [ -122.336695790240981, 37.257045987901606 ], [ -122.337594105294656, 37.257045987855079 ], [ -122.33747409608101, 37.257819205522637 ], [ -122.338250998498225, 37.257884649122396 ], [ -122.337594105523408, 37.258573123463179 ], [ -122.33759410514071, 37.258842617877463 ], [ -122.33696528391846, 37.258842618070673 ] ] ] } },
{ "type": "Feature", "properties": { "csb_id": "061825012339077", "acres": 2.4834997032080999, "geoid": "06081" }, "geometry": { "type": "Polygon", "coordinates": [ [ [ -122.339121241300319, 37.257674808158178 ], [ -122.339031409266028, 37.256776492949122 ], [ -122.338492420737836, 37.256417166851136 ], [ -122.338492420372248, 37.256147672563721 ], [ -122.339660230000334, 37.256147671988472 ], [ -122.339660229975223, 37.257045987427546 ], [ -122.339121241300319, 37.257674808158178 ] ] ] } },
{ "type": "Feature", "properties": { "csb_id": "061825012339101", "acres": 15.7162288791653, "geoid": "06081" }, "geometry": { "type": "Polygon", "coordinates": [ [ [ -122.383947174162572, 37.256417166630847 ], [ -122.383947174150379, 37.255518851482499 ], [ -122.384306499960857, 37.255518851809093 ], [ -122.384306499693736, 37.254710367846911 ], [ -122.384575995015183, 37.254351041959808 ], [ -122.384306499952942, 37.253183231463268 ], [ -122.384575994153025, 37.25291373691848 ], [ -122.384845489014978, 37.252913737126761 ], [ -122.384845489125183, 37.253183232109997 ], [ -122.385474310137141, 37.253183231776248 ], [ -122.385474310253684, 37.252913737161983 ], [ -122.386372625254353, 37.252913737488846 ], [ -122.386911613879136, 37.253452726602603 ], [ -122.386911614689183, 37.254081547194936 ], [ -122.387270940283599, 37.25408154743981 ], [ -122.387540434526727, 37.254351041662758 ], [ -122.387540434693832, 37.254710368224423 ], [ -122.387270940032693, 37.254979862803388 ], [ -122.386911614796432, 37.25497986243824 ], [ -122.386911614404681, 37.254710367884414 ], [ -122.38637262513673, 37.254710367482815 ], [ -122.386013298852305, 37.254710367762996 ], [ -122.386013298496081, 37.254979862685843 ], [ -122.385114983284907, 37.254979862527769 ], [ -122.384845489034277, 37.255249356840395 ], [ -122.384845489144467, 37.255518851588981 ], [ -122.385743804133085, 37.255518851534461 ], [ -122.385743803921898, 37.255878177943998 ], [ -122.385114982993713, 37.25587817735866 ], [ -122.384575994724628, 37.256147672484239 ], [ -122.384575994954702, 37.256417166898046 ], [ -122.383947174162572, 37.256417166630847 ] ] ] } },
{ "type": "Feature", "properties": { "csb_id": "061825012339105", "acres": 3.1020997077730299, "geoid": "06081" }, "geometry": { "type": "Polygon", "coordinates": [ [ [ -122.345858605268262, 37.251656095655981 ], [ -122.346487426590144, 37.251656096080495 ], [ -122.346756921225591, 37.252015422229611 ], [ -122.346756920776429, 37.252913736894492 ], [ -122.345858606079176, 37.252913737020471 ], [ -122.345589110960347, 37.252554411199576 ], [ -122.345589111110272, 37.252015422234749 ], [ -122.345858605477034, 37.252015422223153 ], [ -122.345858605268262, 37.251656095655981 ] ] ] } },
{ "type": "Feature", "properties": { "csb_id": "061825012339133", "acres": 7.8243109327887304, "geoid": "06081" }, "geometry": { "type": "Polygon", "coordinates": [ [ [ -122.389606560316608, 37.250218791236541 ], [ -122.389606559870174, 37.249949296821221 ], [ -122.388977739277948, 37.249949296761478 ], [ -122.388977739009604, 37.24932047582012 ], [ -122.389606560391769, 37.249320476373136 ], [ -122.389606559945292, 37.249050981867271 ], [ -122.38897773974287, 37.249050981558923 ], [ -122.388977739113301, 37.2481526662988 ], [ -122.389337065425295, 37.247793340226863 ], [ -122.390504874892073, 37.247793340161188 ], [ -122.390504874908416, 37.249949296570541 ], [ -122.389606560316608, 37.250218791236541 ] ] ] } },
{ "type": "Feature", "properties": { "csb_id": "061825012339135", "acres": 2.7488581421121099, "geoid": "06081" }, "geometry": { "type": "Polygon", "coordinates": [ [ [ -122.416017029355373, 37.248062835108804 ], [ -122.414040735838157, 37.248062834722596 ], [ -122.413950904430607, 37.247434015030215 ], [ -122.4145797249776, 37.247434015338555 ], [ -122.415208545547742, 37.247703508366996 ], [ -122.416017029437754, 37.247703508442029 ], [ -122.416017029355373, 37.248062835108804 ] ] ] } },
{ "type": "Feature", "properties": { "csb_id": "061825012339139", "acres": 4.8609742736709904, "geoid": "06081" }, "geometry": { "type": "Polygon", "coordinates": [ [ [ -122.359602828777852, 37.248332329824784 ], [ -122.359602828285091, 37.248152666876955 ], [ -122.358075692042206, 37.248152666490171 ], [ -122.357806198567701, 37.247793339893782 ], [ -122.357806197447104, 37.247523846021053 ], [ -122.35834518699582, 37.247164519989063 ], [ -122.358974007851245, 37.247164519644564 ], [ -122.359352590239652, 37.247294529466799 ], [ -122.359483521121106, 37.24755332213045 ], [ -122.360501143218869, 37.24788317173531 ], [ -122.360501143688367, 37.248062835189913 ], [ -122.360141817210263, 37.248332329662965 ], [ -122.359602828777852, 37.248332329824784 ] ] ] } },
{ "type": "Feature", "properties": { "csb_id": "061825012339162", "acres": 11.584894156603299, "geoid": "06081" }, "geometry": { "type": "Polygon", "coordinates": [ [ [ -122.416106860493926, 37.246356035413449 ], [ -122.416106861403463, 37.245727215059404 ], [ -122.415208545742573, 37.245188225607244 ], [ -122.414939050881173, 37.245188225852161 ], [ -122.414939051324467, 37.245727214935243 ], [ -122.414579724483872, 37.245727215065706 ], [ -122.413681409239516, 37.245637383617009 ], [ -122.412962757307682, 37.245188225885762 ], [ -122.412783094738501, 37.245008562879335 ], [ -122.412783094669749, 37.244289910136075 ], [ -122.412513600240857, 37.244289910257571 ], [ -122.412513599738219, 37.243661090019742 ], [ -122.412783094075294, 37.243391594975805 ], [ -122.413950903983988, 37.243391595659403 ], [ -122.413681409528721, 37.243840752438579 ], [ -122.413142420083645, 37.24393058447729 ], [ -122.413142420991221, 37.244289910185991 ], [ -122.413411915042062, 37.244559405458745 ], [ -122.415208545947422, 37.244559404975334 ], [ -122.415478040314568, 37.244828899301453 ], [ -122.41547803982192, 37.245188225866045 ], [ -122.416645850206294, 37.245188225334196 ], [ -122.41700517565144, 37.245457720189322 ], [ -122.417005175763407, 37.245727215021724 ], [ -122.41637635555557, 37.245727214668555 ], [ -122.41637635579923, 37.246086540988372 ], [ -122.41727467042567, 37.246086540790742 ], [ -122.417274671504487, 37.246625530545977 ], [ -122.416645850282421, 37.246625530121804 ], [ -122.416106860493926, 37.246356035413449 ] ] ] } },
{ "type": "Feature", "properties": { "csb_id": "061825012339189", "acres": 3.5640278374222798, "geoid": "06081" }, "geometry": { "type": "Polygon", "coordinates": [ [ [ -122.405686403957986, 37.240067828791048 ], [ -122.406854213556528, 37.240067828743491 ], [ -122.406854213512418, 37.24069664947887 ], [ -122.405955897890493, 37.241325470106133 ], [ -122.405416909667579, 37.241325470023774 ], [ -122.405416909549004, 37.24042715505896 ], [ -122.405686403147783, 37.240427154787866 ], [ -122.405686403957986, 37.240067828791048 ] ] ] } },
{ "type": "Feature", "properties": { "csb_id": "061825012339219", "acres": 5.8911930657440097, "geoid": "06081" }, "geometry": { "type": "Polygon", "coordinates": [ [ [ -122.371191096565383, 37.23800170318588 ], [ -122.368496151517405, 37.238001703607296 ], [ -122.368496150967047, 37.238271198172171 ], [ -122.368226656187346, 37.238271198473228 ], [ -122.36822665673661, 37.23773220894676 ], [ -122.368765645210118, 37.237732208972915 ], [ -122.368765645374182, 37.237372882644287 ], [ -122.367867329849943, 37.237372882858601 ], [ -122.367867330173695, 37.237103387832938 ], [ -122.370023286656632, 37.237103388295395 ], [ -122.370023286939215, 37.237372883071203 ], [ -122.371460591434953, 37.237372882986556 ], [ -122.371460590979183, 37.237732208571259 ], [ -122.37119109706093, 37.237732209212737 ], [ -122.371191096565383, 37.23800170318588 ] ] ] } },
{ "type": "Feature", "properties": { "csb_id": "061825012339352", "acres": 5.9904764008953997, "geoid": "06081" }, "geometry": { "type": "Polygon", "coordinates": [ [ [ -122.361668954750996, 37.224796468406574 ], [ -122.361668954107046, 37.22407781653628 ], [ -122.361938448064919, 37.224077816758175 ], [ -122.361938449726495, 37.223718490015969 ], [ -122.361668954793586, 37.223448996172863 ], [ -122.361040132421053, 37.223448996137279 ], [ -122.361040132629626, 37.222820175986442 ], [ -122.361938448207994, 37.222550680700316 ], [ -122.363106259523022, 37.22371849055309 ], [ -122.363106260679317, 37.224077816067521 ], [ -122.362836763909883, 37.224077817215516 ], [ -122.362567270162316, 37.224347310950982 ], [ -122.362567269118912, 37.224616805946127 ], [ -122.362207943486283, 37.224796469228437 ], [ -122.361668954750996, 37.224796468406574 ] ], [ [ -122.362207942546135, 37.224526974984933 ], [ -122.362207943274498, 37.224347311528618 ], [ -122.361938449124963, 37.224347310803509 ], [ -122.361938448841258, 37.224526974015475 ], [ -122.362207942546135, 37.224526974984933 ] ] ] } },
{ "type": "Feature", "properties": { "csb_id": "061825012339364", "acres": 6.5895385385715901, "geoid": "06081" }, "geometry": { "type": "Polygon", "coordinates": [ [ [ -122.356638388199201, 37.222820175289385 ], [ -122.356279061932568, 37.22282017556185 ], [ -122.356279063308904, 37.223179501223647 ], [ -122.35663838802499, 37.22317950168425 ], [ -122.356638388199201, 37.222820175289385 ], [ -122.357536703756367, 37.223628659160909 ], [ -122.357806199312662, 37.223448995734508 ], [ -122.357806198076702, 37.224077816366346 ], [ -122.356907884062736, 37.224077816243373 ], [ -122.356907883249349, 37.223718490830052 ], [ -122.356279061543617, 37.223718490479136 ], [ -122.356279063231483, 37.224077816876004 ], [ -122.356907884062736, 37.224077816243373 ], [ -122.356907883812184, 37.224347311158986 ], [ -122.356638388110838, 37.224616805667949 ], [ -122.356279061466168, 37.224616805946617 ], [ -122.355740075100911, 37.22371849049037 ], [ -122.355740072608469, 37.222820175811066 ], [ -122.356279061509426, 37.222281186610104 ], [ -122.35627906156283, 37.221652365903857 ], [ -122.356638389076906, 37.221652365023687 ], [ -122.356638388199201, 37.222820175289385 ] ] ] } },
{ "type": "Feature", "properties": { "csb_id": "061825012339532", "acres": 2.8388058252827602, "geoid": "06081" }, "geometry": { "type": "Polygon", "coordinates": [ [ [ -122.270040795483879, 37.204674206191704 ], [ -122.270040795753545, 37.205033532861492 ], [ -122.270310289826597, 37.205033532288262 ], [ -122.270310290757081, 37.204674205989868 ], [ -122.270040795483879, 37.204674206191704 ], [ -122.270040795983945, 37.204404711464079 ], [ -122.270939111452691, 37.20440471160736 ], [ -122.270939111612108, 37.205033532749084 ], [ -122.270669616192009, 37.205303027295031 ], [ -122.2694119752462, 37.20530302706311 ], [ -122.26941197558267, 37.204404711849946 ], [ -122.269771300900999, 37.204404712168362 ], [ -122.269771301615322, 37.204674206408917 ], [ -122.270040795483879, 37.204674206191704 ] ] ] } },
{ "type": "Feature", "properties": { "csb_id": "061825012339536", "acres": 5.9428364698907901, "geoid": "06081" }, "geometry": { "type": "Polygon", "coordinates": [ [ [ -122.267076355131792, 37.204135216964652 ], [ -122.268603491972399, 37.204674206627814 ], [ -122.268603491096954, 37.205033532938366 ], [ -122.267974670376816, 37.205303026917868 ], [ -122.267345849717543, 37.205303027007638 ], [ -122.267345849489303, 37.205033532820437 ], [ -122.265010230369555, 37.205033532982085 ], [ -122.265010230596104, 37.204674206031832 ], [ -122.265549219648122, 37.204404711697933 ], [ -122.266806860381607, 37.204404711607445 ], [ -122.266806861160589, 37.204674206231665 ], [ -122.267076355044779, 37.20467420611341 ], [ -122.267076355131792, 37.204135216964652 ] ] ] } },
{ "type": "Feature", "properties": { "csb_id": "061825012339568", "acres": 5.2062692398687602, "geoid": "06081" }, "geometry": { "type": "Polygon", "coordinates": [ [ [ -122.394367631251157, 37.202877575997867 ], [ -122.392301506123758, 37.202877575448795 ], [ -122.392301505493066, 37.203236902291572 ], [ -122.39167268578116, 37.203236902059196 ], [ -122.391942180016073, 37.202248755587505 ], [ -122.392301505473867, 37.201889428762158 ], [ -122.392840494880858, 37.201889428714495 ], [ -122.392930326310761, 37.202338586965034 ], [ -122.393738810081118, 37.202248755512478 ], [ -122.393738810631575, 37.20197926095836 ], [ -122.394098137124715, 37.201979260688077 ], [ -122.394367631399831, 37.202338587117076 ], [ -122.394367631251157, 37.202877575997867 ] ] ] } },
{ "type": "Feature", "properties": { "csb_id": "061825012339584", "acres": 5.3635168936749196, "geoid": "06081" }, "geometry": { "type": "Polygon", "coordinates": [ [ [ -122.397062577157854, 37.200811450604974 ], [ -122.397601565606763, 37.201080945005039 ], [ -122.39760156580833, 37.201709765956878 ], [ -122.397062577090153, 37.201709765984852 ], [ -122.397062577500975, 37.201440271502037 ], [ -122.397332071276992, 37.201440271236393 ], [ -122.397332071807568, 37.201170776480673 ], [ -122.39706257681803, 37.201170777235674 ], [ -122.397062577500975, 37.201440271502037 ], [ -122.396433755928726, 37.201440271954354 ], [ -122.396164261306453, 37.201709765930993 ], [ -122.395535441208352, 37.201709765521095 ], [ -122.395535440857884, 37.202338587184585 ], [ -122.394637126239559, 37.202338586840419 ], [ -122.394637126197495, 37.201709766031492 ], [ -122.395804935373192, 37.201619934260215 ], [ -122.395804935911798, 37.201080945488762 ], [ -122.395265946265724, 37.20108094524187 ], [ -122.395265946013467, 37.200541956478126 ], [ -122.397062577157854, 37.200811450604974 ] ] ] } },
{ "type": "Feature", "properties": { "csb_id": "061825012339619", "acres": 10.825543218950401, "geoid": "06081" }, "geometry": { "type": "Polygon", "coordinates": [ [ [ -122.394098136301366, 37.198475830636923 ], [ -122.394098136921343, 37.199374146112568 ], [ -122.394367631514513, 37.199374145949818 ], [ -122.39436763136591, 37.199913135451162 ], [ -122.392301505891524, 37.199913135723172 ], [ -122.392301505856011, 37.199643641289668 ], [ -122.392032011847931, 37.199643641146132 ], [ -122.392032010909446, 37.199913135579642 ], [ -122.392301505891524, 37.199913135723172 ], [ -122.392301506042799, 37.200272461876679 ], [ -122.391672685346933, 37.200541955755831 ], [ -122.390774369855279, 37.200541955926461 ], [ -122.390774369580129, 37.199913135521861 ], [ -122.391672684849496, 37.199014820177027 ], [ -122.392930326401142, 37.198475831271189 ], [ -122.394098136301366, 37.198475830636923 ] ] ] } },
{ "type": "Feature", "properties": { "csb_id": "061825012339627", "acres": 5.7468536646158004, "geoid": "06081" }, "geometry": { "type": "Polygon", "coordinates": [ [ [ -122.396793082127729, 37.199014819914616 ], [ -122.396164261544612, 37.198745325663836 ], [ -122.395265946162453, 37.19874532591934 ], [ -122.39526594690993, 37.198116504725157 ], [ -122.394996451551577, 37.198116505290919 ], [ -122.394996451751737, 37.197308021230931 ], [ -122.395265946687474, 37.197308021034019 ], [ -122.395265946875497, 37.197487684479881 ], [ -122.396703251101272, 37.198026673445227 ], [ -122.39706257648028, 37.198385999375553 ], [ -122.397062577163183, 37.198655493933707 ], [ -122.397960891766076, 37.19865549420421 ], [ -122.397960892523329, 37.19838599952547 ], [ -122.398499881116081, 37.19838599943229 ], [ -122.398499881610007, 37.198745325909044 ], [ -122.398230387169477, 37.199014820222686 ], [ -122.397960891850147, 37.199014820153828 ], [ -122.397960892607401, 37.198745325512796 ], [ -122.396793082127729, 37.199014819914616 ] ] ] } },
{ "type": "Feature", "properties": { "csb_id": "061825012339639", "acres": 17.564947344858101, "geoid": "06081" }, "geometry": { "type": "Polygon", "coordinates": [ [ [ -122.399398196214889, 37.198385999340559 ], [ -122.399398196390834, 37.198026673551006 ], [ -122.399128702301496, 37.198026672892638 ], [ -122.399128702232517, 37.198385999295624 ], [ -122.399398196214889, 37.198385999340559 ], [ -122.39849988121307, 37.198655494355748 ], [ -122.398499881116081, 37.19838599943229 ], [ -122.397960892523329, 37.19838599952547 ], [ -122.397960891766076, 37.19865549420421 ], [ -122.397062577163183, 37.198655493933707 ], [ -122.39706257648028, 37.198385999375553 ], [ -122.396703251101272, 37.198026673445227 ], [ -122.395265946875497, 37.197487684479881 ], [ -122.39526594652925, 37.196858863222438 ], [ -122.395535440721773, 37.196679200407686 ], [ -122.397332071593326, 37.196409706137565 ], [ -122.397332070946405, 37.196050379699294 ], [ -122.398499881105622, 37.19605038003175 ], [ -122.398499881769567, 37.196589368379605 ], [ -122.399128701657574, 37.197308021038786 ], [ -122.3991287015279, 37.19757751570662 ], [ -122.399398196640249, 37.19775717868562 ], [ -122.400027017606376, 37.197757178299881 ], [ -122.400027017797058, 37.198385999075462 ], [ -122.399398196214889, 37.198385999340559 ] ], [ [ -122.397062577171724, 37.197487684551035 ], [ -122.396703251239003, 37.197487684413503 ], [ -122.396703250623261, 37.197757179065846 ], [ -122.397062576449031, 37.197757178589889 ], [ -122.397062577171724, 37.197487684551035 ] ] ] } },
{ "type": "Feature", "properties": { "csb_id": "061825012340132", "acres": 4.6700424126497202, "geoid": "06081" }, "geometry": { "type": "Polygon", "coordinates": [ [ [ -122.311093804702438, 37.136581908148415 ], [ -122.311093803979972, 37.136312414164678 ], [ -122.311363299296602, 37.136312414100679 ], [ -122.311363298443496, 37.135953087191893 ], [ -122.310824309312224, 37.135953086963667 ], [ -122.310824309562904, 37.13568359291088 ], [ -122.31136329942467, 37.135414098081007 ], [ -122.312261613681272, 37.135324266343652 ], [ -122.313159928785851, 37.135683592383828 ], [ -122.313159929006815, 37.135953087285756 ], [ -122.312890434460598, 37.136312413714336 ], [ -122.311722624927967, 37.136312413406948 ], [ -122.311722624641817, 37.136581908122487 ], [ -122.311093804702438, 37.136581908148415 ] ] ] } },
{ "type": "Feature", "properties": { "csb_id": "061825012340203", "acres": 14.032003910952399, "geoid": "06081" }, "geometry": { "type": "Polygon", "coordinates": [ [ [ -122.304536102894531, 37.125622461511611 ], [ -122.304536102930072, 37.124724146004276 ], [ -122.304266607908474, 37.124724146627941 ], [ -122.304266607597995, 37.123825830662248 ], [ -122.303997113856198, 37.123107178821485 ], [ -122.303997113554203, 37.122568189754702 ], [ -122.304536102386891, 37.122568189615031 ], [ -122.304805597086613, 37.122298695173782 ], [ -122.304805597751511, 37.121130884965268 ], [ -122.305164923688437, 37.121130884584751 ], [ -122.305164923962948, 37.122298694910356 ], [ -122.305434418337782, 37.122298695114743 ], [ -122.305703912704217, 37.122568189779962 ], [ -122.305703912382526, 37.122927515623104 ], [ -122.306063238731141, 37.123197010619442 ], [ -122.306063238817146, 37.124095325197892 ], [ -122.306332733481938, 37.124993640701732 ], [ -122.305703912789937, 37.124993641166448 ], [ -122.305434417850776, 37.125263134988344 ], [ -122.30543441794569, 37.125622461906538 ], [ -122.304536102894531, 37.125622461511611 ] ] ] } }
]
}
