{
"type": "FeatureCollection",
"name": "06089",
"crs": { "type": "name", "properties": { "name": "urn:ogc:def:crs:OGC:1.3:CRS84" } },
"features": [
{ "type": "Feature", "properties": { "csb_id": "061825001011500", "acres": 3.2330844645924399, "geoid": "06089" }, "geometry": { "type": "Polygon", "coordinates": [ [ [ -121.941254817290769, 40.599534742797303 ], [ -121.941793805990457, 40.599534743345927 ], [ -121.941793806386315, 40.599804237519443 ], [ -121.942422626498541, 40.599804237626266 ], [ -121.942422627165186, 40.599534742730675 ], [ -121.943051447329907, 40.599534742918451 ], [ -121.943320941934545, 40.599804237858926 ], [ -121.943320942051798, 40.60007373242577 ], [ -121.943051448084361, 40.600433058306358 ], [ -121.942153132884883, 40.600433058159943 ], [ -121.941524311861016, 40.600073732373538 ], [ -121.94125481693986, 40.600073732431937 ], [ -121.941254817290769, 40.599534742797303 ] ] ] } },
{ "type": "Feature", "properties": { "csb_id": "061825001011546", "acres": 3.7330760801321001, "geoid": "06089" }, "geometry": { "type": "Polygon", "coordinates": [ [ [ -122.26473815119374, 40.539706945012142 ], [ -122.264738151599119, 40.539347619269691 ], [ -122.265097477328823, 40.538898461581262 ], [ -122.265995792436257, 40.538898461375702 ], [ -122.265995791973481, 40.540335765867546 ], [ -122.26509747722794, 40.540335765854472 ], [ -122.265097476869599, 40.540066270815245 ], [ -122.26473815119374, 40.539706945012142 ] ] ] } },
{ "type": "Feature", "properties": { "csb_id": "061825001011550", "acres": 5.1782245845604304, "geoid": "06089" }, "geometry": { "type": "Polygon", "coordinates": [ [ [ -121.955807524457768, 40.530633960657532 ], [ -121.955538030188876, 40.530633961715331 ], [ -121.955538030465632, 40.530903456230426 ], [ -121.955807524607238, 40.530903455413402 ], [ -121.955807524457768, 40.530633960657532 ], [ -121.956795672175261, 40.530633960713281 ], [ -121.957065166581017, 40.530903455520118 ], [ -121.957065167068478, 40.53126278228018 ], [ -121.956166850872094, 40.531262781969026 ], [ -121.956166851234016, 40.53153227707746 ], [ -121.95553803008697, 40.531532275312777 ], [ -121.955268536098401, 40.53126278240839 ], [ -121.955268535407825, 40.529915308135756 ], [ -121.95517870453331, 40.530274634729764 ], [ -121.954909209651618, 40.530274635791599 ], [ -121.954909209066557, 40.5296458130356 ], [ -121.955178704037465, 40.529286487900976 ], [ -121.955807525177931, 40.529286488214488 ], [ -121.955807524457768, 40.530633960657532 ] ] ] } },
{ "type": "Feature", "properties": { "csb_id": "061825001011584", "acres": 5.1884666194754896, "geoid": "06089" }, "geometry": { "type": "Polygon", "coordinates": [ [ [ -121.943320942064943, 40.518416872882639 ], [ -121.945207404942479, 40.518416873132423 ], [ -121.945207404615743, 40.519674513851179 ], [ -121.944578583561693, 40.519944009014203 ], [ -121.943949763190034, 40.519944009068539 ], [ -121.9439497625782, 40.519045693273171 ], [ -121.943320942750034, 40.519045693611211 ], [ -121.943320942064943, 40.518416872882639 ] ] ] } },
{ "type": "Feature", "properties": { "csb_id": "061825001011593", "acres": 6.7179658409871603, "geoid": "06089" }, "geometry": { "type": "Polygon", "coordinates": [ [ [ -121.95185493808718, 40.516620242553692 ], [ -121.952214263829802, 40.516620242170283 ], [ -121.952214263781457, 40.516889737196507 ], [ -121.953112578554865, 40.516889737041126 ], [ -121.953112578966298, 40.516620242152179 ], [ -121.953741399452284, 40.51662024235965 ], [ -121.9542803892286, 40.516889737207435 ], [ -121.954280388744337, 40.517249062550931 ], [ -121.953382073751072, 40.517249062663765 ], [ -121.952843084544682, 40.517518557940988 ], [ -121.952843084333793, 40.517877883707008 ], [ -121.95311257929265, 40.517877883665875 ], [ -121.953112579294896, 40.518416872834464 ], [ -121.950956622670788, 40.518416872518848 ], [ -121.950956621743259, 40.518147378427138 ], [ -121.951315948175804, 40.517877883830629 ], [ -121.951585442996688, 40.517877883358075 ], [ -121.951585442863205, 40.51814737812456 ], [ -121.952214264121039, 40.51814737838081 ], [ -121.952214263790751, 40.517518557229458 ], [ -121.951585443174707, 40.517518557076642 ], [ -121.951585442340019, 40.516889736528228 ], [ -121.951854937505416, 40.516889736479555 ], [ -121.95185493808718, 40.516620242553692 ] ] ] } },
{ "type": "Feature", "properties": { "csb_id": "061825001011599", "acres": 3.8659130413180902, "geoid": "06089" }, "geometry": { "type": "Polygon", "coordinates": [ [ [ -121.981768836081557, 40.513296475400658 ], [ -121.981140015939914, 40.513476139188157 ], [ -121.98114001565807, 40.51284731822836 ], [ -121.981409510321441, 40.512847318037608 ], [ -121.981409510242585, 40.512038834285583 ], [ -121.982397657812257, 40.512038834570006 ], [ -121.982667151562012, 40.512398160404906 ], [ -121.982667151896024, 40.513296475701175 ], [ -121.981768836081557, 40.513296475400658 ] ], [ [ -121.982038330865578, 40.512398160504503 ], [ -121.981768836111613, 40.512398160554667 ], [ -121.981768836625278, 40.512667655028608 ], [ -121.982038331252113, 40.512667655219481 ], [ -121.982038330865578, 40.512398160504503 ] ] ] } },
{ "type": "Feature", "properties": { "csb_id": "061825001011600", "acres": 8.1832181867429998, "geoid": "06089" }, "geometry": { "type": "Polygon", "coordinates": [ [ [ -121.980151868858215, 40.513206644343796 ], [ -121.980241700522512, 40.512398160235513 ], [ -121.978714564484235, 40.512398160147406 ], [ -121.978714564754426, 40.512038834202535 ], [ -121.979686263035973, 40.511483352575702 ], [ -121.980780689391693, 40.511320182210014 ], [ -121.981409510799054, 40.511949002458948 ], [ -121.981409510543756, 40.512308328455262 ], [ -121.98114001562611, 40.512308329128125 ], [ -121.981409509987259, 40.512398160302922 ], [ -121.981409510321441, 40.512847318037608 ], [ -121.98114001565807, 40.51284731822836 ], [ -121.981140016368229, 40.513745633369702 ], [ -121.98051119534189, 40.51374563365821 ], [ -121.980151868858215, 40.513206644343796 ] ] ] } },
{ "type": "Feature", "properties": { "csb_id": "061825001011605", "acres": 17.1375271183169, "geoid": "06089" }, "geometry": { "type": "Polygon", "coordinates": [ [ [ -121.990572326206916, 40.509613383146551 ], [ -121.990841821367525, 40.509793045984388 ], [ -121.994524913985174, 40.509793045931005 ], [ -121.994524913460367, 40.510152372407433 ], [ -121.993896093151406, 40.51024220360253 ], [ -121.993896092752721, 40.510511698263478 ], [ -121.994165587725661, 40.51051169868699 ], [ -121.994165586878395, 40.510781192776946 ], [ -121.993896093243208, 40.511140518715152 ], [ -121.993896092445809, 40.511679508400228 ], [ -121.993626598284607, 40.511679508157918 ], [ -121.993626598753906, 40.51132018228823 ], [ -121.992997777127385, 40.511320182418515 ], [ -121.992997777247638, 40.511679508424344 ], [ -121.992368957175174, 40.511679508148475 ], [ -121.992368957296165, 40.511410013628435 ], [ -121.992099462656682, 40.511320182436428 ], [ -121.989943505112791, 40.511410013643982 ], [ -121.989045190291037, 40.511140518583048 ], [ -121.989045190473959, 40.510781193123293 ], [ -121.989314684548987, 40.51042186659204 ], [ -121.989943505696061, 40.51015237228701 ], [ -121.990572326271518, 40.510152372388262 ], [ -121.990572326206916, 40.509613383146551 ] ] ] } },
{ "type": "Feature", "properties": { "csb_id": "061825001011606", "acres": 5.0201831920390996, "geoid": "06089" }, "geometry": { "type": "Polygon", "coordinates": [ [ [ -121.989404515878974, 40.512038834012543 ], [ -121.987518054078592, 40.512038834484244 ], [ -121.987518054063827, 40.511769340079532 ], [ -121.987877380529881, 40.511410013700377 ], [ -121.988416369916038, 40.511410013309771 ], [ -121.988775695973942, 40.511140518683327 ], [ -121.988775696183808, 40.510511698316741 ], [ -121.989045190678439, 40.510242203251998 ], [ -121.989943505480866, 40.509613383150217 ], [ -121.990572326206916, 40.509613383146551 ], [ -121.990572326271518, 40.510152372388262 ], [ -121.989943505696061, 40.51015237228701 ], [ -121.989314684548987, 40.51042186659204 ], [ -121.989045190473959, 40.510781193123293 ], [ -121.989045190028051, 40.511410013223106 ], [ -121.989404516914433, 40.511410013790986 ], [ -121.989404515878974, 40.512038834012543 ] ] ] } },
{ "type": "Feature", "properties": { "csb_id": "061825001011607", "acres": 4.3258678883513397, "geoid": "06089" }, "geometry": { "type": "Polygon", "coordinates": [ [ [ -121.986889233543408, 40.510511698105311 ], [ -121.986889233292629, 40.510242203591687 ], [ -121.985362098174178, 40.510152372416826 ], [ -121.985362097941717, 40.509613383154154 ], [ -121.987248559746249, 40.509523551473826 ], [ -121.987877380066564, 40.509882877526252 ], [ -121.987877380690989, 40.510242204148646 ], [ -121.987518054116094, 40.510511698270804 ], [ -121.986889233543408, 40.510511698105311 ] ] ] } },
{ "type": "Feature", "properties": { "csb_id": "061825001011770", "acres": 3.18406779957047, "geoid": "06089" }, "geometry": { "type": "Polygon", "coordinates": [ [ [ -121.845853733839149, 40.446102492532013 ], [ -121.844955419352374, 40.446102492611573 ], [ -121.844685923898595, 40.445922829575522 ], [ -121.844685924467072, 40.445294008229276 ], [ -121.844955418693687, 40.445024514534339 ], [ -121.846123228768789, 40.445024514516142 ], [ -121.846123228136776, 40.445653334714066 ], [ -121.845853733913501, 40.445653334734992 ], [ -121.845853733839149, 40.446102492532013 ] ] ] } },
{ "type": "Feature", "properties": { "csb_id": "061825014733502", "acres": 3.3318207943770699, "geoid": "06089" }, "geometry": { "type": "Polygon", "coordinates": [ [ [ -122.56774570524118, 40.498190548000551 ], [ -122.567745705250928, 40.49792105308115 ], [ -122.568015199960598, 40.497921053216707 ], [ -122.568015200331743, 40.497292232572399 ], [ -122.567745705383089, 40.497292232071445 ], [ -122.56774570551525, 40.496663411317897 ], [ -122.569183009154912, 40.496663411728534 ], [ -122.569183010229239, 40.497022738093172 ], [ -122.568913515314136, 40.497022737502455 ], [ -122.568644020681987, 40.497292232698136 ], [ -122.568644020251369, 40.498190547412037 ], [ -122.56774570524118, 40.498190548000551 ] ] ] } },
{ "type": "Feature", "properties": { "csb_id": "061825014733507", "acres": 4.9567281471352702, "geoid": "06089" }, "geometry": { "type": "Polygon", "coordinates": [ [ [ -122.639161769968538, 40.479775084421341 ], [ -122.640419411991104, 40.479775084731166 ], [ -122.64041941184756, 40.480134410573363 ], [ -122.640149916854384, 40.480134410926098 ], [ -122.64014991746032, 40.480673399227335 ], [ -122.640419412203912, 40.48067339936857 ], [ -122.640419412060353, 40.481032725418039 ], [ -122.638622780512577, 40.481032725606504 ], [ -122.638263454792565, 40.480673399715798 ], [ -122.63826345467254, 40.480403905184453 ], [ -122.63862278185097, 40.480134410671162 ], [ -122.63916176986254, 40.480134410744412 ], [ -122.639161769968538, 40.479775084421341 ] ] ] } },
{ "type": "Feature", "properties": { "csb_id": "061825014733523", "acres": 8.0466821586050497, "geoid": "06089" }, "geometry": { "type": "Polygon", "coordinates": [ [ [ -122.682640229847252, 40.468905469168533 ], [ -122.682640230668255, 40.469264795566488 ], [ -122.683269050584059, 40.469264795701804 ], [ -122.683269050427597, 40.468635975405213 ], [ -122.682909724799103, 40.468635974927757 ], [ -122.682909724839689, 40.468905469552475 ], [ -122.682640229847252, 40.468905469168533 ], [ -122.682640229682008, 40.468635974791148 ], [ -122.682011409111993, 40.468635974732834 ], [ -122.68201140945547, 40.469264795376404 ], [ -122.681472420205267, 40.469264795968229 ], [ -122.681472420366433, 40.468905469702001 ], [ -122.681741915512987, 40.468905469750695 ], [ -122.681741914983689, 40.468635975257683 ], [ -122.681472419871938, 40.468366480151857 ], [ -122.680843599083786, 40.468366480430163 ], [ -122.680843599153832, 40.467468164897184 ], [ -122.682011409102117, 40.467468164968508 ], [ -122.682011409506757, 40.467737659508117 ], [ -122.681741915014427, 40.467737659917347 ], [ -122.681741914400817, 40.468007154503269 ], [ -122.682640229838697, 40.468007154020739 ], [ -122.682640230659715, 40.468366480212786 ], [ -122.683808039358567, 40.468366480175618 ], [ -122.684167365652456, 40.468635975139968 ], [ -122.684167366686722, 40.468905469649101 ], [ -122.683808040191423, 40.469534290294391 ], [ -122.683269050765261, 40.469803784850903 ], [ -122.682909724484205, 40.469803785099451 ], [ -122.682370735267156, 40.469534290562628 ], [ -122.682370735514013, 40.468905469926554 ], [ -122.682640229847252, 40.468905469168533 ] ] ] } }
]
}
