{
"type": "FeatureCollection",
"name": "06093",
"crs": { "type": "name", "properties": { "name": "urn:ogc:def:crs:OGC:1.3:CRS84" } },
"features": [
{ "type": "Feature", "properties": { "csb_id": "061825000413850", "acres": 3.3603608478242899, "geoid": "06093" }, "geometry": { "type": "Polygon", "coordinates": [ [ [ -123.400840198843213, 41.779634699534014 ], [ -123.40084019808431, 41.779275373638114 ], [ -123.400570704398177, 41.779275373675951 ], [ -123.400570703775557, 41.779634699571794 ], [ -123.400840198843213, 41.779634699534014 ], [ -123.400840198454929, 41.779904194024994 ], [ -123.399672388719281, 41.779904194242434 ], [ -123.399313062882911, 41.779634699150087 ], [ -123.399313062637887, 41.77927537392209 ], [ -123.399941882669097, 41.779005878791338 ], [ -123.40182834524785, 41.779005879352752 ], [ -123.401828344829113, 41.779275373563912 ], [ -123.401199524505387, 41.779275373313631 ], [ -123.400840198843213, 41.779634699534014 ] ] ] } },
{ "type": "Feature", "properties": { "csb_id": "061825000413853", "acres": 4.7692054673804796, "geoid": "06093" }, "geometry": { "type": "Polygon", "coordinates": [ [ [ -123.40272666004779, 41.776310932832352 ], [ -123.403355481293971, 41.776221101452442 ], [ -123.403624975783941, 41.774963460458395 ], [ -123.403984302349983, 41.774963460551 ], [ -123.403984302273827, 41.775322786597364 ], [ -123.404882617185436, 41.77532278611163 ], [ -123.4051521121701, 41.775592280462938 ], [ -123.405152111927535, 41.775951607170157 ], [ -123.404882617771904, 41.776221101862937 ], [ -123.4036249756318, 41.776221101268312 ], [ -123.403624976036951, 41.776580427300111 ], [ -123.40398430207118, 41.776580427458242 ], [ -123.403984301809786, 41.77684992273366 ], [ -123.402996154741615, 41.776849922655963 ], [ -123.40272666110404, 41.776580427614491 ], [ -123.40272666004779, 41.776310932832352 ] ], [ [ -123.404253796945099, 41.775592281208368 ], [ -123.4042537967442, 41.775951606898872 ], [ -123.404613122912025, 41.775951607365421 ], [ -123.404613122432607, 41.775592281420678 ], [ -123.404253796945099, 41.775592281208368 ] ] ] } },
{ "type": "Feature", "properties": { "csb_id": "061825000413854", "acres": 6.4175410505831199, "geoid": "06093" }, "geometry": { "type": "Polygon", "coordinates": [ [ [ -123.401828345316375, 41.773795650441016 ], [ -123.401828345502523, 41.773166829394903 ], [ -123.40146901911929, 41.77388548159918 ], [ -123.401109693521192, 41.773885482014265 ], [ -123.40110969283981, 41.773256661574422 ], [ -123.401738513978941, 41.772358346117159 ], [ -123.40236733502968, 41.77235834585013 ], [ -123.402457166027858, 41.772538008583297 ], [ -123.402726660595278, 41.772268514238817 ], [ -123.403624976205421, 41.772268514737299 ], [ -123.403624975520259, 41.773166829837187 ], [ -123.403355481425336, 41.773436324357235 ], [ -123.402097839859138, 41.773436324322795 ], [ -123.402097840439467, 41.773795650307001 ], [ -123.401828345316375, 41.773795650441016 ] ] ] } },
{ "type": "Feature", "properties": { "csb_id": "061825007507585", "acres": 4.1765379953207997, "geoid": "06093" }, "geometry": { "type": "Polygon", "coordinates": [ [ [ -122.51058529199706, 41.797731994793018 ], [ -122.510585291758446, 41.797462500302757 ], [ -122.511034448981121, 41.796923511145351 ], [ -122.511214112745535, 41.796204859477648 ], [ -122.511663270649478, 41.795576038424997 ], [ -122.512381922132988, 41.795845532805465 ], [ -122.512381922285527, 41.796204858912184 ], [ -122.512112427762773, 41.796204859198092 ], [ -122.51193276528501, 41.79647435360458 ], [ -122.511753101441428, 41.797462500534934 ], [ -122.511214112874484, 41.797731995469057 ], [ -122.51058529199706, 41.797731994793018 ] ] ] } },
{ "type": "Feature", "properties": { "csb_id": "061825007508511", "acres": 12.41700382254, "geoid": "06093" }, "geometry": { "type": "Polygon", "coordinates": [ [ [ -122.500075002699532, 41.744372066323059 ], [ -122.500075002509874, 41.74320425748477 ], [ -122.50160213779111, 41.743114425775289 ], [ -122.502410622656257, 41.744012741540601 ], [ -122.502500452724121, 41.744461899237606 ], [ -122.5034886014883, 41.745270382859189 ], [ -122.503488599255391, 41.745539877212138 ], [ -122.500973318145057, 41.745539877250806 ], [ -122.500973318625697, 41.7449110561639 ], [ -122.500344497296823, 41.744911056418722 ], [ -122.500075002699532, 41.744372066323059 ] ] ] } },
{ "type": "Feature", "properties": { "csb_id": "061825007508531", "acres": 18.124921735668199, "geoid": "06093" }, "geometry": { "type": "Polygon", "coordinates": [ [ [ -122.506273378220456, 41.744911056903959 ], [ -122.505644558137774, 41.744641562225063 ], [ -122.505644557906862, 41.744372066903836 ], [ -122.504566580093226, 41.743833078173317 ], [ -122.504566578915259, 41.742305941917238 ], [ -122.503758096252042, 41.74230594229396 ], [ -122.503758095417723, 41.741856784772203 ], [ -122.504656409927421, 41.741856785210672 ], [ -122.504656411364621, 41.742485605216388 ], [ -122.505285231922741, 41.742485605504605 ], [ -122.505285232166216, 41.741856784881847 ], [ -122.507081862071985, 41.741946616266091 ], [ -122.50708186220308, 41.742305942480705 ], [ -122.507351356343136, 41.742575436783262 ], [ -122.507980177717684, 41.742575436925257 ], [ -122.507980176999254, 41.743114425994264 ], [ -122.507620851621013, 41.743204257042748 ], [ -122.507620851736405, 41.743383920193331 ], [ -122.507800514562675, 41.743383920698562 ], [ -122.507800514216271, 41.743743246491206 ], [ -122.507171693663068, 41.744641562335147 ], [ -122.506722535996104, 41.744911056876468 ], [ -122.506273378220456, 41.744911056903959 ] ] ] } },
{ "type": "Feature", "properties": { "csb_id": "061825007508877", "acres": 8.5006642951047198, "geoid": "06093" }, "geometry": { "type": "Polygon", "coordinates": [ [ [ -122.624761164225703, 41.72038704968994 ], [ -122.625693254193436, 41.719662826205585 ], [ -122.625569648321147, 41.718770081460299 ], [ -122.627725605491094, 41.718770082010707 ], [ -122.627725604458576, 41.720387049462538 ], [ -122.624761164225703, 41.72038704968994 ] ] ] } },
{ "type": "Feature", "properties": { "csb_id": "061825007508936", "acres": 6.7088298761467398, "geoid": "06093" }, "geometry": { "type": "Polygon", "coordinates": [ [ [ -122.628084931487379, 41.71508698918656 ], [ -122.629252741385088, 41.715086989135749 ], [ -122.62961206672864, 41.715715809999757 ], [ -122.629612066761084, 41.71634463054361 ], [ -122.629252740967999, 41.716973451613761 ], [ -122.628354425830963, 41.716973450859243 ], [ -122.628354425460245, 41.716614124654996 ], [ -122.627366279004647, 41.716614125430517 ], [ -122.627366279111911, 41.716344630197717 ], [ -122.627725604696181, 41.716344630077714 ], [ -122.628084931487379, 41.71508698918656 ] ] ] } },
{ "type": "Feature", "properties": { "csb_id": "061825011172508", "acres": 3.7533868389220002, "geoid": "06093" }, "geometry": { "type": "Polygon", "coordinates": [ [ [ -121.615550292013168, 41.98864729317237 ], [ -121.615550291412887, 41.988018472827676 ], [ -121.615190965929557, 41.9880184724286 ], [ -121.614921471433178, 41.987659146766184 ], [ -121.614921471432538, 41.986491336807887 ], [ -121.615190965230241, 41.986221842717782 ], [ -121.615550291173349, 41.986221842074144 ], [ -121.615550292275273, 41.987030326078902 ], [ -121.616089281058009, 41.987659146649861 ], [ -121.615819786076017, 41.988647293782286 ], [ -121.615550292013168, 41.98864729317237 ] ] ] } },
{ "type": "Feature", "properties": { "csb_id": "061825011172832", "acres": 9.7937447566902005, "geoid": "06093" }, "geometry": { "type": "Polygon", "coordinates": [ [ [ -121.898250112198369, 41.97589121628593 ], [ -121.898070448594567, 41.975711553304265 ], [ -121.898070448794897, 41.975082734068039 ], [ -121.897172133005697, 41.975082732504156 ], [ -121.897172132955845, 41.974453911728276 ], [ -121.897800953852325, 41.974184417474213 ], [ -121.899328089465129, 41.974094586123847 ], [ -121.899597584616728, 41.974184417737753 ], [ -121.899597583904679, 41.974453911768769 ], [ -121.900855225896905, 41.974453912096806 ], [ -121.901034888882108, 41.974633575589074 ], [ -121.901034889787894, 41.975262396966606 ], [ -121.899328090380138, 41.975262395425801 ], [ -121.899058595218364, 41.975981048553031 ], [ -121.898250112198369, 41.97589121628593 ] ] ] } },
{ "type": "Feature", "properties": { "csb_id": "061825011175128", "acres": 3.35497060047136, "geoid": "06093" }, "geometry": { "type": "Polygon", "coordinates": [ [ [ -121.718587054743978, 41.88426305724041 ], [ -121.716790424141408, 41.884263057295598 ], [ -121.716790423936843, 41.883993563118018 ], [ -121.718048066085089, 41.883993562434952 ], [ -121.718048066133633, 41.883634237153814 ], [ -121.717419245560222, 41.88363423680218 ], [ -121.717419245273419, 41.883364742338522 ], [ -121.718048065119547, 41.88273592157563 ], [ -121.718317560302992, 41.882735921670857 ], [ -121.7185870548022, 41.883364742173342 ], [ -121.718587054743978, 41.88426305724041 ] ] ] } },
{ "type": "Feature", "properties": { "csb_id": "061825011175973", "acres": 12.4328905209945, "geoid": "06093" }, "geometry": { "type": "Polygon", "coordinates": [ [ [ -121.553925863085055, 41.855606800278693 ], [ -121.552578390123088, 41.855516968736843 ], [ -121.552578390534137, 41.855337305056814 ], [ -121.553027546302943, 41.85506781119377 ], [ -121.553027548606835, 41.854438990111746 ], [ -121.552668221525664, 41.854438990592392 ], [ -121.552398726497017, 41.854079663703089 ], [ -121.552398727031004, 41.852283033087424 ], [ -121.552847885033742, 41.851654212308887 ], [ -121.553027547336342, 41.851654212598326 ], [ -121.553117379705924, 41.852911854184541 ], [ -121.554285189334195, 41.852911854318165 ], [ -121.554285189746949, 41.853450843553453 ], [ -121.554734346884672, 41.853450843642996 ], [ -121.554734346803528, 41.853810169594013 ], [ -121.554375020857947, 41.854618652962834 ], [ -121.554375020516247, 41.855337305237811 ], [ -121.553925863092161, 41.855337305206525 ], [ -121.553925863085055, 41.855606800278693 ] ] ] } }
]
}
