{
"type": "FeatureCollection",
"name": "06091",
"crs": { "type": "name", "properties": { "name": "urn:ogc:def:crs:OGC:1.3:CRS84" } },
"features": [
{ "type": "Feature", "properties": { "csb_id": "061825003214204", "acres": 5.1801958372444901, "geoid": "06091" }, "geometry": { "type": "Polygon", "coordinates": [ [ [ -120.883524916047236, 39.539212372115621 ], [ -120.883029262586064, 39.539769169558724 ], [ -120.882769593396873, 39.540943032860696 ], [ -120.882357106005131, 39.541727654278546 ], [ -120.882087611236912, 39.541727654789689 ], [ -120.88172828516889, 39.541458160263709 ], [ -120.881728285419996, 39.541098834179195 ], [ -120.882087610815987, 39.541098833651787 ], [ -120.882087610643978, 39.539661529448843 ], [ -120.882357105944067, 39.539302203574074 ], [ -120.882626600512523, 39.539302203451044 ], [ -120.88262659989033, 39.539661529383629 ], [ -120.882985926459838, 39.539661529198732 ], [ -120.88298592642839, 39.539302203035163 ], [ -120.882626600512523, 39.539302203451044 ], [ -120.882985926764363, 39.539032708598249 ], [ -120.882985926732914, 39.538673382509472 ], [ -120.883524914964951, 39.538673382819901 ], [ -120.883524916047236, 39.539212372115621 ] ] ] } },
{ "type": "Feature", "properties": { "csb_id": "061825012210785", "acres": 3.2262750992724798, "geoid": "06091" }, "geometry": { "type": "Polygon", "coordinates": [ [ [ -120.826133674113905, 39.567628904381756 ], [ -120.826133674611256, 39.567988230829101 ], [ -120.825864180173028, 39.567988230608513 ], [ -120.825864179765233, 39.568886546573317 ], [ -120.824606538871919, 39.568886546118463 ], [ -120.824646716758068, 39.568597752335684 ], [ -120.825235359112995, 39.567988230442289 ], [ -120.825235359682438, 39.567628904686387 ], [ -120.825594684887918, 39.56735940996392 ], [ -120.825864180383178, 39.567359410073671 ], [ -120.825864179882203, 39.567628904391668 ], [ -120.826133674113905, 39.567628904381756 ] ] ] } }
]
}
