{
"type": "FeatureCollection",
"name": "06101",
"crs": { "type": "name", "properties": { "name": "urn:ogc:def:crs:OGC:1.3:CRS84" } },
"features": [
{ "type": "Feature", "properties": { "csb_id": "061825012215179", "acres": 13.3784504856949, "geoid": "06101" }, "geometry": { "type": "Polygon", "coordinates": [ [ [ -121.817155095607788, 39.281425655194191 ], [ -121.817244927194182, 39.278640878313837 ], [ -121.817604253561242, 39.278640878200385 ], [ -121.81760425389777, 39.279000204022822 ], [ -121.819580547486311, 39.280257845617371 ], [ -121.819580547344501, 39.280796834133433 ], [ -121.820029704926625, 39.280796834350248 ], [ -121.820029704735063, 39.28142565582769 ], [ -121.820299199693693, 39.281425655219962 ], [ -121.820299200041006, 39.281695150025911 ], [ -121.818143243013807, 39.281695151124012 ], [ -121.818143242979133, 39.281425655176172 ], [ -121.817155095607788, 39.281425655194191 ] ] ] } },
{ "type": "Feature", "properties": { "csb_id": "061825012215772", "acres": 3.07664230289123, "geoid": "06101" }, "geometry": { "type": "Polygon", "coordinates": [ [ [ -121.650248115713367, 39.250523609169647 ], [ -121.651415926567211, 39.250433778238751 ], [ -121.651415925941848, 39.251691420387253 ], [ -121.650517610827308, 39.251691419802327 ], [ -121.650517609853651, 39.25106259874547 ], [ -121.650248115877233, 39.251062598422962 ], [ -121.650248115713367, 39.250523609169647 ] ] ] } },
{ "type": "Feature", "properties": { "csb_id": "061825012216179", "acres": 5.20865880075592, "geoid": "06101" }, "geometry": { "type": "Polygon", "coordinates": [ [ [ -121.878060872423589, 39.233814944814839 ], [ -121.87725238872396, 39.233904776650419 ], [ -121.877162557288543, 39.233545450907556 ], [ -121.876354073409075, 39.233455618723283 ], [ -121.876354072605125, 39.233186124488476 ], [ -121.87671339879671, 39.233186124588265 ], [ -121.876713399278444, 39.232287809280834 ], [ -121.877252388463404, 39.232287808864839 ], [ -121.87725238810097, 39.232557304003187 ], [ -121.878510029843056, 39.232557304153971 ], [ -121.878510029977534, 39.232916630066043 ], [ -121.878060872423589, 39.233814944814839 ] ] ] } },
{ "type": "Feature", "properties": { "csb_id": "061825012216204", "acres": 4.0523087854564404, "geoid": "06101" }, "geometry": { "type": "Polygon", "coordinates": [ [ [ -121.876354073314218, 39.231928482763529 ], [ -121.877252388376547, 39.231748819737973 ], [ -121.877252388528291, 39.23138949426383 ], [ -121.878150703858466, 39.231389493421609 ], [ -121.878150703141415, 39.231658988364323 ], [ -121.878510029598203, 39.231658988095859 ], [ -121.878510029843056, 39.232557304153971 ], [ -121.87725238810097, 39.232557304003187 ], [ -121.877252388463404, 39.232287808864839 ], [ -121.876713399278444, 39.232287809280834 ], [ -121.876354073314218, 39.231928482763529 ] ] ] } },
{ "type": "Feature", "properties": { "csb_id": "061825012216293", "acres": 23.8844015801217, "geoid": "06101" }, "geometry": { "type": "Polygon", "coordinates": [ [ [ -121.878510029598203, 39.231658988095859 ], [ -121.878510029294446, 39.231389494012539 ], [ -121.878150703858466, 39.231389493421609 ], [ -121.876713399760163, 39.231389494160901 ], [ -121.877252388376547, 39.231748819737973 ], [ -121.876354073314218, 39.231928482763529 ], [ -121.875455757150419, 39.231928483296279 ], [ -121.875455758244158, 39.231658988537625 ], [ -121.875186263867775, 39.231658989306602 ], [ -121.87518626339623, 39.231389494185365 ], [ -121.875455758211743, 39.231389494035838 ], [ -121.875455758374258, 39.230491178785087 ], [ -121.87626424219124, 39.230581010400236 ], [ -121.876264242420007, 39.230221685123823 ], [ -121.875904915333493, 39.230221684269416 ], [ -121.875904915902083, 39.229862358403537 ], [ -121.875186263169113, 39.229862357741474 ], [ -121.87518626232243, 39.229233537878706 ], [ -121.875455757638022, 39.229233537768302 ], [ -121.87572525223419, 39.22896404358368 ], [ -121.875725252418704, 39.228425054453467 ], [ -121.877252388428516, 39.228335221826647 ], [ -121.877252388066111, 39.228604716718237 ], [ -121.878959187881378, 39.228694548336435 ], [ -121.878869355781305, 39.230221684020556 ], [ -121.878689692725175, 39.230581010070985 ], [ -121.878779524373272, 39.231389494024981 ], [ -121.878689692735279, 39.231658988981877 ], [ -121.878510029598203, 39.231658988095859 ] ], [ [ -121.878150703969155, 39.230760673213524 ], [ -121.877611714923887, 39.230760673421685 ], [ -121.877611713330069, 39.231030168085155 ], [ -121.878150703252132, 39.231030168116931 ], [ -121.878150703969155, 39.230760673213524 ] ], [ [ -121.878510029364122, 39.230491179057324 ], [ -121.878510030041269, 39.230131852248164 ], [ -121.878150703765371, 39.23013185223769 ], [ -121.878150703560081, 39.23049117856695 ], [ -121.878510029364122, 39.230491179057324 ] ] ] } },
{ "type": "Feature", "properties": { "csb_id": "061825012216793", "acres": 3.6522909503672198, "geoid": "06101" }, "geometry": { "type": "Polygon", "coordinates": [ [ [ -121.720765865464301, 39.204170540910802 ], [ -121.721304854563215, 39.204170540494005 ], [ -121.721664181636541, 39.204440035185058 ], [ -121.721664180776997, 39.205068856226326 ], [ -121.721304855123606, 39.205428182638876 ], [ -121.720406539526238, 39.205428182534057 ], [ -121.720137045700667, 39.20506885576669 ], [ -121.720137044672086, 39.204799361595377 ], [ -121.720406539863475, 39.204440035282921 ], [ -121.720765865450105, 39.204440035759824 ], [ -121.720765865464301, 39.204170540910802 ] ] ] } },
{ "type": "Feature", "properties": { "csb_id": "061825012217286", "acres": 8.7417883722791707, "geoid": "06101" }, "geometry": { "type": "Polygon", "coordinates": [ [ [ -121.90914258147707, 39.180724511583833 ], [ -121.909142580967099, 39.180095691366638 ], [ -121.908783255153352, 39.180095690798908 ], [ -121.908693423550474, 39.179916028094226 ], [ -121.908783255096466, 39.17955670153907 ], [ -121.908962917794213, 39.17955670171235 ], [ -121.908962917842786, 39.179017713134158 ], [ -121.910490053648715, 39.179017713142969 ], [ -121.910849379708793, 39.179287207531075 ], [ -121.910849380240862, 39.179646533593541 ], [ -121.911388369018169, 39.17955670172681 ], [ -121.911388369261317, 39.17928720777612 ], [ -121.912017189962427, 39.179287207213513 ], [ -121.912017190335959, 39.179646533618104 ], [ -121.912646010593619, 39.179646533416886 ], [ -121.912286684676516, 39.180095691308559 ], [ -121.91201719017748, 39.17991602807016 ], [ -121.911118875264876, 39.179916028409046 ], [ -121.910939211387699, 39.180185523136501 ], [ -121.910220559650455, 39.180455016785636 ], [ -121.910040896547812, 39.180724511864291 ], [ -121.90914258147707, 39.180724511583833 ] ] ] } },
{ "type": "Feature", "properties": { "csb_id": "061825012217353", "acres": 4.9545286607868197, "geoid": "06101" }, "geometry": { "type": "Polygon", "coordinates": [ [ [ -121.912286684679231, 39.175963441224368 ], [ -121.913274831566568, 39.175963441027342 ], [ -121.91327483078652, 39.176322766898309 ], [ -121.912915504604058, 39.176592261518323 ], [ -121.912915505531004, 39.176861756273958 ], [ -121.912646011076475, 39.177221082544719 ], [ -121.912286684681135, 39.177490576777359 ], [ -121.911118874312081, 39.177490576557467 ], [ -121.911118874116141, 39.177221082107614 ], [ -121.91138836875777, 39.177221082644863 ], [ -121.91138836878973, 39.176322766757117 ], [ -121.912286684947233, 39.176322766753202 ], [ -121.912286684679231, 39.175963441224368 ] ] ] } },
{ "type": "Feature", "properties": { "csb_id": "061825012217393", "acres": 20.382359094624501, "geoid": "06101" }, "geometry": { "type": "Polygon", "coordinates": [ [ [ -121.908334096725071, 39.177131250720464 ], [ -121.907615444810091, 39.175873609778009 ], [ -121.907615444716669, 39.174795631365676 ], [ -121.908783255299539, 39.174795631071163 ], [ -121.908263127127327, 39.175513230579426 ], [ -121.908354493445657, 39.17573386162595 ], [ -121.909202936782819, 39.174586492382161 ], [ -121.909591739098019, 39.174346473429274 ], [ -121.91210702105414, 39.174346473352891 ], [ -121.912915505501687, 39.175065125094804 ], [ -121.912915505303445, 39.17533462000241 ], [ -121.912646010579238, 39.175693946497681 ], [ -121.912286684647526, 39.175693945901692 ], [ -121.912286684679231, 39.175963441224368 ], [ -121.911118874492303, 39.175963440654321 ], [ -121.911118874296406, 39.175693946292753 ], [ -121.911388369207742, 39.175693946487996 ], [ -121.911388369382635, 39.175334620009863 ], [ -121.91084938029276, 39.175334620375601 ], [ -121.910849379741506, 39.176322767399782 ], [ -121.908962917637908, 39.17632276664375 ], [ -121.908962917903906, 39.176861755768918 ], [ -121.908693423118137, 39.177131251180498 ], [ -121.908334096725071, 39.177131250720464 ] ] ] } },
{ "type": "Feature", "properties": { "csb_id": "061825012217575", "acres": 6.6770595655636402, "geoid": "06101" }, "geometry": { "type": "Polygon", "coordinates": [ [ [ -121.902944205054311, 39.167788771841003 ], [ -121.901866226708464, 39.16787860303387 ], [ -121.901866226697237, 39.167698940048787 ], [ -121.899979763848464, 39.167698940981687 ], [ -121.899620437403854, 39.167429446084434 ], [ -121.899620438163112, 39.166890456886023 ], [ -121.900518754396543, 39.166890456679454 ], [ -121.900608585682392, 39.166620961836983 ], [ -121.900788249258255, 39.166800624534126 ], [ -121.902764542757879, 39.16689045651831 ], [ -121.902764542397378, 39.167429445983544 ], [ -121.902944205635109, 39.167429445542936 ], [ -121.902944205054311, 39.167788771841003 ] ] ] } },
{ "type": "Feature", "properties": { "csb_id": "061825012217624", "acres": 23.631632006351499, "geoid": "06101" }, "geometry": { "type": "Polygon", "coordinates": [ [ [ -121.902764542757879, 39.16689045651831 ], [ -121.900788249258255, 39.166800624534126 ], [ -121.900339091344506, 39.166531130510378 ], [ -121.900339091502815, 39.166171804371977 ], [ -121.900967911642269, 39.166171804006908 ], [ -121.900967911604482, 39.165992141567074 ], [ -121.901147575155846, 39.165992141041457 ], [ -121.90114757524546, 39.165363320786405 ], [ -121.900788246126652, 39.165363320820369 ], [ -121.900518754430692, 39.16509382626267 ], [ -121.900518754838842, 39.164465005368932 ], [ -121.900159428231348, 39.164465004926434 ], [ -121.899620438634997, 39.165363320435276 ], [ -121.898991615821402, 39.165363320688392 ], [ -121.8987221212995, 39.165093826119296 ], [ -121.898722120958283, 39.164734500052447 ], [ -121.898093300349714, 39.164734500163206 ], [ -121.898093303517655, 39.165093825888619 ], [ -121.896835661906692, 39.165003994019365 ], [ -121.89665599887887, 39.164824331382746 ], [ -121.896655998042746, 39.164375173402973 ], [ -121.898183134541526, 39.164105678698867 ], [ -121.899440776379222, 39.164105679344317 ], [ -121.902315384809782, 39.164375173628152 ], [ -121.902405216106189, 39.164644668674519 ], [ -121.903034036418504, 39.164644667975928 ], [ -121.903034037037671, 39.164375174013223 ], [ -121.903213700094639, 39.164375173460868 ], [ -121.903213699713561, 39.165363320963813 ], [ -121.904112015378928, 39.165992141632728 ], [ -121.904112015072471, 39.166261635548736 ], [ -121.903842521377612, 39.166620962185227 ], [ -121.903034037514786, 39.166620961859081 ], [ -121.902764542757879, 39.16689045651831 ] ] ] } },
{ "type": "Feature", "properties": { "csb_id": "061825012217721", "acres": 8.1701339157695791, "geoid": "06101" }, "geometry": { "type": "Polygon", "coordinates": [ [ [ -121.900159427612166, 39.161051406821194 ], [ -121.900159427835405, 39.16078191264576 ], [ -121.900518754043347, 39.16051241766317 ], [ -121.900518754451468, 39.159883597374659 ], [ -121.900788248903197, 39.159614102415652 ], [ -121.901417069015224, 39.159614102481207 ], [ -121.902584879789813, 39.160512417986766 ], [ -121.902584878022537, 39.161141238763825 ], [ -121.90294420513554, 39.1611412387714 ], [ -121.902944205622319, 39.161410733170001 ], [ -121.900608585013046, 39.161410733751907 ], [ -121.900339091571723, 39.161320901829903 ], [ -121.900339091127975, 39.161051407639221 ], [ -121.900159427612166, 39.161051406821194 ] ] ] } },
{ "type": "Feature", "properties": { "csb_id": "061825012218095", "acres": 11.539671406731999, "geoid": "06101" }, "geometry": { "type": "Polygon", "coordinates": [ [ [ -121.91453247272274, 39.149193645061565 ], [ -121.912466347912357, 39.14928347658342 ], [ -121.912196853400147, 39.148295331206647 ], [ -121.912196853361863, 39.147486847401659 ], [ -121.913634157563578, 39.1471275198763 ], [ -121.914442641215146, 39.147217351987493 ], [ -121.91453247281089, 39.147486846037495 ], [ -121.915520619677309, 39.147666509151158 ], [ -121.915520619889875, 39.148025835050248 ], [ -121.914262978173241, 39.148025835933552 ], [ -121.914262977657756, 39.148564824868316 ], [ -121.91453247240706, 39.14856482456824 ], [ -121.91453247272274, 39.149193645061565 ] ] ] } },
{ "type": "Feature", "properties": { "csb_id": "061825012218152", "acres": 9.5113729395257902, "geoid": "06101" }, "geometry": { "type": "Polygon", "coordinates": [ [ [ -121.911837526386265, 39.147127520191908 ], [ -121.909322243446994, 39.147127520059286 ], [ -121.90932224397497, 39.146319036680005 ], [ -121.908513759932802, 39.146319036909119 ], [ -121.908513760532912, 39.145600384236914 ], [ -121.910490053820226, 39.145869878603612 ], [ -121.911837527048149, 39.145869878399552 ], [ -121.911837526386265, 39.147127520191908 ] ] ] } },
{ "type": "Feature", "properties": { "csb_id": "061825013239032", "acres": 23.514320637400498, "geoid": "06101" }, "geometry": { "type": "Polygon", "coordinates": [ [ [ -121.886215644763183, 39.13726838099555 ], [ -121.885946151591085, 39.136998886848751 ], [ -121.885946151773496, 39.136639560502054 ], [ -121.885586824855537, 39.136370066200534 ], [ -121.885047834626718, 39.136370065882815 ], [ -121.885047836902928, 39.13520225706565 ], [ -121.884868172694723, 39.135202256301419 ], [ -121.884868173444744, 39.132776804525641 ], [ -121.885676656720065, 39.132776804607843 ], [ -121.886215645570999, 39.132417478852233 ], [ -121.886574971899691, 39.132417478364211 ], [ -121.886844466927244, 39.13277680490296 ], [ -121.887113961274878, 39.132776804336231 ], [ -121.887113961364619, 39.133405624957859 ], [ -121.886844466932487, 39.133405625044496 ], [ -121.886844466107732, 39.133944614374428 ], [ -121.887113961113414, 39.134393772157843 ], [ -121.88747328741411, 39.134393772094121 ], [ -121.887473287415773, 39.13403444621445 ], [ -121.888012276266792, 39.134034446510256 ], [ -121.88801227634336, 39.134303940633131 ], [ -121.887742781637073, 39.134303941086891 ], [ -121.887742780920775, 39.134932761383084 ], [ -121.886844466191391, 39.134932762680045 ], [ -121.886844466987498, 39.135471749976844 ], [ -121.887742782152088, 39.135741244940348 ], [ -121.888012276671589, 39.136100571310855 ], [ -121.888012277138856, 39.136639560654991 ], [ -121.887113961852137, 39.136639560436855 ], [ -121.886485140367867, 39.136998886432323 ], [ -121.886485141028231, 39.137268381234676 ], [ -121.886215644763183, 39.13726838099555 ] ] ] } },
{ "type": "Feature", "properties": { "csb_id": "061825013239054", "acres": 7.8859480285532797, "geoid": "06101" }, "geometry": { "type": "Polygon", "coordinates": [ [ [ -121.870584960536419, 39.135741245016618 ], [ -121.870584960179102, 39.133405625431116 ], [ -121.870854455048132, 39.133405625283103 ], [ -121.870854454845343, 39.134034445646137 ], [ -121.871752769658258, 39.133944614577267 ], [ -121.871752770172549, 39.13457343558855 ], [ -121.8726510845121, 39.134573434975948 ], [ -121.872651084627051, 39.135471750965138 ], [ -121.87211209372866, 39.135471750807923 ], [ -121.872112093826246, 39.135920908143717 ], [ -121.870584960536419, 39.135741245016618 ] ] ] } },
{ "type": "Feature", "properties": { "csb_id": "061825013239066", "acres": 15.2743573639173, "geoid": "06101" }, "geometry": { "type": "Polygon", "coordinates": [ [ [ -121.874178221566865, 39.135741245213772 ], [ -121.873010411028872, 39.135741245570806 ], [ -121.873010411339195, 39.135920907814679 ], [ -121.872112093826246, 39.135920908143717 ], [ -121.87211209372866, 39.135471750807923 ], [ -121.872651084627051, 39.135471750965138 ], [ -121.8726510845121, 39.134573434975948 ], [ -121.871752770172549, 39.13457343558855 ], [ -121.871752769658258, 39.133944614577267 ], [ -121.870854454845343, 39.134034445646137 ], [ -121.870854455048132, 39.133405625283103 ], [ -121.870584960179102, 39.133405625431116 ], [ -121.870584959868594, 39.133046298994088 ], [ -121.873010411289656, 39.133046299601766 ], [ -121.873010411099614, 39.133405625000393 ], [ -121.873279905695753, 39.133675119693358 ], [ -121.873908726811734, 39.13367511987623 ], [ -121.874178221470146, 39.13403444590476 ], [ -121.874178221208737, 39.134303940260011 ], [ -121.874807042278093, 39.134303940777826 ], [ -121.874807041353122, 39.134663266468088 ], [ -121.874537547177411, 39.134663266626688 ], [ -121.874447715421738, 39.134393772095073 ], [ -121.874447716127179, 39.135471750161649 ], [ -121.874178221566865, 39.135741245213772 ] ] ] } },
{ "type": "Feature", "properties": { "csb_id": "061825013239450", "acres": 2.9389310988450501, "geoid": "06101" }, "geometry": { "type": "Polygon", "coordinates": [ [ [ -121.776082192374901, 39.114990161579414 ], [ -121.775363540276032, 39.114990161606642 ], [ -121.775453370020031, 39.114451173780701 ], [ -121.774555056386376, 39.114361340797991 ], [ -121.774824549335605, 39.114091847093867 ], [ -121.776082192189889, 39.113912183766722 ], [ -121.776082192137522, 39.114091847046126 ], [ -121.776351687497481, 39.114091847396914 ], [ -121.776351686928876, 39.114720668113137 ], [ -121.776082192374901, 39.114990161579414 ] ] ] } },
{ "type": "Feature", "properties": { "csb_id": "061825013239548", "acres": 15.4228503705228, "geoid": "06101" }, "geometry": { "type": "Polygon", "coordinates": [ [ [ -121.691999881113261, 39.11229521620001 ], [ -121.689574430212389, 39.11229521605653 ], [ -121.689394766874287, 39.110139259486601 ], [ -121.689574430675819, 39.110139259160661 ], [ -121.689664261381509, 39.110588417518883 ], [ -121.692628702918668, 39.110498585756361 ], [ -121.692628702644086, 39.110139259167056 ], [ -121.692898196496628, 39.110139259832401 ], [ -121.692898196795952, 39.110768080292473 ], [ -121.692628702047145, 39.110768080248661 ], [ -121.692628702575036, 39.11139690116859 ], [ -121.692898197095303, 39.111396900829128 ], [ -121.692898197266345, 39.111756226884481 ], [ -121.693167691181728, 39.111756227297278 ], [ -121.69316769162856, 39.112474879099928 ], [ -121.691999881113261, 39.11229521620001 ] ] ] } },
{ "type": "Feature", "properties": { "csb_id": "061825013239601", "acres": 11.6321023403114, "geoid": "06101" }, "geometry": { "type": "Polygon", "coordinates": [ [ [ -121.692269376045232, 39.110498585186441 ], [ -121.689664261381509, 39.110588417518883 ], [ -121.689574430713719, 39.109600269862383 ], [ -121.690203251152354, 39.109690102171555 ], [ -121.690562576667304, 39.109330775394575 ], [ -121.690562577108594, 39.108162965764052 ], [ -121.690832071381081, 39.108162965562535 ], [ -121.690832071972309, 39.107534145315519 ], [ -121.690562577471269, 39.107534145133762 ], [ -121.690562577510562, 39.107264650758125 ], [ -121.691460892262313, 39.107264650908434 ], [ -121.69146089252024, 39.10807313426389 ], [ -121.691730387082899, 39.10807313383475 ], [ -121.691730386724345, 39.109061281351458 ], [ -121.692898196796563, 39.109061280980612 ], [ -121.692898196924858, 39.109330775397993 ], [ -121.691730387331262, 39.109330775675488 ], [ -121.69173038653679, 39.109690101493811 ], [ -121.692269376734998, 39.110139259695202 ], [ -121.692269376045232, 39.110498585186441 ] ] ] } },
{ "type": "Feature", "properties": { "csb_id": "061825013240428", "acres": 7.7139571270012901, "geoid": "06101" }, "geometry": { "type": "Polygon", "coordinates": [ [ [ -121.610163359475195, 39.072589680196529 ], [ -121.609804032775386, 39.072050691796754 ], [ -121.609804033201513, 39.071691365421472 ], [ -121.610163358814177, 39.071691365029452 ], [ -121.61016335859658, 39.071421870789628 ], [ -121.609804033307313, 39.07106254422483 ], [ -121.608097233904829, 39.071152376427953 ], [ -121.608546391567984, 39.070433723664955 ], [ -121.610163359060095, 39.070523555575051 ], [ -121.610163359741136, 39.069894734658739 ], [ -121.610702347789882, 39.069894734477117 ], [ -121.610702348055042, 39.070793049917199 ], [ -121.61043285422862, 39.070793050017578 ], [ -121.610432853227195, 39.07115237618698 ], [ -121.611061674825351, 39.071152376061896 ], [ -121.611061674587489, 39.072320185919821 ], [ -121.610163359475195, 39.072589680196529 ] ] ] } },
{ "type": "Feature", "properties": { "csb_id": "061825013240616", "acres": 5.7484253952439603, "geoid": "06101" }, "geometry": { "type": "Polygon", "coordinates": [ [ [ -121.735658004816401, 39.063786190542359 ], [ -121.735658004319134, 39.063247202027291 ], [ -121.735119015491819, 39.06297770736073 ], [ -121.734220700048255, 39.062977706632239 ], [ -121.734220699526006, 39.063247201754386 ], [ -121.733322384684129, 39.0632472020297 ], [ -121.733322384209899, 39.06270821260938 ], [ -121.733591879492764, 39.062618381233406 ], [ -121.733232552718178, 39.062618380771909 ], [ -121.73323255284609, 39.062259054526244 ], [ -121.736196993733586, 39.062348886240954 ], [ -121.735927498626893, 39.06387602197622 ], [ -121.735658004816401, 39.063786190542359 ] ] ] } },
{ "type": "Feature", "properties": { "csb_id": "061825013240742", "acres": 11.6501036554129, "geoid": "06101" }, "geometry": { "type": "Polygon", "coordinates": [ [ [ -121.831687908788723, 39.059025119665861 ], [ -121.831687908202213, 39.056240342071774 ], [ -121.832047234175548, 39.056240342037086 ], [ -121.832586223868276, 39.055970848180365 ], [ -121.832586223910141, 39.055701352779501 ], [ -121.832945549595465, 39.055701353344922 ], [ -121.833484538634863, 39.056599668202566 ], [ -121.833843864892671, 39.056599668846843 ], [ -121.833843864723846, 39.057497984186867 ], [ -121.833215043839516, 39.057497983948004 ], [ -121.832945549897843, 39.058126804636736 ], [ -121.832945549587805, 39.059114951060884 ], [ -121.831687908788723, 39.059025119665861 ] ] ] } },
{ "type": "Feature", "properties": { "csb_id": "061825013240954", "acres": 4.3692872435692403, "geoid": "06101" }, "geometry": { "type": "Polygon", "coordinates": [ [ [ -121.666397896389711, 39.04968264100215 ], [ -121.664331770578016, 39.049682640838185 ], [ -121.664331770538311, 39.049143651832203 ], [ -121.664601265154417, 39.049143651901716 ], [ -121.664601265665993, 39.048874156630752 ], [ -121.666397895547803, 39.048874156977931 ], [ -121.667026716652487, 39.048514830617044 ], [ -121.667026716108111, 39.049143651338596 ], [ -121.666397896130718, 39.049053819692162 ], [ -121.666397896389711, 39.04968264100215 ] ] ] } },
{ "type": "Feature", "properties": { "csb_id": "061825013241003", "acres": 28.765008002047701, "geoid": "06101" }, "geometry": { "type": "Polygon", "coordinates": [ [ [ -121.653462156627072, 39.049952136502498 ], [ -121.653462156289649, 39.049682641783981 ], [ -121.654090976999896, 39.049053820160253 ], [ -121.6540909768906, 39.048784325867892 ], [ -121.65373165058071, 39.04878432558499 ], [ -121.653462156504318, 39.047975842004135 ], [ -121.653462155500875, 39.047257189409855 ], [ -121.65382148244214, 39.047257189666702 ], [ -121.653731650840143, 39.046897863020043 ], [ -121.65409097631651, 39.046897863357266 ], [ -121.654090976207215, 39.04662836916583 ], [ -121.653821482022636, 39.046628368543857 ], [ -121.653821482241085, 39.046448705835907 ], [ -121.656157101395024, 39.046448705706261 ], [ -121.656426597068048, 39.046628369458226 ], [ -121.657055417503472, 39.046628368704852 ], [ -121.657055417454771, 39.046358874964199 ], [ -121.657953732788414, 39.046358874447826 ], [ -121.657953732435629, 39.047257189424826 ], [ -121.658313058729917, 39.048424999665087 ], [ -121.657953731723481, 39.048784325231018 ], [ -121.657145247759715, 39.048874157547338 ], [ -121.657145248388858, 39.049053820038864 ], [ -121.654989291572974, 39.049053820519653 ], [ -121.654989291640121, 39.049323315538516 ], [ -121.654360471632501, 39.049952135335587 ], [ -121.653462156627072, 39.049952136502498 ] ] ] } },
{ "type": "Feature", "properties": { "csb_id": "061825013242086", "acres": 4.43896953003095, "geoid": "06101" }, "geometry": { "type": "Polygon", "coordinates": [ [ [ -121.676099701044535, 39.006383844576888 ], [ -121.677537005145197, 39.0063838439698 ], [ -121.677537005948324, 39.006653338871146 ], [ -121.678435321382395, 39.006653339000877 ], [ -121.678435320173747, 39.007012664818099 ], [ -121.678165826266621, 39.007282159415325 ], [ -121.677896332220499, 39.007282159504257 ], [ -121.677896331520571, 39.007012665197301 ], [ -121.677267511246754, 39.007012664417488 ], [ -121.677267511051468, 39.007282159346083 ], [ -121.676369195767521, 39.007282159272201 ], [ -121.676369195925261, 39.007551654357925 ], [ -121.676099701001888, 39.007551654224436 ], [ -121.675740375151904, 39.007282159594077 ], [ -121.675740375077183, 39.007012664996331 ], [ -121.676099700436623, 39.007012664540945 ], [ -121.676099701044535, 39.006383844576888 ] ] ] } },
{ "type": "Feature", "properties": { "csb_id": "061825013242094", "acres": 7.1234422251656397, "geoid": "06101" }, "geometry": { "type": "Polygon", "coordinates": [ [ [ -121.678794646881499, 39.008180474280145 ], [ -121.678794646534556, 39.007910980079593 ], [ -121.679064141285963, 39.007910980236765 ], [ -121.679064141191063, 39.007012665080218 ], [ -121.678794647209926, 39.007012664539531 ], [ -121.678794647630113, 39.005755024223724 ], [ -121.679423467695671, 39.005755023340114 ], [ -121.679423467998205, 39.006114349819924 ], [ -121.679692962948522, 39.006383844837977 ], [ -121.681130266447255, 39.006383844420029 ], [ -121.681130266975103, 39.00692283455323 ], [ -121.680860771984129, 39.007012665486066 ], [ -121.68086077150015, 39.007282159595121 ], [ -121.680591277785808, 39.007551654640871 ], [ -121.680321783121045, 39.007551654359332 ], [ -121.680321782732946, 39.007282158995267 ], [ -121.679962456933012, 39.007012666145322 ], [ -121.679692962329611, 39.007012665834928 ], [ -121.679692961387317, 39.008180474134299 ], [ -121.678794646881499, 39.008180474280145 ] ] ] } },
{ "type": "Feature", "properties": { "csb_id": "061825013242164", "acres": 3.2502399219853602, "geoid": "06101" }, "geometry": { "type": "Polygon", "coordinates": [ [ [ -121.678794646972079, 39.005485529268427 ], [ -121.679692961834078, 39.005216034534399 ], [ -121.679692962561461, 39.003599066372217 ], [ -121.680591277453559, 39.003688898305228 ], [ -121.679962456960993, 39.004227886975066 ], [ -121.679962456244965, 39.004587213221647 ], [ -121.680321782775735, 39.004587213496535 ], [ -121.680591276926449, 39.005485528532311 ], [ -121.678794646972079, 39.005485529268427 ] ] ] } },
{ "type": "Feature", "properties": { "csb_id": "061825013242171", "acres": 12.7133529271161, "geoid": "06101" }, "geometry": { "type": "Polygon", "coordinates": [ [ [ -121.676998016431966, 39.005485529125394 ], [ -121.676638690287817, 39.005216034076014 ], [ -121.676638689770044, 39.004227887226989 ], [ -121.675740375324551, 39.004227887643999 ], [ -121.675740375249845, 39.003958393178252 ], [ -121.675470880659987, 39.003958392579563 ], [ -121.67484206007137, 39.003958392585076 ], [ -121.67484205937582, 39.004227887434425 ], [ -121.673943744481321, 39.00422788698171 ], [ -121.67367424985396, 39.003958393123433 ], [ -121.673674250247856, 39.003599067085823 ], [ -121.677537005619584, 39.003599067081602 ], [ -121.677267510573287, 39.003688898328789 ], [ -121.67726751037803, 39.003958393113827 ], [ -121.678165826663161, 39.003958392586391 ], [ -121.67942346796768, 39.004856708401782 ], [ -121.679423467959083, 39.005216033970036 ], [ -121.678794646972079, 39.005485529268427 ], [ -121.676998016431966, 39.005485529125394 ] ] ] } },
{ "type": "Feature", "properties": { "csb_id": "061825013242284", "acres": 3.50928766607676, "geoid": "06101" }, "geometry": { "type": "Polygon", "coordinates": [ [ [ -121.680591277741954, 38.999736311210668 ], [ -121.68122009786758, 38.999736311476056 ], [ -121.681220098338017, 39.001892268132742 ], [ -121.680591277669478, 39.001892267733979 ], [ -121.680321783306965, 39.001263446627199 ], [ -121.6805912776219, 39.000993952211225 ], [ -121.680591277741954, 38.999736311210668 ] ] ] } },
{ "type": "Feature", "properties": { "csb_id": "061825013242475", "acres": 16.752428339468501, "geoid": "06101" }, "geometry": { "type": "Polygon", "coordinates": [ [ [ -121.664870759921612, 38.994256588048231 ], [ -121.664870759935923, 38.993987093265979 ], [ -121.663433456165478, 38.993987093496735 ], [ -121.663433455936556, 38.992729452029288 ], [ -121.663702949421975, 38.992459956938532 ], [ -121.663972445240702, 38.992459957131956 ], [ -121.663972444892877, 38.992100630951441 ], [ -121.665499581122987, 38.992100631009478 ], [ -121.665499580529172, 38.992459957136447 ], [ -121.666397895977994, 38.992459957226451 ], [ -121.666397895815578, 38.992100631245187 ], [ -121.667296211561549, 38.992100631236795 ], [ -121.667296210894875, 38.992998946028756 ], [ -121.667026716829838, 38.992998946702201 ], [ -121.667026716103734, 38.994256587702644 ], [ -121.664870759921612, 38.994256588048231 ] ] ] } },
{ "type": "Feature", "properties": { "csb_id": "061825013242492", "acres": 37.5902043986884, "geoid": "06101" }, "geometry": { "type": "Polygon", "coordinates": [ [ [ -121.671877619514376, 38.994076924609587 ], [ -121.668194526652456, 38.994076925768987 ], [ -121.6681945260558, 38.994256588045182 ], [ -121.667296211768715, 38.994256588603186 ], [ -121.667296211282775, 38.993987093874431 ], [ -121.667026716616022, 38.993987092973839 ], [ -121.667026716829838, 38.992998946702201 ], [ -121.667296210894875, 38.992998946028756 ], [ -121.667296211843023, 38.992729451974824 ], [ -121.667296211561549, 38.992100631236795 ], [ -121.66702671683268, 38.992100630904687 ], [ -121.667026716734114, 38.991561641878157 ], [ -121.667296211712795, 38.991561641734243 ], [ -121.667296211149932, 38.990304000548853 ], [ -121.66756570622357, 38.990034505786667 ], [ -121.668194526281439, 38.990034506131884 ], [ -121.668194525976133, 38.990932821057292 ], [ -121.667925031892551, 38.990932822529842 ], [ -121.667925031839516, 38.991202315886405 ], [ -121.670350483046263, 38.991202315857308 ], [ -121.670889472365033, 38.990663326377735 ], [ -121.670889471790886, 38.990304000511152 ], [ -121.67151829334756, 38.990304001783556 ], [ -121.671518293346992, 38.990663327504578 ], [ -121.671787786984822, 38.990663326445379 ], [ -121.672057282270643, 38.992549788704636 ], [ -121.672057282081894, 38.9936277671125 ], [ -121.671877618700719, 38.993627766924547 ], [ -121.671877619514376, 38.994076924609587 ] ] ] } },
{ "type": "Feature", "properties": { "csb_id": "061825013242493", "acres": 17.6351587164603, "geoid": "06101" }, "geometry": { "type": "Polygon", "coordinates": [ [ [ -121.665499580529172, 38.992459957136447 ], [ -121.665499581122987, 38.992100631009478 ], [ -121.663972444892877, 38.992100630951441 ], [ -121.663972443055712, 38.991202316256143 ], [ -121.664331770668284, 38.99093282101672 ], [ -121.664331770556615, 38.9903040002945 ], [ -121.664601265950466, 38.99003450589619 ], [ -121.665230086649075, 38.990034506311481 ], [ -121.66523008645558, 38.989765011468791 ], [ -121.666667390634728, 38.98976501155245 ], [ -121.666667390264507, 38.989405685483923 ], [ -121.667296211505644, 38.989405685274214 ], [ -121.667296211712795, 38.991561641734243 ], [ -121.667026716734114, 38.991561641878157 ], [ -121.66702671683268, 38.992100630904687 ], [ -121.666397895815578, 38.992100631245187 ], [ -121.666397895977994, 38.992459957226451 ], [ -121.665499580529172, 38.992459957136447 ] ] ] } },
{ "type": "Feature", "properties": { "csb_id": "061825013242529", "acres": 16.839459987499701, "geoid": "06101" }, "geometry": { "type": "Polygon", "coordinates": [ [ [ -121.667925031839516, 38.991202315886405 ], [ -121.667925031892551, 38.990932822529842 ], [ -121.668194525976133, 38.990932821057292 ], [ -121.668194526281439, 38.990034506131884 ], [ -121.66756570622357, 38.990034505786667 ], [ -121.667565705859204, 38.989405684836512 ], [ -121.66819452640884, 38.989405684851249 ], [ -121.668194525025356, 38.98976501196438 ], [ -121.669092840615164, 38.989765011389515 ], [ -121.669092841773278, 38.989136191048296 ], [ -121.668823345740151, 38.989136190740517 ], [ -121.668823346958206, 38.988866696518251 ], [ -121.6690928416822, 38.988866695966159 ], [ -121.669721662929248, 38.988866696366649 ], [ -121.670619975605092, 38.989405685801863 ], [ -121.671518292977623, 38.989405684870313 ], [ -121.671518290702664, 38.988597201741044 ], [ -121.671877618883656, 38.988597201958292 ], [ -121.672057280401958, 38.990393832909319 ], [ -121.671877618134047, 38.99066332690149 ], [ -121.671518293346992, 38.990663327504578 ], [ -121.67151829334756, 38.990304001783556 ], [ -121.670889471790886, 38.990304000511152 ], [ -121.670889472365033, 38.990663326377735 ], [ -121.670350483046263, 38.991202315857308 ], [ -121.667925031839516, 38.991202315886405 ] ] ] } },
{ "type": "Feature", "properties": { "csb_id": "061825013242909", "acres": 7.5868214612251297, "geoid": "06101" }, "geometry": { "type": "Polygon", "coordinates": [ [ [ -121.623188930533075, 38.977727587042402 ], [ -121.623368593733815, 38.975661461313614 ], [ -121.623997414024814, 38.975661461129221 ], [ -121.624266909301596, 38.97593095591666 ], [ -121.624266908679985, 38.976290282467971 ], [ -121.625704213958173, 38.97629028191183 ], [ -121.625704213296402, 38.977098765550316 ], [ -121.624536403614641, 38.97718859718951 ], [ -121.624266908750769, 38.977368260903816 ], [ -121.624266908941806, 38.977727586435613 ], [ -121.623188930533075, 38.977727587042402 ] ] ] } },
{ "type": "Feature", "properties": { "csb_id": "061825013243395", "acres": 9.9295097305207705, "geoid": "06101" }, "geometry": { "type": "Polygon", "coordinates": [ [ [ -121.605851445537311, 38.960839259700464 ], [ -121.604953130940018, 38.960839259265256 ], [ -121.604953130452401, 38.959940943554599 ], [ -121.604144647184114, 38.959132459821689 ], [ -121.604144646566454, 38.958683302272107 ], [ -121.60441413974894, 38.95841380813863 ], [ -121.60585144668535, 38.958413807918788 ], [ -121.605851445583312, 38.959042629044539 ], [ -121.60621077175368, 38.959042628783564 ], [ -121.606210772307222, 38.95841380804282 ], [ -121.606480266039753, 38.958413807786677 ], [ -121.60648026658798, 38.960479933485914 ], [ -121.605851446034166, 38.960479932873085 ], [ -121.605851445537311, 38.960839259700464 ] ] ] } },
{ "type": "Feature", "properties": { "csb_id": "061825013243710", "acres": 6.6880651239086797, "geoid": "06101" }, "geometry": { "type": "Polygon", "coordinates": [ [ [ -121.597407281734704, 38.947005203874994 ], [ -121.59659879828925, 38.947095035064486 ], [ -121.596598798694174, 38.946735709371374 ], [ -121.595969976120898, 38.946735709201263 ], [ -121.595969976600031, 38.947095035902166 ], [ -121.595700481955419, 38.94709503534051 ], [ -121.595341155707885, 38.945478068185054 ], [ -121.597407282194581, 38.945478068125027 ], [ -121.597407281734704, 38.947005203874994 ] ] ] } },
{ "type": "Feature", "properties": { "csb_id": "061825013243859", "acres": 6.02645565515245, "geoid": "06101" }, "geometry": { "type": "Polygon", "coordinates": [ [ [ -121.595700483648386, 38.941345817463102 ], [ -121.596239472506895, 38.939549187341932 ], [ -121.597407282701994, 38.939728850143972 ], [ -121.597407281841996, 38.941345817441828 ], [ -121.595700483648386, 38.941345817463102 ] ] ] } },
{ "type": "Feature", "properties": { "csb_id": "061825013245499", "acres": 3.1021769479769001, "geoid": "06101" }, "geometry": { "type": "Polygon", "coordinates": [ [ [ -121.814619918314449, 38.881338356656372 ], [ -121.814260592254499, 38.880709536202119 ], [ -121.814260591797165, 38.880080715420014 ], [ -121.813991097272975, 38.879901052460895 ], [ -121.813901266298771, 38.879541726277736 ], [ -121.814889412754468, 38.879541725732835 ], [ -121.814889412387188, 38.880440041642288 ], [ -121.815158906642495, 38.88079936786589 ], [ -121.815158906992622, 38.881068861857855 ], [ -121.814889412828592, 38.881338356550501 ], [ -121.814619918314449, 38.881338356656372 ] ] ] } },
{ "type": "Feature", "properties": { "csb_id": "061825013246703", "acres": 6.6493092267121297, "geoid": "06101" }, "geometry": { "type": "Polygon", "coordinates": [ [ [ -121.722093442897403, 38.847022712523319 ], [ -121.720925633528225, 38.847022712874356 ], [ -121.720656138971393, 38.846753218111004 ], [ -121.72029681338573, 38.84675321848826 ], [ -121.720296813033883, 38.846214230274285 ], [ -121.720925633871673, 38.846214228871737 ], [ -121.72092563338164, 38.845315913583235 ], [ -121.721195128722925, 38.844956588173936 ], [ -121.721554454821458, 38.844687093667709 ], [ -121.722183275183767, 38.844687094289469 ], [ -121.722183274932604, 38.845315913670547 ], [ -121.721823948775793, 38.84585490333837 ], [ -121.721823948496308, 38.846663386638234 ], [ -121.722093443705816, 38.846663387703884 ], [ -121.722093442897403, 38.847022712523319 ] ] ] } },
{ "type": "Feature", "properties": { "csb_id": "061825013247051", "acres": 3.98832557523547, "geoid": "06101" }, "geometry": { "type": "Polygon", "coordinates": [ [ [ -121.637831469271134, 38.834625962419231 ], [ -121.638370458509641, 38.832919162517335 ], [ -121.638729785145088, 38.832829331709192 ], [ -121.638729785452128, 38.833188657316953 ], [ -121.638999279890641, 38.833188657472803 ], [ -121.63899927969635, 38.833727646934577 ], [ -121.638729785507266, 38.833727646303103 ], [ -121.638729784722528, 38.834176804299958 ], [ -121.63872978559138, 38.834356467438887 ], [ -121.638999279553204, 38.834356467686021 ], [ -121.638999279100091, 38.834985287619602 ], [ -121.638370459034888, 38.83498528885719 ], [ -121.637831469271134, 38.834625962419231 ] ] ] } }
]
}
