{
"type": "FeatureCollection",
"name": "06109",
"crs": { "type": "name", "properties": { "name": "urn:ogc:def:crs:OGC:1.3:CRS84" } },
"features": [
{ "type": "Feature", "properties": { "csb_id": "061825011824373", "acres": 2.3167454121831299, "geoid": "06109" }, "geometry": { "type": "Polygon", "coordinates": [ [ [ -120.49358983557309, 37.892552445919101 ], [ -120.49341017263319, 37.892193120094944 ], [ -120.492961014539674, 37.891833794394223 ], [ -120.492332193928647, 37.891833794071182 ], [ -120.49233219431143, 37.891654130743476 ], [ -120.493589835227965, 37.89156429980352 ], [ -120.493589836028491, 37.89183379407168 ], [ -120.493769498914986, 37.891923626040459 ], [ -120.494488151243772, 37.891923625217451 ], [ -120.494488150881764, 37.892193120377542 ], [ -120.493859329839253, 37.892552446121982 ], [ -120.49358983557309, 37.892552445919101 ] ] ] } }
]
}
