{
"type": "FeatureCollection",
"name": "06103",
"crs": { "type": "name", "properties": { "name": "urn:ogc:def:crs:OGC:1.3:CRS84" } },
"features": [
{ "type": "Feature", "properties": { "csb_id": "061825001011801", "acres": 17.778456228330199, "geoid": "06103" }, "geometry": { "type": "Polygon", "coordinates": [ [ [ -121.855555538932222, 40.439454960305575 ], [ -121.855914865250597, 40.439454958674624 ], [ -121.855914865060655, 40.439185464428064 ], [ -121.855555539460397, 40.439185464339261 ], [ -121.855555538932222, 40.439454960305575 ], [ -121.8552860442868, 40.439454959449634 ], [ -121.855286044866517, 40.438826139631729 ], [ -121.854657223718206, 40.438826138482263 ], [ -121.854657224230905, 40.438107487202593 ], [ -121.855106381632638, 40.437927824698647 ], [ -121.855914865443822, 40.437927823094292 ], [ -121.855914864935443, 40.437748160510424 ], [ -121.856184359541331, 40.437927823371552 ], [ -121.859867452771766, 40.437927823437249 ], [ -121.859867451724213, 40.438197317150383 ], [ -121.859508126440176, 40.438197319063903 ], [ -121.8595081258362, 40.438826138092054 ], [ -121.86013694727572, 40.438826139177955 ], [ -121.860136946197414, 40.439185464868189 ], [ -121.857082675244953, 40.439185464670516 ], [ -121.85645385397045, 40.43972445386661 ], [ -121.856453854136277, 40.440622770022749 ], [ -121.856184359681933, 40.440712601691331 ], [ -121.855914865186932, 40.440712602074527 ], [ -121.855555539560342, 40.440353274770466 ], [ -121.855555538932222, 40.439454960305575 ] ] ] } },
{ "type": "Feature", "properties": { "csb_id": "061825001011807", "acres": 8.1307425906859496, "geoid": "06103" }, "geometry": { "type": "Polygon", "coordinates": [ [ [ -121.860136946197414, 40.439185464868189 ], [ -121.86013694727572, 40.438826139177955 ], [ -121.8595081258362, 40.438826138092054 ], [ -121.859508126440176, 40.438197319063903 ], [ -121.859867451724213, 40.438197317150383 ], [ -121.859867452771766, 40.437927823437249 ], [ -121.856184359541331, 40.437927823371552 ], [ -121.855914864934348, 40.437658328246286 ], [ -121.856903012255941, 40.437388833828614 ], [ -121.858699642795742, 40.437388833862194 ], [ -121.859238631392742, 40.437388834022435 ], [ -121.859238632155851, 40.437748159908516 ], [ -121.860765767607361, 40.437658328711663 ], [ -121.861035262086148, 40.438197318279066 ], [ -121.861035262415612, 40.438556645407076 ], [ -121.860765767687511, 40.439185464409817 ], [ -121.860136946197414, 40.439185464868189 ] ] ] } },
{ "type": "Feature", "properties": { "csb_id": "061825001011823", "acres": 11.620185495262101, "geoid": "06103" }, "geometry": { "type": "Polygon", "coordinates": [ [ [ -121.861125094097147, 40.435592203871003 ], [ -121.861125094193682, 40.4349633832393 ], [ -121.860496273279935, 40.434604057144242 ], [ -121.860496272971218, 40.433346415627042 ], [ -121.860765767606878, 40.433076921074992 ], [ -121.861394588475562, 40.433076921172699 ], [ -121.861664082835787, 40.433166752387017 ], [ -121.861664083167454, 40.433436247355452 ], [ -121.862292903580737, 40.433436246529325 ], [ -121.86229290380362, 40.433166752800709 ], [ -121.862023409339002, 40.433166752691761 ], [ -121.86202340893378, 40.432807426677805 ], [ -121.863820039806114, 40.432807426176787 ], [ -121.864089534055978, 40.433166752353372 ], [ -121.864059356183731, 40.433855226737613 ], [ -121.863640376856637, 40.434065067695087 ], [ -121.862023409047154, 40.434065067890138 ], [ -121.862023408641903, 40.433705741674189 ], [ -121.861664083179562, 40.433705741509442 ], [ -121.861664083252151, 40.434334562605557 ], [ -121.862023408435704, 40.434963382734168 ], [ -121.86202340906496, 40.435592203945738 ], [ -121.861125094097147, 40.435592203871003 ] ], [ [ -121.861394588312208, 40.434065068137258 ], [ -121.860765767390745, 40.434065068079626 ], [ -121.860765767765159, 40.434334562479762 ], [ -121.861394588451645, 40.434334562157467 ], [ -121.861394588312208, 40.434065068137258 ] ], [ [ -121.863550544752982, 40.433705741276469 ], [ -121.863820039921649, 40.433705741193137 ], [ -121.863820039277144, 40.433436247319108 ], [ -121.863550545126301, 40.433436247402383 ], [ -121.863550544752982, 40.433705741276469 ] ] ] } },
{ "type": "Feature", "properties": { "csb_id": "061825001011825", "acres": 3.1468317242504198, "geoid": "06103" }, "geometry": { "type": "Polygon", "coordinates": [ [ [ -121.839745189949554, 40.432448100049442 ], [ -121.839745189922255, 40.432178605839596 ], [ -121.839206200957406, 40.432178605127255 ], [ -121.838997062369515, 40.432028418601298 ], [ -121.838846875092159, 40.431549785042556 ], [ -121.840643505138615, 40.431549784567579 ], [ -121.840912999778837, 40.431819279433057 ], [ -121.840913000032216, 40.432178605234434 ], [ -121.840643505148805, 40.432448099881341 ], [ -121.839745189949554, 40.432448100049442 ] ], [ [ -121.840374010786419, 40.43181927963424 ], [ -121.840014684347281, 40.431819279512915 ], [ -121.840014684977263, 40.432178605215157 ], [ -121.840374010935363, 40.432178605815999 ], [ -121.840374010786419, 40.43181927963424 ] ] ] } },
{ "type": "Feature", "properties": { "csb_id": "061825001011844", "acres": 6.0974716759503496, "geoid": "06103" }, "geometry": { "type": "Polygon", "coordinates": [ [ [ -121.836151929235669, 40.427237870998134 ], [ -121.8361519285734, 40.426698882773337 ], [ -121.835433277219451, 40.42660905103449 ], [ -121.835433276163783, 40.426968376651168 ], [ -121.835163782087804, 40.426968376994466 ], [ -121.835163782362727, 40.42633955572753 ], [ -121.835792602693488, 40.425710735522181 ], [ -121.836421423707009, 40.42571073579245 ], [ -121.836421424191442, 40.426070061926865 ], [ -121.837319739318346, 40.426070062070764 ], [ -121.837319739210457, 40.425710735837264 ], [ -121.837948559023232, 40.425710735257788 ], [ -121.838218054070424, 40.426070061476899 ], [ -121.838218053868914, 40.426339556279103 ], [ -121.837319739639781, 40.426609052001844 ], [ -121.836421422996807, 40.427237871609712 ], [ -121.836151929235669, 40.427237870998134 ] ] ] } },
{ "type": "Feature", "properties": { "csb_id": "061825001011856", "acres": 3.62672074724144, "geoid": "06103" }, "geometry": { "type": "Polygon", "coordinates": [ [ [ -121.825102650321099, 40.421847979819368 ], [ -121.82546197753814, 40.421847980100708 ], [ -121.825461977173305, 40.422476800269671 ], [ -121.826090797567403, 40.422476800629148 ], [ -121.826090797449808, 40.422746295418946 ], [ -121.825461977290459, 40.422746295440241 ], [ -121.82546197692561, 40.423375115960837 ], [ -121.825731471980831, 40.423375115625454 ], [ -121.82573147202973, 40.423734442110209 ], [ -121.824204335774837, 40.423734441418013 ], [ -121.824204335080154, 40.423375115750588 ], [ -121.824833156223562, 40.423105621641426 ], [ -121.824833156943257, 40.422746295156273 ], [ -121.825102650544579, 40.422476800129466 ], [ -121.825102650321099, 40.421847979819368 ] ] ] } },
{ "type": "Feature", "properties": { "csb_id": "061825007807283", "acres": 3.5650884624837902, "geoid": "06103" }, "geometry": { "type": "Polygon", "coordinates": [ [ [ -122.01343702105936, 39.97888054522754 ], [ -122.013167526813362, 39.978880544447833 ], [ -122.01316752700653, 39.979150039528378 ], [ -122.012448874386877, 39.979060207753136 ], [ -122.012448874616567, 39.978790713166575 ], [ -122.012808201251488, 39.97879071335683 ], [ -122.013077695032976, 39.978431387341914 ], [ -122.0131675267438, 39.977892397832292 ], [ -122.013437020944693, 39.97762290358645 ], [ -122.013796347561637, 39.977622903426081 ], [ -122.01406584167411, 39.978251724256261 ], [ -122.014065842044232, 39.979150039791904 ], [ -122.01343702194481, 39.979150039448839 ], [ -122.01343702105936, 39.97888054522754 ] ] ] } },
{ "type": "Feature", "properties": { "csb_id": "061825007807383", "acres": 3.2534825177852298, "geoid": "06103" }, "geometry": { "type": "Polygon", "coordinates": [ [ [ -122.005172520766735, 39.96926857080468 ], [ -122.005172521185543, 39.968370256017103 ], [ -122.006340330215053, 39.968370256290072 ], [ -122.006340331023353, 39.96872958226497 ], [ -122.00696915078403, 39.968729582113966 ], [ -122.006969151688864, 39.969268570866262 ], [ -122.005172520766735, 39.96926857080468 ] ] ] } },
{ "type": "Feature", "properties": { "csb_id": "061825007807423", "acres": 68.360835188826897, "geoid": "06103" }, "geometry": { "type": "Polygon", "coordinates": [ [ [ -122.077846227442663, 39.973041495418762 ], [ -122.07748690092582, 39.972772000563211 ], [ -122.077486901511179, 39.971873685865489 ], [ -122.076947912137669, 39.971873685847839 ], [ -122.076947912257097, 39.971244865182953 ], [ -122.077217406289279, 39.971244865117789 ], [ -122.077217406450288, 39.97088553827102 ], [ -122.07658858585404, 39.970885539065016 ], [ -122.07658858549236, 39.970616044574527 ], [ -122.077217406194947, 39.970346550075085 ], [ -122.078475048113162, 39.970346549873973 ], [ -122.078475048005927, 39.969717728720262 ], [ -122.077846227614003, 39.96971772866187 ], [ -122.077846226690724, 39.969987223388245 ], [ -122.075959765476199, 39.969987223250662 ], [ -122.075959765054449, 39.969088908448306 ], [ -122.075690270753867, 39.96881941397497 ], [ -122.07542077591188, 39.968819413803715 ], [ -122.075420776170532, 39.967831266913684 ], [ -122.074791955673831, 39.967831266247593 ], [ -122.074791955649133, 39.968460087427324 ], [ -122.074073302628392, 39.968819413360393 ], [ -122.073534314156106, 39.968370255869786 ], [ -122.073534313716038, 39.968190592898651 ], [ -122.073893640186441, 39.968190593698033 ], [ -122.073893639462113, 39.967831266458738 ], [ -122.073264819891747, 39.967831267232185 ], [ -122.073264818748711, 39.966663456273523 ], [ -122.073534313891784, 39.966304130672427 ], [ -122.074791954962592, 39.966304131095512 ], [ -122.075690270882006, 39.965765141381304 ], [ -122.076319090946271, 39.965765142144377 ], [ -122.076319091423755, 39.966304131404186 ], [ -122.076947912300255, 39.966304131708846 ], [ -122.076947912863986, 39.966034637316383 ], [ -122.077846228067244, 39.966034636685251 ], [ -122.0781157216081, 39.966304130481099 ], [ -122.078115721482689, 39.966932951858134 ], [ -122.077846226932493, 39.966932951837471 ], [ -122.077846227324187, 39.96729227763938 ], [ -122.078475048221648, 39.967292276780952 ], [ -122.078475048114456, 39.966663456532082 ], [ -122.081169993677861, 39.966663457765371 ], [ -122.081529319620685, 39.966932951790398 ], [ -122.081439488590917, 39.967292277093094 ], [ -122.080900499133918, 39.967292277239579 ], [ -122.080900499604667, 39.967831266785801 ], [ -122.08054117275897, 39.967831266995908 ], [ -122.080541172711492, 39.967292277933453 ], [ -122.079373363030655, 39.967292277944672 ], [ -122.079373362970955, 39.967561772471377 ], [ -122.0796428574305, 39.967561772522728 ], [ -122.079642858028592, 39.968190593254114 ], [ -122.079373363482929, 39.968190592719111 ], [ -122.079373362857936, 39.968819413394961 ], [ -122.081080162122319, 39.968819413200301 ], [ -122.081080161970775, 39.968999076657667 ], [ -122.08018184713859, 39.969897392546976 ], [ -122.0801818471991, 39.970166886170063 ], [ -122.080451341203201, 39.970166886665858 ], [ -122.080451341099263, 39.970795707043386 ], [ -122.0801818473292, 39.970795706922999 ], [ -122.080181847459301, 39.971424527862524 ], [ -122.079912352199301, 39.972322843180763 ], [ -122.079642857532093, 39.972682169588154 ], [ -122.078744542473018, 39.972772001219369 ], [ -122.078654710582697, 39.973041495506415 ], [ -122.077846227442663, 39.973041495418762 ] ] ] } },
{ "type": "Feature", "properties": { "csb_id": "061825007807450", "acres": 13.279491022497201, "geoid": "06103" }, "geometry": { "type": "Polygon", "coordinates": [ [ [ -122.073893640034768, 39.966034635844977 ], [ -122.073534313708564, 39.965765142087058 ], [ -122.073534313553807, 39.965136321303724 ], [ -122.072905493563894, 39.965136321680326 ], [ -122.072905493569436, 39.965405815392657 ], [ -122.071827514568781, 39.96531598392987 ], [ -122.071647851710679, 39.96504648899456 ], [ -122.07164785190075, 39.964507499951182 ], [ -122.075061449396699, 39.963519353352559 ], [ -122.075061449639904, 39.96387867935406 ], [ -122.075420774467929, 39.963878679895217 ], [ -122.075420776218948, 39.964507499772246 ], [ -122.074432628606942, 39.964507499994667 ], [ -122.074432629486537, 39.96513632118387 ], [ -122.075420776016074, 39.965136321177759 ], [ -122.075420776248691, 39.964776994480289 ], [ -122.075959765117204, 39.964776994455342 ], [ -122.075959765583363, 39.965405814947786 ], [ -122.075420775725803, 39.965405815106337 ], [ -122.075420776630125, 39.965765141668207 ], [ -122.074432628909094, 39.965765141941624 ], [ -122.074432628641219, 39.966034636083535 ], [ -122.073893640034768, 39.966034635844977 ] ] ] } },
{ "type": "Feature", "properties": { "csb_id": "061825007807464", "acres": 8.0682967573144104, "geoid": "06103" }, "geometry": { "type": "Polygon", "coordinates": [ [ [ -122.187530523365908, 39.961992217815137 ], [ -122.187261028271479, 39.961992217065287 ], [ -122.187261028479341, 39.962261711870703 ], [ -122.187530523127236, 39.962261712004633 ], [ -122.187530523365908, 39.961992217815137 ], [ -122.187800018138972, 39.961992217128774 ], [ -122.187800017514022, 39.960734576154628 ], [ -122.188249175435757, 39.960734576072817 ], [ -122.188159343762109, 39.962621038523622 ], [ -122.186003387775145, 39.962621037849125 ], [ -122.185464398245401, 39.962261712444608 ], [ -122.185464398277844, 39.962082048615322 ], [ -122.184835577665382, 39.962082048799161 ], [ -122.184835577788505, 39.961722722773146 ], [ -122.185374566644583, 39.961722722813143 ], [ -122.185374566343754, 39.96136339636201 ], [ -122.185733893093811, 39.961363396704591 ], [ -122.18573389243798, 39.961632891318054 ], [ -122.186003387171567, 39.961632891419498 ], [ -122.186272881996075, 39.96136339694592 ], [ -122.186272881765689, 39.96109390212365 ], [ -122.186632208131243, 39.961093902476044 ], [ -122.186901702617163, 39.961363396576424 ], [ -122.186991534623303, 39.961722722684122 ], [ -122.187530523283186, 39.961722722800992 ], [ -122.187530523365908, 39.961992217815137 ] ] ] } },
{ "type": "Feature", "properties": { "csb_id": "061825007807514", "acres": 7.1037899489063303, "geoid": "06103" }, "geometry": { "type": "Polygon", "coordinates": [ [ [ -122.004274206090429, 39.959656597652121 ], [ -122.00436403673686, 39.959027776757885 ], [ -122.004903026440175, 39.958398956134303 ], [ -122.005531847202832, 39.958129461996855 ], [ -122.006160667127673, 39.958129461923868 ], [ -122.006160667891933, 39.958578619605454 ], [ -122.00643016175718, 39.958937945759843 ], [ -122.006430161818813, 39.95965659788817 ], [ -122.006789488049463, 39.95965659782906 ], [ -122.006789488146765, 39.959926091898673 ], [ -122.005262353062292, 39.959926093512848 ], [ -122.005262352052881, 39.959656598071348 ], [ -122.004274206090429, 39.959656597652121 ] ] ] } },
{ "type": "Feature", "properties": { "csb_id": "061825007807743", "acres": 4.7777905465674797, "geoid": "06103" }, "geometry": { "type": "Polygon", "coordinates": [ [ [ -122.028618548994757, 39.946181868509633 ], [ -122.027450739283481, 39.946181868168402 ], [ -122.027450739293769, 39.945822541932209 ], [ -122.027720233997485, 39.945283553021831 ], [ -122.027989729390654, 39.945193721651776 ], [ -122.02798972875236, 39.944924227495434 ], [ -122.028349054676767, 39.944654732648374 ], [ -122.028977876142477, 39.944654732158263 ], [ -122.029247370889564, 39.94519372157496 ], [ -122.029247370134172, 39.945553047919148 ], [ -122.028618548994757, 39.946181868509633 ] ] ] } },
{ "type": "Feature", "properties": { "csb_id": "061825007807755", "acres": 4.3609648438686399, "geoid": "06103" }, "geometry": { "type": "Polygon", "coordinates": [ [ [ -122.1987594648769, 39.945283552580946 ], [ -122.197861149442105, 39.945193721164578 ], [ -122.197681485733284, 39.944924227088869 ], [ -122.19768148578838, 39.944295405925935 ], [ -122.198849296019446, 39.944025911564012 ], [ -122.198849296230918, 39.944295405986104 ], [ -122.199747611204344, 39.944295406731754 ], [ -122.19965707837261, 39.944743861935336 ], [ -122.1987594648769, 39.945283552580946 ] ] ] } },
{ "type": "Feature", "properties": { "csb_id": "061825007807778", "acres": 3.4722866422349301, "geoid": "06103" }, "geometry": { "type": "Polygon", "coordinates": [ [ [ -122.027450739344928, 39.944025911648851 ], [ -122.027450739293229, 39.943037765415461 ], [ -122.027989728690827, 39.943037764699532 ], [ -122.027989729189343, 39.942768270570916 ], [ -122.028438886944969, 39.942768270339599 ], [ -122.028977876555928, 39.942768271402173 ], [ -122.029247370874728, 39.943037765731574 ], [ -122.029247370609752, 39.943666585789003 ], [ -122.027720233820347, 39.943666585326014 ], [ -122.027450739344928, 39.944025911648851 ] ] ] } },
{ "type": "Feature", "properties": { "csb_id": "061825007807896", "acres": 16.631136231093102, "geoid": "06103" }, "geometry": { "type": "Polygon", "coordinates": [ [ [ -122.063742677377078, 39.937019052640998 ], [ -122.063203687944821, 39.937019052140805 ], [ -122.063203687853758, 39.937288547584622 ], [ -122.062574866959281, 39.937288547418575 ], [ -122.060749089253974, 39.934797871403397 ], [ -122.062664699454601, 39.933929295171808 ], [ -122.062993846927839, 39.934174621181384 ], [ -122.064551160888655, 39.936390231729987 ], [ -122.064012171485871, 39.936390231984582 ], [ -122.064012171864448, 39.936929221139096 ], [ -122.06428166672319, 39.936929221233683 ], [ -122.064281666120053, 39.937558041725424 ], [ -122.063742677377078, 39.937019052640998 ] ] ] } },
{ "type": "Feature", "properties": { "csb_id": "061825007808457", "acres": 5.7949880673067096, "geoid": "06103" }, "geometry": { "type": "Polygon", "coordinates": [ [ [ -121.948219332015796, 39.886174407463862 ], [ -121.948219331588248, 39.886443901655653 ], [ -121.950015962013325, 39.886443902330313 ], [ -121.950375288018876, 39.886713396542255 ], [ -121.950375288298815, 39.887611712185674 ], [ -121.950015962656636, 39.887611711579041 ], [ -121.950015962347351, 39.887342216903427 ], [ -121.948488826902505, 39.887342217358757 ], [ -121.948488826349191, 39.887611711931022 ], [ -121.948219331720182, 39.88761171224408 ], [ -121.947949837376498, 39.887072722970025 ], [ -121.947949836792844, 39.886443902353349 ], [ -121.947590510944337, 39.886443901650942 ], [ -121.947590511138912, 39.886174407081 ], [ -121.948219332015796, 39.886174407463862 ] ] ] } },
{ "type": "Feature", "properties": { "csb_id": "061825007808839", "acres": 3.4669725330809902, "geoid": "06103" }, "geometry": { "type": "Polygon", "coordinates": [ [ [ -122.161659043436813, 39.860392758940513 ], [ -122.161569212043744, 39.860213095501997 ], [ -122.160401402155912, 39.859853769657882 ], [ -122.160401401797301, 39.859494443790481 ], [ -122.162557357869517, 39.859494443179685 ], [ -122.162557358420713, 39.860213095901806 ], [ -122.162198032366973, 39.860213095496746 ], [ -122.162198032334814, 39.86039275902052 ], [ -122.161659043436813, 39.860392758940513 ] ] ] } },
{ "type": "Feature", "properties": { "csb_id": "061825014733682", "acres": 5.9064334002259704, "geoid": "06103" }, "geometry": { "type": "Polygon", "coordinates": [ [ [ -122.309839387186344, 40.354639765753937 ], [ -122.309839387009461, 40.354010944363147 ], [ -122.309659724058918, 40.353741449835177 ], [ -122.30983938715714, 40.35338212406802 ], [ -122.310647870150106, 40.353112629882865 ], [ -122.311546185568318, 40.353112629054273 ], [ -122.311905512750755, 40.353382123850039 ], [ -122.311905512357356, 40.354010944370408 ], [ -122.311007197306125, 40.354280440142709 ], [ -122.310647870576204, 40.354639765259535 ], [ -122.309839387186344, 40.354639765753937 ] ] ] } },
{ "type": "Feature", "properties": { "csb_id": "061825014733737", "acres": 13.0486370137734, "geoid": "06103" }, "geometry": { "type": "Polygon", "coordinates": [ [ [ -122.499833070076519, 40.235433326715452 ], [ -122.499833069650265, 40.235163833274299 ], [ -122.499563575092068, 40.235163832700749 ], [ -122.49956357482958, 40.235433327000045 ], [ -122.499833070076519, 40.235433326715452 ], [ -122.499833069770546, 40.236062147968681 ], [ -122.499563575441968, 40.236421474010434 ], [ -122.498934754912966, 40.236690968759795 ], [ -122.49803643922624, 40.236690968427347 ], [ -122.497766944971332, 40.236421473452872 ], [ -122.497677113648308, 40.235433327470012 ], [ -122.498305933995965, 40.234894338172928 ], [ -122.498575428513362, 40.234894337507619 ], [ -122.498575426920951, 40.233996023407322 ], [ -122.500372059680856, 40.233996022976136 ], [ -122.500731385290436, 40.234535011765907 ], [ -122.500731385388164, 40.235163832460834 ], [ -122.499833070076519, 40.235433326715452 ] ] ] } },
{ "type": "Feature", "properties": { "csb_id": "061825014733770", "acres": 2.73568769245475, "geoid": "06103" }, "geometry": { "type": "Polygon", "coordinates": [ [ [ -122.303102022384408, 40.148296744671249 ], [ -122.303102022959607, 40.146769608093628 ], [ -122.30373084353711, 40.1467696085627 ], [ -122.303820674530471, 40.147398429167296 ], [ -122.304000338129384, 40.147398429209098 ], [ -122.304000337818636, 40.148027249843132 ], [ -122.303461348561413, 40.148296744946919 ], [ -122.303102022384408, 40.148296744671249 ] ] ] } },
{ "type": "Feature", "properties": { "csb_id": "061825014733771", "acres": 16.040277402120498, "geoid": "06103" }, "geometry": { "type": "Polygon", "coordinates": [ [ [ -122.300407076341671, 40.150093375430153 ], [ -122.30040707730204, 40.149195060107182 ], [ -122.299778256543533, 40.149195059881954 ], [ -122.299778256121968, 40.148296743260133 ], [ -122.300137581665069, 40.148296744793257 ], [ -122.300407076324163, 40.148027249819826 ], [ -122.300407076772998, 40.147667924205038 ], [ -122.301035897793923, 40.147128934308334 ], [ -122.301035897366575, 40.146769608377049 ], [ -122.302563033955991, 40.146769608628269 ], [ -122.30256303342324, 40.147128934549592 ], [ -122.303102022852443, 40.147128934502788 ], [ -122.303102022915638, 40.148566238863197 ], [ -122.301664718640978, 40.149464554670139 ], [ -122.301035896856803, 40.149554385794971 ], [ -122.300766403050858, 40.149823880496854 ], [ -122.300766402276551, 40.150093375161148 ], [ -122.300407076341671, 40.150093375430153 ] ], [ [ -122.3019342120906, 40.148027249686486 ], [ -122.301664718138298, 40.148027250326386 ], [ -122.301664718141964, 40.14829674436281 ], [ -122.301934212292622, 40.148296744825373 ], [ -122.3019342120906, 40.148027249686486 ] ] ] } },
{ "type": "Feature", "properties": { "csb_id": "061825014733773", "acres": 6.1318128163490497, "geoid": "06103" }, "geometry": { "type": "Polygon", "coordinates": [ [ [ -122.30373084353711, 40.1467696085627 ], [ -122.303102022959607, 40.146769608093628 ], [ -122.303102022852443, 40.147128934502788 ], [ -122.30256303342324, 40.147128934549592 ], [ -122.302563033955991, 40.146769608628269 ], [ -122.301035897366575, 40.146769608377049 ], [ -122.300766402536325, 40.1462306193621 ], [ -122.301664718286688, 40.146230619416016 ], [ -122.301664718122211, 40.145871292924134 ], [ -122.303730842993033, 40.145871293644241 ], [ -122.303730843438487, 40.146230619511513 ], [ -122.304090169350715, 40.146500114350339 ], [ -122.303820674712739, 40.147128934410603 ], [ -122.30373084353711, 40.1467696085627 ] ] ] } },
{ "type": "Feature", "properties": { "csb_id": "061825014733776", "acres": 19.338784207165599, "geoid": "06103" }, "geometry": { "type": "Polygon", "coordinates": [ [ [ -122.298340950660418, 40.148296744292651 ], [ -122.298340951939124, 40.148027249875298 ], [ -122.297981625456217, 40.148027250207456 ], [ -122.298071457483076, 40.146230619296624 ], [ -122.298340951438277, 40.14587129358123 ], [ -122.298071456963967, 40.1449729778425 ], [ -122.298071457273949, 40.144344157307636 ], [ -122.298610445514896, 40.14380516797555 ], [ -122.298879941161005, 40.143805168245109 ], [ -122.299508761504114, 40.144344157477903 ], [ -122.299508761876339, 40.146769608878039 ], [ -122.299778256145444, 40.146769609909875 ], [ -122.299778255861511, 40.146230619843251 ], [ -122.300766402536325, 40.1462306193621 ], [ -122.301035897366575, 40.146769608377049 ], [ -122.301035897793923, 40.147128934308334 ], [ -122.300407076772998, 40.147667924205038 ], [ -122.300407076324163, 40.148027249819826 ], [ -122.300137581665069, 40.148296744793257 ], [ -122.298340950660418, 40.148296744292651 ] ], [ [ -122.298610445812372, 40.14712893498595 ], [ -122.298340951485557, 40.147128934892287 ], [ -122.298340951345935, 40.14739842893735 ], [ -122.298610445547595, 40.147398429274865 ], [ -122.298610445812372, 40.14712893498595 ] ] ] } },
{ "type": "Feature", "properties": { "csb_id": "061825014733777", "acres": 3.40562122343698, "geoid": "06103" }, "geometry": { "type": "Polygon", "coordinates": [ [ [ -122.301664718270885, 40.143445841782921 ], [ -122.301934212551828, 40.143445842021549 ], [ -122.301934212929069, 40.14380516829582 ], [ -122.302203707252986, 40.144344156941649 ], [ -122.302563033614021, 40.144344157348506 ], [ -122.302563033370944, 40.144972977959952 ], [ -122.302203707596277, 40.144972977680041 ], [ -122.302203707842992, 40.144703483630686 ], [ -122.301035897760357, 40.144703483365561 ], [ -122.300766402597745, 40.144344156966504 ], [ -122.30076640304847, 40.144074662265226 ], [ -122.301035897345798, 40.143805168288011 ], [ -122.301664718435362, 40.143805167813305 ], [ -122.301664718270885, 40.143445841782921 ] ] ] } },
{ "type": "Feature", "properties": { "csb_id": "061825014733778", "acres": 21.282636555441901, "geoid": "06103" }, "geometry": { "type": "Polygon", "coordinates": [ [ [ -122.301664718122211, 40.145871292924134 ], [ -122.301664718286688, 40.146230619416016 ], [ -122.300407076135102, 40.14623061924015 ], [ -122.300407076260427, 40.145871293109039 ], [ -122.300137581630182, 40.145871293294377 ], [ -122.30013758270681, 40.145332304469861 ], [ -122.300407076448352, 40.145332304040735 ], [ -122.300407076573649, 40.144972978080681 ], [ -122.299778256117918, 40.144972978302789 ], [ -122.299598592661013, 40.143176347361319 ], [ -122.300496908837246, 40.143176347444346 ], [ -122.301664718270885, 40.143445841782921 ], [ -122.301664718435362, 40.143805167813305 ], [ -122.301035897345798, 40.143805168288011 ], [ -122.30076640304847, 40.144074662265226 ], [ -122.300766402597745, 40.144344156966504 ], [ -122.301035897760357, 40.144703483365561 ], [ -122.302203707842992, 40.144703483630686 ], [ -122.302203707596277, 40.144972977680041 ], [ -122.302563033370944, 40.144972977959952 ], [ -122.302563033614021, 40.144344157348506 ], [ -122.302203707252986, 40.144344156941649 ], [ -122.301934212929069, 40.14380516829582 ], [ -122.301934212551828, 40.143445842021549 ], [ -122.304090169037977, 40.143445842197899 ], [ -122.304090169531946, 40.144344156938004 ], [ -122.304359664254093, 40.144344157260562 ], [ -122.304359664436689, 40.14470348356889 ], [ -122.304090169194325, 40.144972977656622 ], [ -122.303191854123682, 40.144972977702693 ], [ -122.302922359599805, 40.145332303897476 ], [ -122.302922359778677, 40.145601798524375 ], [ -122.304090168856675, 40.145601798584607 ], [ -122.304359664378879, 40.14650011356057 ], [ -122.304000337946448, 40.146500114118091 ], [ -122.303730843438487, 40.146230619511513 ], [ -122.303730842993033, 40.145871293644241 ], [ -122.301664718122211, 40.145871292924134 ] ], [ [ -122.302024043798724, 40.14560179896236 ], [ -122.302024043893482, 40.144972978258515 ], [ -122.301664718765934, 40.144972978159601 ], [ -122.30166471779502, 40.145601798375679 ], [ -122.302024043798724, 40.14560179896236 ] ] ] } },
{ "type": "Feature", "properties": { "csb_id": "061825014734866", "acres": 5.46242831304476, "geoid": "06103" }, "geometry": { "type": "Polygon", "coordinates": [ [ [ -122.302922359354369, 39.900361725982272 ], [ -122.30409016955312, 39.900361726080554 ], [ -122.304090169181833, 39.900631221017626 ], [ -122.303820674692076, 39.900990547180626 ], [ -122.303191853887583, 39.900990547143529 ], [ -122.303191853960072, 39.901888862524054 ], [ -122.303461348949796, 39.901888862378946 ], [ -122.303461348490885, 39.902158357013015 ], [ -122.302922359079886, 39.902787177102709 ], [ -122.30256303306534, 39.902787177307886 ], [ -122.302293539054872, 39.902517682777152 ], [ -122.3022935385587, 39.901260041854712 ], [ -122.302563032915288, 39.900990546779092 ], [ -122.30283252794203, 39.90099054725092 ], [ -122.302922359354369, 39.900361725982272 ] ] ] } },
{ "type": "Feature", "properties": { "csb_id": "061825014735285", "acres": 2.7103113280259201, "geoid": "06103" }, "geometry": { "type": "Polygon", "coordinates": [ [ [ -122.337238003664524, 39.829484650560573 ], [ -122.337507497399756, 39.829484650087871 ], [ -122.337507497696521, 39.831011786292493 ], [ -122.336878677238559, 39.831011785852141 ], [ -122.33687867715625, 39.830652459839378 ], [ -122.335980361719095, 39.830652460519417 ], [ -122.335980362148732, 39.830382965736895 ], [ -122.33687867681104, 39.830382965426963 ], [ -122.336878677517475, 39.829754144925964 ], [ -122.337238003664524, 39.829484650560573 ] ] ] } },
{ "type": "Feature", "properties": { "csb_id": "061825014735291", "acres": 22.192878214596, "geoid": "06103" }, "geometry": { "type": "Polygon", "coordinates": [ [ [ -122.336070194084371, 39.829754145953537 ], [ -122.335800698850747, 39.829754145301806 ], [ -122.335800698406885, 39.830113471058851 ], [ -122.335171878498656, 39.830113471992277 ], [ -122.335171878036533, 39.829754145250924 ], [ -122.334902383770483, 39.829754145245943 ], [ -122.334902383697909, 39.830113470884733 ], [ -122.335171878498656, 39.830113471992277 ], [ -122.335171878442111, 39.830382966011342 ], [ -122.335441372292493, 39.830652459361907 ], [ -122.335800698469356, 39.83065246010456 ], [ -122.335800698406885, 39.830113471058851 ], [ -122.336070193852706, 39.830113471954711 ], [ -122.336070194084371, 39.829754145953537 ], [ -122.336878677517475, 39.829754144925964 ], [ -122.33687867681104, 39.830382965426963 ], [ -122.335980362148732, 39.830382965736895 ], [ -122.335980361719095, 39.830652460519417 ], [ -122.33687867715625, 39.830652459839378 ], [ -122.336699014220088, 39.831281281821681 ], [ -122.336968508500718, 39.831011786422899 ], [ -122.337507497696521, 39.831011786292493 ], [ -122.337507497399756, 39.829484650087871 ], [ -122.337238003664524, 39.829484650560573 ], [ -122.337238002940552, 39.828586335361024 ], [ -122.336699014263061, 39.828586336280182 ], [ -122.336699013935203, 39.82885583048661 ], [ -122.336339688316002, 39.828855829488191 ], [ -122.336339687313995, 39.827957513292823 ], [ -122.336070192911734, 39.827688019108436 ], [ -122.336070193236509, 39.827059199076324 ], [ -122.336339688090973, 39.827059198912949 ], [ -122.338495644445359, 39.828855829737698 ], [ -122.337866824054757, 39.828855829939869 ], [ -122.337597329709794, 39.829215155567695 ], [ -122.337597330062479, 39.830113471125884 ], [ -122.337866823719423, 39.830652460014882 ], [ -122.337866824361512, 39.831640606732009 ], [ -122.338136318235826, 39.831640606618613 ], [ -122.337866823550186, 39.831910101407104 ], [ -122.337597328988835, 39.831910101800339 ], [ -122.337597329728268, 39.831281281386268 ], [ -122.337238003655997, 39.831281281375745 ], [ -122.337238003265227, 39.831640607973071 ], [ -122.336339688773435, 39.831640607435794 ], [ -122.336339688555967, 39.831910102606834 ], [ -122.335800698778129, 39.831910101038758 ], [ -122.335441373460213, 39.831640608070309 ], [ -122.333015921842843, 39.831640606312362 ], [ -122.333015921494592, 39.83101178740462 ], [ -122.333375247949292, 39.830652461091596 ], [ -122.333914236817009, 39.830382966154673 ], [ -122.334543058279721, 39.830382966126102 ], [ -122.334543058011732, 39.829484650308487 ], [ -122.334902384446252, 39.829215156768718 ], [ -122.335800698788219, 39.829215156462141 ], [ -122.336070194177495, 39.829484651274072 ], [ -122.336070194084371, 39.829754145953537 ] ] ] } }
]
}
