{
"type": "FeatureCollection",
"name": "06115",
"crs": { "type": "name", "properties": { "name": "urn:ogc:def:crs:OGC:1.3:CRS84" } },
"features": [
{ "type": "Feature", "properties": { "csb_id": "061825003214219", "acres": 3.5730538903573099, "geoid": "06115" }, "geometry": { "type": "Polygon", "coordinates": [ [ [ -121.049803074392727, 39.448123202129167 ], [ -121.049892906693941, 39.448752022702415 ], [ -121.050521727174981, 39.448752022465555 ], [ -121.050521726990738, 39.449650337601639 ], [ -121.049892906102002, 39.449650338166528 ], [ -121.04989290650974, 39.450907979602214 ], [ -121.049623411488696, 39.450009664177379 ], [ -121.049892905898162, 39.449021517627877 ], [ -121.049264085122346, 39.44902151705076 ], [ -121.049264084997716, 39.44965033838244 ], [ -121.048635264810059, 39.449650338016916 ], [ -121.048635264326478, 39.44938084334126 ], [ -121.048994590338935, 39.449380843359549 ], [ -121.04899459054279, 39.44875202254395 ], [ -121.04962341206604, 39.448752022918953 ], [ -121.049623411635849, 39.448123202154243 ], [ -121.049803074392727, 39.448123202129167 ] ] ] } },
{ "type": "Feature", "properties": { "csb_id": "061825003214227", "acres": 2.8975058444984598, "geoid": "06115" }, "geometry": { "type": "Polygon", "coordinates": [ [ [ -121.065613423718773, 39.425216162546256 ], [ -121.066152412771928, 39.425216161885572 ], [ -121.066152412604382, 39.425485657072947 ], [ -121.06588291789987, 39.425485656600088 ], [ -121.065882917857124, 39.4267432981271 ], [ -121.064715107871052, 39.42674329865654 ], [ -121.064715108515529, 39.426383972068422 ], [ -121.065254097951865, 39.426383972374168 ], [ -121.065254097058357, 39.425844983506586 ], [ -121.064984603063763, 39.425844983446474 ], [ -121.064984602369435, 39.42548565695347 ], [ -121.065613423806624, 39.425485657268389 ], [ -121.065613423718773, 39.425216162546256 ] ] ] } },
{ "type": "Feature", "properties": { "csb_id": "061825003214229", "acres": 2.30692761058009, "geoid": "06115" }, "geometry": { "type": "Polygon", "coordinates": [ [ [ -121.064086287420437, 39.414616041828047 ], [ -121.06408628788391, 39.414346547170176 ], [ -121.066152412686918, 39.414346547351123 ], [ -121.066152412519401, 39.414616041681839 ], [ -121.06588291801684, 39.414975368507889 ], [ -121.06498460274706, 39.414975367909292 ], [ -121.064715108663435, 39.414616042073341 ], [ -121.064086287420437, 39.414616041828047 ] ] ] } },
{ "type": "Feature", "properties": { "csb_id": "061825003214230", "acres": 4.6144797527711798, "geoid": "06115" }, "geometry": { "type": "Polygon", "coordinates": [ [ [ -121.058337069289749, 39.405004068357904 ], [ -121.060493026660794, 39.405004068149694 ], [ -121.060493026242725, 39.405632889421604 ], [ -121.060133700231574, 39.40590238406088 ], [ -121.058606564172493, 39.4059023833738 ], [ -121.058157406997836, 39.40563288908433 ], [ -121.058337069289749, 39.405004068357904 ] ] ] } },
{ "type": "Feature", "properties": { "csb_id": "061825012210930", "acres": 5.1434345927800598, "geoid": "06115" }, "geometry": { "type": "Polygon", "coordinates": [ [ [ -121.199922664255524, 39.474922767192417 ], [ -121.199653169847494, 39.474293946722632 ], [ -121.199653169066139, 39.47303630524317 ], [ -121.199293843620396, 39.473036305666611 ], [ -121.199293843521801, 39.472766810729645 ], [ -121.199653169067389, 39.472766810933493 ], [ -121.199653170200762, 39.472497316412429 ], [ -121.200281990234132, 39.472497315810742 ], [ -121.20028199031303, 39.472766810565624 ], [ -121.201898958484449, 39.472676979920465 ], [ -121.201898958316363, 39.472946474137416 ], [ -121.200281990391943, 39.473036305342987 ], [ -121.200281990622386, 39.473934620203998 ], [ -121.200820979101678, 39.473934620860952 ], [ -121.200820979589423, 39.474293946607368 ], [ -121.200281989870376, 39.474293946577632 ], [ -121.200281990329373, 39.474922767692426 ], [ -121.199922664255524, 39.474922767192417 ] ] ] } },
{ "type": "Feature", "properties": { "csb_id": "061825012210946", "acres": 5.7752711766073599, "geoid": "06115" }, "geometry": { "type": "Polygon", "coordinates": [ [ [ -121.094460449503771, 39.470071864914949 ], [ -121.094729943775192, 39.47007186478384 ], [ -121.094729944182333, 39.469712538931603 ], [ -121.094460449811933, 39.469712538434237 ], [ -121.094460449503771, 39.470071864914949 ], [ -121.093831628741654, 39.470071865280602 ], [ -121.093831629203791, 39.470341359311519 ], [ -121.09350248066545, 39.47031118179396 ], [ -121.092933313280255, 39.470071864952267 ], [ -121.092663818668328, 39.469712538545892 ], [ -121.092663818856465, 39.469443044404521 ], [ -121.093831629142372, 39.469443044425695 ], [ -121.093831628472145, 39.469712538637168 ], [ -121.094101123362606, 39.469712538535312 ], [ -121.094460449270272, 39.469443043989862 ], [ -121.094460449884608, 39.469083718440196 ], [ -121.095358765279542, 39.469083718216908 ], [ -121.095358764788173, 39.46971253897982 ], [ -121.0950892701116, 39.469712538977547 ], [ -121.095089270673142, 39.470341359163811 ], [ -121.095358765429225, 39.470341359631902 ], [ -121.095358765616467, 39.470610853988276 ], [ -121.095089270408494, 39.470970180566354 ], [ -121.094729944195947, 39.47097018021725 ], [ -121.094460449454644, 39.470610854163617 ], [ -121.094460449503771, 39.470071864914949 ] ] ] } },
{ "type": "Feature", "properties": { "csb_id": "061825012210947", "acres": 4.9424969108415597, "geoid": "06115" }, "geometry": { "type": "Polygon", "coordinates": [ [ [ -121.085799953330181, 39.469120388114071 ], [ -121.086824770494346, 39.469353212738966 ], [ -121.087184095987723, 39.469712538470013 ], [ -121.087184096261282, 39.470610853962604 ], [ -121.086824770428819, 39.470610854274959 ], [ -121.086285781053945, 39.470341359486824 ], [ -121.08628578022028, 39.469712538465721 ], [ -121.085926454935574, 39.469712538848484 ], [ -121.085926454596475, 39.470071864931747 ], [ -121.085028138862924, 39.470071865127117 ], [ -121.084399318382012, 39.469712538799243 ], [ -121.084399318927623, 39.469443044449193 ], [ -121.085387464895547, 39.46944304431053 ], [ -121.08538746576896, 39.469712539126157 ], [ -121.085656960199231, 39.469712538847276 ], [ -121.085656959759604, 39.469443044660174 ], [ -121.085387464895547, 39.46944304431053 ], [ -121.085799953330181, 39.469120388114071 ] ] ] } },
{ "type": "Feature", "properties": { "csb_id": "061825012210960", "acres": 4.3151059159816398, "geoid": "06115" }, "geometry": { "type": "Polygon", "coordinates": [ [ [ -121.262984396943409, 39.467287087436283 ], [ -121.262984396850868, 39.467646413599645 ], [ -121.262714902791828, 39.468185403095532 ], [ -121.262086081894665, 39.468185403149803 ], [ -121.262086081583618, 39.468814223473004 ], [ -121.261457261284733, 39.468814223729382 ], [ -121.261187766178807, 39.468544728899388 ], [ -121.261187766662658, 39.468185402555605 ], [ -121.261457260790166, 39.468185402856278 ], [ -121.261457260656783, 39.467287087680042 ], [ -121.262984396943409, 39.467287087436283 ] ] ] } },
{ "type": "Feature", "properties": { "csb_id": "061825012210975", "acres": 8.1463033351997396, "geoid": "06115" }, "geometry": { "type": "Polygon", "coordinates": [ [ [ -121.084758645006531, 39.467646413573796 ], [ -121.084399318147462, 39.467646413847945 ], [ -121.084399318494761, 39.468185402900652 ], [ -121.084758644329682, 39.468185402463476 ], [ -121.084758645429687, 39.468454897570446 ], [ -121.084279309132313, 39.468215580713121 ], [ -121.084129823687093, 39.467915908734433 ], [ -121.081973867510229, 39.467646413151826 ], [ -121.081973867763807, 39.467017592745684 ], [ -121.082333193884637, 39.467017592486727 ], [ -121.082602688531196, 39.467287087497525 ], [ -121.082602687616316, 39.467646413731366 ], [ -121.083231508640495, 39.467646413730087 ], [ -121.083231509000584, 39.467287087891997 ], [ -121.083501003853556, 39.467017593272708 ], [ -121.084129824641252, 39.467017593219815 ], [ -121.084129824045192, 39.466388772027742 ], [ -121.083231508875627, 39.46638877229492 ], [ -121.083231508633091, 39.466119277429115 ], [ -121.084399319086543, 39.466119277826657 ], [ -121.083860329116007, 39.46423281557599 ], [ -121.084399318804543, 39.464232815228712 ], [ -121.084399318956628, 39.465220962342713 ], [ -121.08475864486941, 39.465220962557488 ], [ -121.084758644290474, 39.466388772418334 ], [ -121.08439931854096, 39.466388771900917 ], [ -121.084399318910386, 39.467017592697218 ], [ -121.085028138963537, 39.467017592895317 ], [ -121.085028139629742, 39.467287087276837 ], [ -121.084758645006531, 39.467646413573796 ] ] ] } },
{ "type": "Feature", "properties": { "csb_id": "061825012210976", "acres": 7.9992120331174901, "geoid": "06115" }, "geometry": { "type": "Polygon", "coordinates": [ [ [ -121.081434878056925, 39.464232816030425 ], [ -121.081704373176848, 39.464232815315107 ], [ -121.081973867439103, 39.464592142033702 ], [ -121.081973867185525, 39.46522096197112 ], [ -121.082333193220876, 39.465220962666876 ], [ -121.082333192904542, 39.464861636305052 ], [ -121.082602687583517, 39.464861636073003 ], [ -121.082962014448356, 39.46522096241609 ], [ -121.082962013859543, 39.466388771858213 ], [ -121.082333193583437, 39.466388772598066 ], [ -121.08233319351173, 39.465490456760016 ], [ -121.081973867575229, 39.46549045669282 ], [ -121.081434878442963, 39.467376918820698 ], [ -121.080806057508326, 39.467197255541713 ], [ -121.080895888625705, 39.466388771949056 ], [ -121.081075551644076, 39.46611927807421 ], [ -121.081075552693591, 39.465220962519631 ], [ -121.080806057767091, 39.464861636214941 ], [ -121.080446731650639, 39.464861636131999 ], [ -121.080446730985997, 39.464592141764676 ], [ -121.081075551916385, 39.464592141627477 ], [ -121.081075552660437, 39.46486163646027 ], [ -121.081434878256502, 39.464861636690102 ], [ -121.081434878056925, 39.464232816030425 ] ] ] } },
{ "type": "Feature", "properties": { "csb_id": "061825012210994", "acres": 8.5165100664271591, "geoid": "06115" }, "geometry": { "type": "Polygon", "coordinates": [ [ [ -121.08170437299529, 39.463065005434594 ], [ -121.081075552188722, 39.463065005896311 ], [ -121.081075551494422, 39.463334499974309 ], [ -121.081704372380386, 39.463334499978082 ], [ -121.08170437299529, 39.463065005434594 ], [ -121.081973867770898, 39.463065005162363 ], [ -121.082333193358025, 39.46333450049503 ], [ -121.082333193674344, 39.463693826688569 ], [ -121.081434878725275, 39.463693826421341 ], [ -121.081434878056925, 39.464232816030425 ], [ -121.08080605706931, 39.464232815857649 ], [ -121.080536562388232, 39.463963320948402 ], [ -121.08053656272908, 39.463065005661889 ], [ -121.080806058025047, 39.463065005953425 ], [ -121.080806057153296, 39.462795511501788 ], [ -121.080536562861937, 39.46279551121026 ], [ -121.08053656272908, 39.463065005661889 ], [ -121.079278921190564, 39.463334499919689 ], [ -121.079009426962031, 39.462795511225877 ], [ -121.07900942722155, 39.462436184711571 ], [ -121.07954841581892, 39.462436185202776 ], [ -121.079548416083512, 39.46180736459074 ], [ -121.080536563145074, 39.461807364503692 ], [ -121.080536563069913, 39.462166690622567 ], [ -121.079907742242142, 39.462166690513669 ], [ -121.079907742335877, 39.462436185309244 ], [ -121.080806057021348, 39.462436185081081 ], [ -121.080806057281904, 39.462166690448555 ], [ -121.081704372198857, 39.462166690418975 ], [ -121.081704372716302, 39.462436184655608 ], [ -121.081075552543894, 39.462436185187052 ], [ -121.081075552577033, 39.462795510979184 ], [ -121.081704372477859, 39.462795511146076 ], [ -121.08170437299529, 39.463065005434594 ] ] ] } },
{ "type": "Feature", "properties": { "csb_id": "061825012211808", "acres": 2.4879777558772602, "geoid": "06115" }, "geometry": { "type": "Polygon", "coordinates": [ [ [ -121.289035540838611, 39.416352610930225 ], [ -121.290293181710894, 39.416352611074089 ], [ -121.290293181761697, 39.416711936735076 ], [ -121.289933855731931, 39.416711936969534 ], [ -121.28966436078116, 39.416981431735103 ], [ -121.289664360750024, 39.417610252291034 ], [ -121.289035540947353, 39.417610252397509 ], [ -121.289035540838611, 39.416352610930225 ] ] ] } },
{ "type": "Feature", "properties": { "csb_id": "061825012212569", "acres": 2.1742854556440001, "geoid": "06115" }, "geometry": { "type": "Polygon", "coordinates": [ [ [ -121.259660630962784, 39.387876016543984 ], [ -121.261457261780976, 39.38787601653577 ], [ -121.261457261313737, 39.388145511143662 ], [ -121.260289451549212, 39.388145510868462 ], [ -121.259660630738566, 39.38850483699396 ], [ -121.258762315328283, 39.388504837240063 ], [ -121.258762315116229, 39.388145510929064 ], [ -121.259660630896263, 39.388145510606442 ], [ -121.259660630962784, 39.387876016543984 ] ] ] } },
{ "type": "Feature", "properties": { "csb_id": "061825012212619", "acres": 6.3418325789316103, "geoid": "06115" }, "geometry": { "type": "Polygon", "coordinates": [ [ [ -121.133537164943149, 39.385450565312119 ], [ -121.135064300290566, 39.38545056518489 ], [ -121.135064301105544, 39.386708206697222 ], [ -121.134794806075377, 39.386977701303984 ], [ -121.134435480165592, 39.386977701425515 ], [ -121.134435479697729, 39.387876016135486 ], [ -121.133896490457161, 39.387876016773276 ], [ -121.133537164286551, 39.387606522220068 ], [ -121.133537164207496, 39.387247196016673 ], [ -121.133896491041725, 39.38697770064578 ], [ -121.133896490801604, 39.386079385840233 ], [ -121.133537164309857, 39.386079386263937 ], [ -121.133537164943149, 39.385450565312119 ] ] ] } },
{ "type": "Feature", "properties": { "csb_id": "061825012212733", "acres": 2.92797908984637, "geoid": "06115" }, "geometry": { "type": "Polygon", "coordinates": [ [ [ -121.159588308557176, 39.379701347636065 ], [ -121.159947633740416, 39.379701347285327 ], [ -121.159947633521597, 39.380330168266909 ], [ -121.160486623765536, 39.380330168106717 ], [ -121.160845948907834, 39.380869157722245 ], [ -121.160845949853197, 39.381228483348416 ], [ -121.160217129057145, 39.381228483577743 ], [ -121.160217128665565, 39.380869157557392 ], [ -121.159947633942622, 39.380599662504665 ], [ -121.159049319235379, 39.380599662273923 ], [ -121.159049319036939, 39.379970842018054 ], [ -121.15958830764022, 39.37997084182642 ], [ -121.159588308557176, 39.379701347636065 ] ] ] } },
{ "type": "Feature", "properties": { "csb_id": "061825012213499", "acres": 3.5920931542374102, "geoid": "06115" }, "geometry": { "type": "Polygon", "coordinates": [ [ [ -121.19722771822417, 39.348529806662938 ], [ -121.197676876126351, 39.349068796190515 ], [ -121.196868391878581, 39.349338290535819 ], [ -121.195970077401384, 39.350326437214406 ], [ -121.195700582282171, 39.350326437470137 ], [ -121.19543108807288, 39.349967111066213 ], [ -121.195700581915958, 39.349068796118061 ], [ -121.196868392604031, 39.349068795855366 ], [ -121.197227718836118, 39.348799301304233 ], [ -121.19722771822417, 39.348529806662938 ] ] ] } },
{ "type": "Feature", "properties": { "csb_id": "061825012213747", "acres": 4.3706446812415303, "geoid": "06115" }, "geometry": { "type": "Polygon", "coordinates": [ [ [ -121.252653771605495, 39.338468675923338 ], [ -121.253013097028671, 39.338468675772475 ], [ -121.253013097864567, 39.339366991333989 ], [ -121.253282591603011, 39.339366991302889 ], [ -121.253282591992615, 39.339097496456006 ], [ -121.253552086165485, 39.339097496469229 ], [ -121.253552086599271, 39.340265305915835 ], [ -121.252384277242186, 39.340265306642081 ], [ -121.251755456052393, 39.339636485689041 ], [ -121.251755456168496, 39.339366991133403 ], [ -121.2523842771202, 39.339366991410358 ], [ -121.252653771843541, 39.339097496403689 ], [ -121.252653771605495, 39.338468675923338 ] ] ] } },
{ "type": "Feature", "properties": { "csb_id": "061825012214044", "acres": 3.77004707104371, "geoid": "06115" }, "geometry": { "type": "Polygon", "coordinates": [ [ [ -121.234777297681873, 39.3275092290895 ], [ -121.236573927709884, 39.327509228995545 ], [ -121.236573927912332, 39.327868555207601 ], [ -121.23693325445997, 39.328138050334744 ], [ -121.236933253878362, 39.328497376213562 ], [ -121.236573928264789, 39.328766870455844 ], [ -121.236304433482417, 39.328766870514393 ], [ -121.235675612474594, 39.328497375908256 ], [ -121.235675612192338, 39.32786855540126 ], [ -121.23477729749338, 39.327868555384491 ], [ -121.234777297681873, 39.3275092290895 ] ] ] } },
{ "type": "Feature", "properties": { "csb_id": "061825012214080", "acres": 18.611859526781799, "geoid": "06115" }, "geometry": { "type": "Polygon", "coordinates": [ [ [ -121.242951965085481, 39.328407545023111 ], [ -121.242772303001757, 39.328138049904382 ], [ -121.242412977364822, 39.328138049714198 ], [ -121.242053650463987, 39.327868555127793 ], [ -121.241784156805025, 39.327509229403852 ], [ -121.241424830383636, 39.32750922902494 ], [ -121.241155334668349, 39.327239734900182 ], [ -121.241155336132337, 39.326970239881149 ], [ -121.242053650019571, 39.326970239891544 ], [ -121.242053650768398, 39.327239735144744 ], [ -121.242682471306537, 39.327239734853464 ], [ -121.242682470784644, 39.326970239992797 ], [ -121.243580787537425, 39.326970240428224 ], [ -121.243580786494732, 39.326341419973161 ], [ -121.243850281438966, 39.32607192497148 ], [ -121.244209608014387, 39.326071925172833 ], [ -121.244209607896479, 39.326610913684597 ], [ -121.24447910274516, 39.32697024026043 ], [ -121.244658763588831, 39.326970240090958 ], [ -121.244658765405973, 39.326341419876492 ], [ -121.245197755035136, 39.325622767639118 ], [ -121.246185900650943, 39.3256227669781 ], [ -121.246185901310596, 39.326251587460305 ], [ -121.245826575802781, 39.326880408925042 ], [ -121.245826574369374, 39.327419397545079 ], [ -121.246185901258883, 39.327419397995868 ], [ -121.246185901918537, 39.32804821877474 ], [ -121.245826575403285, 39.328407544174517 ], [ -121.245197754801922, 39.328407544361525 ], [ -121.245107923421415, 39.328138050084895 ], [ -121.24447910269285, 39.328138049933507 ], [ -121.244479101882547, 39.328766870837391 ], [ -121.244299439148946, 39.328766871140452 ], [ -121.244209608098586, 39.32849737579869 ], [ -121.242951965085481, 39.328407545023111 ] ], [ [ -121.244928259506352, 39.327149903006493 ], [ -121.244479102559296, 39.3272397348046 ], [ -121.244479102373418, 39.327509229367855 ], [ -121.244838428171775, 39.327509229396782 ], [ -121.244838428200381, 39.32786855582313 ], [ -121.244928259506352, 39.327149903006493 ] ] ] } },
{ "type": "Feature", "properties": { "csb_id": "061825012214119", "acres": 107.192790753655, "geoid": "06115" }, "geometry": { "type": "Polygon", "coordinates": [ [ [ -121.240885841180543, 39.324814283866594 ], [ -121.240885840696691, 39.325443104158616 ], [ -121.240526514665746, 39.325443104159959 ], [ -121.240526514651179, 39.32634141982777 ], [ -121.240257020687466, 39.326341419033774 ], [ -121.239628199718425, 39.326970239925394 ], [ -121.239628199657616, 39.327239734400159 ], [ -121.239987525464855, 39.32723973518307 ], [ -121.239987525396941, 39.327868555096863 ], [ -121.2402570207515, 39.328138049599758 ], [ -121.240257019922012, 39.328497376174312 ], [ -121.239987525636337, 39.328497375975637 ], [ -121.239987526022233, 39.329395691820132 ], [ -121.239628199478403, 39.329395691746598 ], [ -121.239628199926429, 39.330294006866851 ], [ -121.239987526100862, 39.330294007016221 ], [ -121.239987526032976, 39.330922827435678 ], [ -121.240526514779546, 39.331461816298479 ], [ -121.241155335425503, 39.331461816490702 ], [ -121.241155335844383, 39.332090637255718 ], [ -121.241424829943782, 39.332090637741061 ], [ -121.241424830304922, 39.332360132028462 ], [ -121.24088584071518, 39.332360132197188 ], [ -121.240885840922601, 39.332090637283066 ], [ -121.239628199385436, 39.332090637119158 ], [ -121.239628200403132, 39.333348278976075 ], [ -121.24025701997553, 39.333348278993974 ], [ -121.240257020529754, 39.333887267849754 ], [ -121.240526515566216, 39.333887267769455 ], [ -121.24052651526587, 39.333348278445179 ], [ -121.24025701997553, 39.333348278993974 ], [ -121.240257021112384, 39.332988952820529 ], [ -121.240885841053725, 39.332988952643063 ], [ -121.241424830135713, 39.332719458217987 ], [ -121.241424830304922, 39.332360132028462 ], [ -121.241784156915969, 39.332090637169969 ], [ -121.241424829943782, 39.332090637741061 ], [ -121.241424830405037, 39.331821142377663 ], [ -121.241873988263819, 39.331461816651313 ], [ -121.242412977577644, 39.331282153363226 ], [ -121.243760450161844, 39.331192321753633 ], [ -121.244209607043658, 39.331282153392365 ], [ -121.244762721012876, 39.331641216005082 ], [ -121.244437519656557, 39.33249821253105 ], [ -121.244027049551931, 39.332841572484902 ], [ -121.242951965752667, 39.332988952430163 ], [ -121.242951965665057, 39.332719457787846 ], [ -121.242682472000382, 39.332719458178126 ], [ -121.242412977454507, 39.333348278719363 ], [ -121.242412977656642, 39.334156762528373 ], [ -121.241424830304098, 39.335144909463615 ], [ -121.241424830473306, 39.334785583043306 ], [ -121.241155336305894, 39.33478558326717 ], [ -121.24088584090164, 39.335594066563729 ], [ -121.239812424968548, 39.336399304833911 ], [ -121.239628200290568, 39.337211034511597 ], [ -121.239358705720321, 39.337211034613588 ], [ -121.239358705074011, 39.338199181574311 ], [ -121.23899937921145, 39.33819918158958 ], [ -121.238729884028999, 39.337839854867646 ], [ -121.238729884555468, 39.336941540060614 ], [ -121.23846039005285, 39.336672045087752 ], [ -121.237831569133945, 39.336672045102389 ], [ -121.237831569473627, 39.336941539723739 ], [ -121.237562074875868, 39.336941539855587 ], [ -121.237562075100954, 39.336043224629272 ], [ -121.238460390203358, 39.33514490916783 ], [ -121.238460389471555, 39.334785583209232 ], [ -121.238999378944996, 39.334785583419333 ], [ -121.238999378654327, 39.335144909219494 ], [ -121.239358705279543, 39.335144909603656 ], [ -121.239628200114893, 39.334785583315721 ], [ -121.239628199414028, 39.334246594407468 ], [ -121.239987525586216, 39.334246593999161 ], [ -121.239987525800643, 39.333887268208713 ], [ -121.239628199974163, 39.333887267990242 ], [ -121.239628199414028, 39.334246594407468 ], [ -121.239358704784905, 39.334246594034305 ], [ -121.239358704851043, 39.334516088792171 ], [ -121.238101064208593, 39.334516088352466 ], [ -121.238101063291495, 39.334785583287974 ], [ -121.237831569015725, 39.334785582824274 ], [ -121.237562074580623, 39.334516088406211 ], [ -121.237562073917431, 39.334785582873387 ], [ -121.23657392809497, 39.33478558271554 ], [ -121.236573927653865, 39.33541440428845 ], [ -121.236933253980297, 39.335414403678193 ], [ -121.236933253286708, 39.33514490900761 ], [ -121.237202748285, 39.335144909690605 ], [ -121.237202747862725, 39.335773729677157 ], [ -121.236304433084968, 39.335773729601492 ], [ -121.236304433397123, 39.335414403734362 ], [ -121.235406118141242, 39.335414403758698 ], [ -121.234777296869851, 39.335144909578268 ], [ -121.234777297301335, 39.334516088511485 ], [ -121.235136623590634, 39.334516088463225 ], [ -121.23513662346906, 39.333887267893857 ], [ -121.236034938473892, 39.333887267786224 ], [ -121.236034938556202, 39.333617772832064 ], [ -121.234507802287979, 39.333617773551538 ], [ -121.234148475952566, 39.333348278333538 ], [ -121.234148475871564, 39.332988952221811 ], [ -121.235675612130464, 39.332988952231787 ], [ -121.235675612420096, 39.332719457575877 ], [ -121.235406118330744, 39.332719458048963 ], [ -121.235406118291465, 39.331821142952499 ], [ -121.235675612470118, 39.331461816988373 ], [ -121.236933254213824, 39.331461816796875 ], [ -121.236933253632245, 39.331821142990506 ], [ -121.237562074444739, 39.332360131714992 ], [ -121.237831569040665, 39.332360131748572 ], [ -121.238101063518442, 39.331821143023284 ], [ -121.238101064049431, 39.331192322055315 ], [ -121.237562074718355, 39.331192321626794 ], [ -121.23756207397301, 39.330563501073136 ], [ -121.237831569276707, 39.330563501423669 ], [ -121.237831568629758, 39.330294006396322 ], [ -121.237562074357442, 39.329934680389592 ], [ -121.237202749034878, 39.329934680841582 ], [ -121.237202748839081, 39.328766870949401 ], [ -121.237562074631043, 39.328766871048529 ], [ -121.23756207502052, 39.329665186267974 ], [ -121.237831569241081, 39.329665186150088 ], [ -121.237831569545151, 39.32903636514704 ], [ -121.238729884846009, 39.32903636545646 ], [ -121.238729884552967, 39.328766870695965 ], [ -121.238460390073698, 39.328497376133569 ], [ -121.238101063567186, 39.328497376274228 ], [ -121.238101064310882, 39.328138050085521 ], [ -121.238999378736764, 39.328138050023888 ], [ -121.238999378554041, 39.327509229122072 ], [ -121.238101063404855, 39.32750922910094 ], [ -121.23783156916663, 39.327239734673732 ], [ -121.237831569470671, 39.32661091407175 ], [ -121.238101064332838, 39.326341419492309 ], [ -121.238101063812849, 39.326071924530069 ], [ -121.236304433622891, 39.326071924462106 ], [ -121.236304433627751, 39.325712598653659 ], [ -121.236933254332442, 39.325173609526054 ], [ -121.237202748270846, 39.325173609210722 ], [ -121.237202748015008, 39.325443104502064 ], [ -121.237562074054878, 39.32544310390567 ], [ -121.237562074132029, 39.324814283207402 ], [ -121.238460389846495, 39.324814283764063 ], [ -121.238460389466127, 39.325712598670627 ], [ -121.238729884379723, 39.325712598966909 ], [ -121.238729884923288, 39.325173609701437 ], [ -121.239358705145278, 39.324814283483143 ], [ -121.240885841180543, 39.324814283866594 ] ], [ [ -121.236933253918238, 39.334246593892722 ], [ -121.236933253482022, 39.33451608873326 ], [ -121.23720274839998, 39.334516088947929 ], [ -121.237202748963142, 39.334246593873189 ], [ -121.236933253918238, 39.334246593892722 ] ], [ [ -121.243311292954559, 39.331821142933414 ], [ -121.243311292107393, 39.332360131950949 ], [ -121.243580787054157, 39.332719458030844 ], [ -121.243850281640917, 39.332719458282106 ], [ -121.243850281954877, 39.332090637033005 ], [ -121.243580787448522, 39.332090637250154 ], [ -121.243580787280507, 39.33182114220341 ], [ -121.243311292954559, 39.331821142933414 ] ], [ [ -121.238101063943873, 39.332360132060757 ], [ -121.238101064022615, 39.332719457554425 ], [ -121.238460389911765, 39.332719458185117 ], [ -121.238460390002473, 39.332360131362108 ], [ -121.238101063943873, 39.332360132060757 ] ], [ [ -121.242412976649987, 39.332090636964807 ], [ -121.242412977298841, 39.332360131954815 ], [ -121.242682471885956, 39.332360131678513 ], [ -121.242682471671387, 39.332090637315197 ], [ -121.242412976649987, 39.332090636964807 ] ], [ [ -121.23846038942564, 39.330563501670895 ], [ -121.238460390157371, 39.330922827228257 ], [ -121.238999378712009, 39.330922827217933 ], [ -121.238999378695397, 39.33056350095795 ], [ -121.23846038942564, 39.330563501670895 ] ], [ [ -121.238999378529087, 39.326970240229244 ], [ -121.238999378695212, 39.327239735096583 ], [ -121.239358704710256, 39.327239734874382 ], [ -121.23935870577381, 39.326970240399653 ], [ -121.238999378529087, 39.326970240229244 ] ], [ [ -121.238729884482083, 39.32634141910377 ], [ -121.23935870473079, 39.326341419222274 ], [ -121.239358705124744, 39.325712598775375 ], [ -121.23899937929329, 39.325712598680816 ], [ -121.238999379309931, 39.326071924482221 ], [ -121.238729884189041, 39.326071924534197 ], [ -121.238729884482083, 39.32634141910377 ], [ -121.238460389795463, 39.326341419200048 ], [ -121.238460390124729, 39.326970239833265 ], [ -121.238729884891768, 39.326970240205362 ], [ -121.238729884482083, 39.32634141910377 ] ] ] } },
{ "type": "Feature", "properties": { "csb_id": "061825012214501", "acres": 2.74955988129016, "geoid": "06115" }, "geometry": { "type": "Polygon", "coordinates": [ [ [ -121.23603493814268, 39.307566629696247 ], [ -121.236573927556236, 39.307566629854399 ], [ -121.236573927214621, 39.308195450640731 ], [ -121.236933253425732, 39.308195450727958 ], [ -121.236933254522228, 39.307836124788089 ], [ -121.237202748433461, 39.307836124976312 ], [ -121.237202748417843, 39.308464945020766 ], [ -121.236304433693675, 39.309093766168012 ], [ -121.235675612234758, 39.309093766217345 ], [ -121.235675612178142, 39.308734439877682 ], [ -121.23603493901166, 39.308734440205448 ], [ -121.236304432679049, 39.308464945078235 ], [ -121.236304433101026, 39.307836124716751 ], [ -121.236034938674749, 39.307836124542739 ], [ -121.23603493814268, 39.307566629696247 ] ] ] } },
{ "type": "Feature", "properties": { "csb_id": "061825012214540", "acres": 3.5611561177391802, "geoid": "06115" }, "geometry": { "type": "Polygon", "coordinates": [ [ [ -121.243850281246139, 39.305769999537226 ], [ -121.243850281594447, 39.306039493853632 ], [ -121.243311291955507, 39.306308988262103 ], [ -121.243311292415058, 39.30666831475051 ], [ -121.242951966592258, 39.306937808877088 ], [ -121.242053651347902, 39.306937808878835 ], [ -121.241784155909059, 39.306668314385078 ], [ -121.241784155886918, 39.30603949378942 ], [ -121.243311292482773, 39.306039494161325 ], [ -121.243311292702757, 39.305769999218192 ], [ -121.243850281246139, 39.305769999537226 ] ] ] } },
{ "type": "Feature", "properties": { "csb_id": "061825012215195", "acres": 6.6283149153060403, "geoid": "06115" }, "geometry": { "type": "Polygon", "coordinates": [ [ [ -121.390634999007915, 39.280527339739415 ], [ -121.390634999162742, 39.280257845369199 ], [ -121.389736683587159, 39.280257845704192 ], [ -121.389736683786268, 39.280527340228332 ], [ -121.389377357802161, 39.280527340254039 ], [ -121.389377357501886, 39.280257845104806 ], [ -121.389107863391331, 39.280527339808458 ], [ -121.387580727181245, 39.280527339787902 ], [ -121.387580726911196, 39.279988350377195 ], [ -121.388838368492188, 39.279988351162991 ], [ -121.38883836850718, 39.279629024820444 ], [ -121.390006178845624, 39.279629024874005 ], [ -121.390006178700162, 39.279090035492359 ], [ -121.390275673206943, 39.279090035634752 ], [ -121.390904493786095, 39.279359530314956 ], [ -121.390904493779331, 39.279988350506081 ], [ -121.391263820072865, 39.27998835100491 ], [ -121.391263819690451, 39.2802578449677 ], [ -121.390904493216908, 39.280527339699717 ], [ -121.390634999007915, 39.280527339739415 ] ] ] } },
{ "type": "Feature", "properties": { "csb_id": "061825012215683", "acres": 3.28665319599259, "geoid": "06115" }, "geometry": { "type": "Polygon", "coordinates": [ [ [ -121.407253831353088, 39.254476196886877 ], [ -121.407253832137556, 39.254835522349978 ], [ -121.407613157436955, 39.254835522945932 ], [ -121.407613158028212, 39.255105017573378 ], [ -121.407253832085729, 39.25537451224708 ], [ -121.406355516013676, 39.255374511892825 ], [ -121.406355516347887, 39.255733838447256 ], [ -121.40518770706538, 39.25573383776505 ], [ -121.405187706879019, 39.255374512389075 ], [ -121.405726696163626, 39.255105017062625 ], [ -121.406714842112422, 39.255105017700096 ], [ -121.406714842745274, 39.254476196595618 ], [ -121.407253831353088, 39.254476196886877 ] ] ] } },
{ "type": "Feature", "properties": { "csb_id": "061825012216106", "acres": 10.645941773973799, "geoid": "06115" }, "geometry": { "type": "Polygon", "coordinates": [ [ [ -121.350749800291368, 39.239204836848025 ], [ -121.350749800786417, 39.238935341800158 ], [ -121.350390474953201, 39.238665848005084 ], [ -121.350390473907197, 39.238306521742444 ], [ -121.349222664610451, 39.238396352706296 ], [ -121.348863337728488, 39.237138711594021 ], [ -121.350120979436724, 39.237138711336257 ], [ -121.350300642208893, 39.236959048321005 ], [ -121.351019294536528, 39.236779385312545 ], [ -121.351019295006367, 39.237138711291671 ], [ -121.35128878889887, 39.237138711564498 ], [ -121.351288789648009, 39.23776753214068 ], [ -121.351019294854765, 39.237767532493301 ], [ -121.350929462063363, 39.238306521534135 ], [ -121.352276937060523, 39.238665847989758 ], [ -121.352276934908787, 39.239204836977869 ], [ -121.351648115098641, 39.239564162844907 ], [ -121.351019294639812, 39.23956416271642 ], [ -121.350749800291368, 39.239204836848025 ] ] ] } },
{ "type": "Feature", "properties": { "csb_id": "061825012216397", "acres": 5.0946010472279299, "geoid": "06115" }, "geometry": { "type": "Polygon", "coordinates": [ [ [ -121.60946460209135, 39.225101286521429 ], [ -121.609464602206458, 39.224202971687269 ], [ -121.609913759523636, 39.223753814124116 ], [ -121.609913760361579, 39.223574151161969 ], [ -121.610722243946199, 39.223574150973164 ], [ -121.610722243204137, 39.2242029714631 ], [ -121.611261232834579, 39.224472465794527 ], [ -121.611261233384866, 39.225101287126961 ], [ -121.60946460209135, 39.225101286521429 ] ] ] } },
{ "type": "Feature", "properties": { "csb_id": "061825012217029", "acres": 3.60540350260501, "geoid": "06115" }, "geometry": { "type": "Polygon", "coordinates": [ [ [ -121.291640655065777, 39.193480588889486 ], [ -121.291910149688391, 39.192582273814267 ], [ -121.292089812183576, 39.192582273495475 ], [ -121.292239297572777, 39.192192769446351 ], [ -121.292269475716637, 39.191683958207655 ], [ -121.293167790598844, 39.191683958783798 ], [ -121.293167791048191, 39.192582273649144 ], [ -121.292538970314254, 39.192941599884072 ], [ -121.292179643279624, 39.1934805886345 ], [ -121.291640655065777, 39.193480588889486 ] ], [ [ -121.292718633336008, 39.191953453113456 ], [ -121.292538969528309, 39.191953453087663 ], [ -121.292538970320393, 39.192222947106622 ], [ -121.292808464214374, 39.192222947634733 ], [ -121.292718633336008, 39.191953453113456 ] ] ] } },
{ "type": "Feature", "properties": { "csb_id": "061825013241355", "acres": 6.4880493215925998, "geoid": "06115" }, "geometry": { "type": "Polygon", "coordinates": [ [ [ -121.587525813615429, 39.036477406573596 ], [ -121.586896993837954, 39.036477406987451 ], [ -121.586896992816079, 39.036836731418695 ], [ -121.585998678007769, 39.036746900492389 ], [ -121.585998678179138, 39.034950270428723 ], [ -121.586627498432392, 39.034950268897447 ], [ -121.586627498753685, 39.035309597298415 ], [ -121.586896992690413, 39.035579090771094 ], [ -121.58815463523672, 39.035579091177517 ], [ -121.588154634586843, 39.03584858611142 ], [ -121.58788514027934, 39.035848586047713 ], [ -121.587885140243657, 39.036477405877818 ], [ -121.58815463494382, 39.036477407276358 ], [ -121.588154633896096, 39.036836731174091 ], [ -121.587525814073203, 39.036836733199607 ], [ -121.587525813615429, 39.036477406573596 ] ] ] } }
]
}
