{
"type": "FeatureCollection",
"name": "06111",
"crs": { "type": "name", "properties": { "name": "urn:ogc:def:crs:OGC:1.3:CRS84" } },
"features": [
{ "type": "Feature", "properties": { "csb_id": "061825011681678", "acres": 5.9719365121749304, "geoid": "06111" }, "geometry": { "type": "Polygon", "coordinates": [ [ [ -119.373591909438574, 34.712556562958 ], [ -119.373591909470335, 34.712107405780486 ], [ -119.373322414320086, 34.712107405142639 ], [ -119.372873257465614, 34.712376900281825 ], [ -119.372873256687924, 34.712556563125851 ], [ -119.371795278998206, 34.712646394638639 ], [ -119.371705447417611, 34.712287068082759 ], [ -119.370986794931639, 34.712017574022035 ], [ -119.370986795171632, 34.711568415943589 ], [ -119.372064773293673, 34.711568415904289 ], [ -119.372424099939209, 34.711837910410857 ], [ -119.37296308922285, 34.711478584648333 ], [ -119.372963088085626, 34.711837910651049 ], [ -119.373232583153182, 34.712017573980731 ], [ -119.373502077721824, 34.712017573958391 ], [ -119.373502077626611, 34.71174807887072 ], [ -119.374400393293172, 34.711837910424599 ], [ -119.374490224667966, 34.71237690014533 ], [ -119.374130898605117, 34.71255656324216 ], [ -119.373591909438574, 34.712556562958 ] ] ] } },
{ "type": "Feature", "properties": { "csb_id": "061825011681681", "acres": 2.9792719769912601, "geoid": "06111" }, "geometry": { "type": "Polygon", "coordinates": [ [ [ -119.337120308889197, 34.700429306708784 ], [ -119.337030477747419, 34.701507285231507 ], [ -119.336760982312754, 34.701507285392459 ], [ -119.336491488298194, 34.701776779461042 ], [ -119.335323677973406, 34.701776779252711 ], [ -119.335323678494632, 34.701507285158819 ], [ -119.335862667491341, 34.701507284768113 ], [ -119.335862667198654, 34.701237790377995 ], [ -119.336132162225084, 34.701237790334872 ], [ -119.336850814814795, 34.700429306644139 ], [ -119.337120308889197, 34.700429306708784 ] ] ] } },
{ "type": "Feature", "properties": { "csb_id": "061825011681689", "acres": 2.8475767163157601, "geoid": "06111" }, "geometry": { "type": "Polygon", "coordinates": [ [ [ -119.336491488137327, 34.700429306460059 ], [ -119.335862667227403, 34.700608969682932 ], [ -119.335862667198654, 34.701237790377995 ], [ -119.335593172400777, 34.700698801000918 ], [ -119.335683004584411, 34.700429306779988 ], [ -119.334964352721059, 34.700608969754143 ], [ -119.334964352094062, 34.700339474885958 ], [ -119.335593172908986, 34.700339474886981 ], [ -119.335593172489538, 34.700069980372454 ], [ -119.334964351734612, 34.700069980806155 ], [ -119.334964352407439, 34.69944115975035 ], [ -119.335323678207018, 34.69917166550983 ], [ -119.335593172426329, 34.6991716654044 ], [ -119.335862667230984, 34.699710654588735 ], [ -119.335862666934716, 34.700339475029978 ], [ -119.336491488137327, 34.700429306460059 ] ] ] } },
{ "type": "Feature", "properties": { "csb_id": "061825011681691", "acres": 9.4953462185260999, "geoid": "06111" }, "geometry": { "type": "Polygon", "coordinates": [ [ [ -119.337659297055808, 34.700608969877678 ], [ -119.337389802163685, 34.700429307237151 ], [ -119.337389802453046, 34.699441159949359 ], [ -119.338018624501842, 34.699441159918116 ], [ -119.338198287602708, 34.698902170327159 ], [ -119.338827107934392, 34.698902170935703 ], [ -119.338827108338805, 34.698542844763857 ], [ -119.339635591370566, 34.698542844604397 ], [ -119.339635591258968, 34.698902170561112 ], [ -119.339994918844567, 34.698902172358672 ], [ -119.339994918078773, 34.699171665054621 ], [ -119.340264412841321, 34.699171666980426 ], [ -119.340264413193907, 34.699710655821889 ], [ -119.339994917310804, 34.700069980481587 ], [ -119.33882710742138, 34.700069980784043 ], [ -119.338827106584333, 34.700339475087688 ], [ -119.338198286729124, 34.700608970214368 ], [ -119.337659297055808, 34.700608969877678 ] ] ] } },
{ "type": "Feature", "properties": { "csb_id": "061825011681692", "acres": 20.287155548641099, "geoid": "06111" }, "geometry": { "type": "Polygon", "coordinates": [ [ [ -119.337120309061916, 34.69926149711209 ], [ -119.337120308916766, 34.698992002062631 ], [ -119.336850814254504, 34.698992002217473 ], [ -119.336850814526429, 34.699261497049655 ], [ -119.337120309061916, 34.69926149711209 ], [ -119.337120308939532, 34.699530991215482 ], [ -119.336221993890661, 34.699530991626908 ], [ -119.336221993906591, 34.699890317623783 ], [ -119.336581319942965, 34.699890317333754 ], [ -119.336581319940464, 34.700429307043201 ], [ -119.335862666934716, 34.700339475029978 ], [ -119.335862667230984, 34.699710654588735 ], [ -119.335593172426329, 34.6991716654044 ], [ -119.335323678207018, 34.69917166550983 ], [ -119.334964352407439, 34.69944115975035 ], [ -119.334964351734612, 34.700069980806155 ], [ -119.335593172489538, 34.700069980372454 ], [ -119.335593172908986, 34.700339474886981 ], [ -119.334964352094062, 34.700339474885958 ], [ -119.334964352721059, 34.700608969754143 ], [ -119.335593172400777, 34.700698801000918 ], [ -119.335862667491341, 34.701507284768113 ], [ -119.335323678494632, 34.701507285158819 ], [ -119.335323678748338, 34.701237790118832 ], [ -119.334964352315708, 34.701237790879652 ], [ -119.334964352234664, 34.701776779361495 ], [ -119.334694857150694, 34.702046274413419 ], [ -119.334155868131248, 34.702046274192021 ], [ -119.334155867873577, 34.702405600070627 ], [ -119.333886373578338, 34.702405600112122 ], [ -119.333886373910843, 34.701597116852298 ], [ -119.334245699878338, 34.701597116151163 ], [ -119.334245699624901, 34.701327622006794 ], [ -119.332718564193698, 34.701237790250417 ], [ -119.332718564468351, 34.700878464352961 ], [ -119.333527047639549, 34.700878464358247 ], [ -119.333527047648616, 34.701058127216832 ], [ -119.333886373242578, 34.701058127184822 ], [ -119.333886373398144, 34.700608969971576 ], [ -119.333527047492154, 34.700608969570979 ], [ -119.333257552789135, 34.700339474818918 ], [ -119.33325755278247, 34.700069980958467 ], [ -119.333796542414859, 34.700069980542082 ], [ -119.333886373864843, 34.699261497017226 ], [ -119.334419572661687, 34.699086220009853 ], [ -119.33541351037573, 34.698183518580151 ], [ -119.335413509969797, 34.698363181099495 ], [ -119.335952498904206, 34.698363181368848 ], [ -119.33595249856549, 34.698093686925731 ], [ -119.335503341362681, 34.698003855267523 ], [ -119.336760982853932, 34.698003854966899 ], [ -119.337299971648065, 34.69836318169309 ], [ -119.337299971590085, 34.698902170564324 ], [ -119.337928792451393, 34.698902170363894 ], [ -119.337120309061916, 34.69926149711209 ] ], [ [ -119.335952499072064, 34.698992001863282 ], [ -119.335683004144883, 34.698992002146696 ], [ -119.335683004877907, 34.699261496976696 ], [ -119.335952498610851, 34.699261497128006 ], [ -119.335952499072064, 34.698992001863282 ] ] ] } },
{ "type": "Feature", "properties": { "csb_id": "061825011681693", "acres": 2.78682758238515, "geoid": "06111" }, "geometry": { "type": "Polygon", "coordinates": [ [ [ -119.340264411948752, 34.699441159814832 ], [ -119.340264412841321, 34.699171666980426 ], [ -119.339994918078773, 34.699171665054621 ], [ -119.339994916748765, 34.698542844667543 ], [ -119.340264410831182, 34.698003855765982 ], [ -119.339994916373357, 34.697734360804581 ], [ -119.340533906271475, 34.697734360994247 ], [ -119.340533905971867, 34.697554697912999 ], [ -119.340893232091233, 34.69755469781596 ], [ -119.34080340218857, 34.698542844241416 ], [ -119.340264411948752, 34.699441159814832 ] ] ] } },
{ "type": "Feature", "properties": { "csb_id": "061825011681694", "acres": 5.7662157214043903, "geoid": "06111" }, "geometry": { "type": "Polygon", "coordinates": [ [ [ -119.339635591370566, 34.698542844604397 ], [ -119.338827108338805, 34.698542844763857 ], [ -119.338827107934392, 34.698902170935703 ], [ -119.337659297567626, 34.698902170646974 ], [ -119.337659297486653, 34.69800385517842 ], [ -119.3372999724875, 34.69800385574775 ], [ -119.337299971706059, 34.697824192506253 ], [ -119.337928792407553, 34.697734360992449 ], [ -119.338198287122921, 34.698003855506208 ], [ -119.338198287731302, 34.698542844807427 ], [ -119.338467781895957, 34.698542845017009 ], [ -119.338557612954105, 34.697824192619841 ], [ -119.338288118895449, 34.697824192184754 ], [ -119.338288118411498, 34.697554697796761 ], [ -119.339635592011234, 34.697554697662511 ], [ -119.33972542310083, 34.6971953715152 ], [ -119.340354244484033, 34.697195371929695 ], [ -119.340354244365585, 34.697375035081109 ], [ -119.3399949182825, 34.69737503460702 ], [ -119.339994916373357, 34.697734360804581 ], [ -119.339366097007755, 34.697734360840414 ], [ -119.3393660967171, 34.698003855178023 ], [ -119.33963559178801, 34.698273350207266 ], [ -119.33999491804687, 34.69827334983561 ], [ -119.339994918844567, 34.698902172358672 ], [ -119.339635591258968, 34.698902170561112 ], [ -119.339635591370566, 34.698542844604397 ] ], [ [ -119.338018623761329, 34.698722507859451 ], [ -119.337928792202035, 34.698273350234118 ], [ -119.337749129875263, 34.698273349986117 ], [ -119.337749129237139, 34.698722507482252 ], [ -119.338018623761329, 34.698722507859451 ] ] ] } },
{ "type": "Feature", "properties": { "csb_id": "061825011681721", "acres": 3.5719679796747701, "geoid": "06111" }, "geometry": { "type": "Polygon", "coordinates": [ [ [ -119.196174640587301, 34.478365769025238 ], [ -119.196623798505684, 34.477377621641175 ], [ -119.196893293271913, 34.477108127426241 ], [ -119.197910563447948, 34.477242874674083 ], [ -119.197911617655322, 34.477587462289115 ], [ -119.198240766135399, 34.477557284983611 ], [ -119.198240765753226, 34.477826779655608 ], [ -119.197162787685471, 34.477826780343761 ], [ -119.197072956359804, 34.478365768510102 ], [ -119.196174640587301, 34.478365769025238 ] ] ] } },
{ "type": "Feature", "properties": { "csb_id": "061825011681732", "acres": 3.81206714318377, "geoid": "06111" }, "geometry": { "type": "Polygon", "coordinates": [ [ [ -119.217315797779932, 34.474319840720582 ], [ -119.216621094681429, 34.474016220689272 ], [ -119.21581107631394, 34.474396600968319 ], [ -119.215941480526752, 34.473852523843426 ], [ -119.216451081279402, 34.473477669920477 ], [ -119.217285049934489, 34.473155539647095 ], [ -119.218003701983889, 34.473245371002719 ], [ -119.218003701966211, 34.473694529227579 ], [ -119.217641042801134, 34.473738830170127 ], [ -119.217315797779932, 34.474319840720582 ] ] ] } },
{ "type": "Feature", "properties": { "csb_id": "061825011681751", "acres": 2.95702441042598, "geoid": "06111" }, "geometry": { "type": "Polygon", "coordinates": [ [ [ -119.223842751411226, 34.468124973795085 ], [ -119.22384275124665, 34.46758598477021 ], [ -119.223573256556278, 34.467585985272954 ], [ -119.223573257790846, 34.466777502302747 ], [ -119.223663088765491, 34.466957164043102 ], [ -119.225010561116946, 34.466957164243908 ], [ -119.224471571938082, 34.468124974245889 ], [ -119.223842751411226, 34.468124973795085 ] ] ] } },
{ "type": "Feature", "properties": { "csb_id": "061825011681765", "acres": 2.8554613967155, "geoid": "06111" }, "geometry": { "type": "Polygon", "coordinates": [ [ [ -119.253397324823368, 34.465070702388047 ], [ -119.254026145482797, 34.465070702433948 ], [ -119.254026144868092, 34.466508006669528 ], [ -119.253127829407987, 34.466777500993182 ], [ -119.253127829303281, 34.466238512076842 ], [ -119.253397324589628, 34.466238512235343 ], [ -119.253397324823368, 34.465070702388047 ] ] ] } },
{ "type": "Feature", "properties": { "csb_id": "061825011681770", "acres": 3.5125052455610701, "geoid": "06111" }, "geometry": { "type": "Polygon", "coordinates": [ [ [ -119.242617540753045, 34.464352050527786 ], [ -119.242151934337301, 34.46391938513721 ], [ -119.242078551811844, 34.463453735160286 ], [ -119.242527708241653, 34.463453735210322 ], [ -119.242617541182426, 34.463184239839691 ], [ -119.243156529682551, 34.463184239977451 ], [ -119.2431565304353, 34.463453734673415 ], [ -119.243965013867438, 34.463453734328212 ], [ -119.243965013405827, 34.463633397990023 ], [ -119.243426024537015, 34.463902892243112 ], [ -119.243246361457466, 34.464352050371069 ], [ -119.242617540753045, 34.464352050527786 ] ] ] } },
{ "type": "Feature", "properties": { "csb_id": "061825011681925", "acres": 5.0516560333404001, "geoid": "06111" }, "geometry": { "type": "Polygon", "coordinates": [ [ [ -119.100863389541772, 34.4458467553426 ], [ -119.100234567958111, 34.445397597644337 ], [ -119.100234568951294, 34.445128103822839 ], [ -119.100504063384918, 34.445128102658593 ], [ -119.100504063422179, 34.44494844006438 ], [ -119.100504063251236, 34.444499282547909 ], [ -119.100234568347446, 34.444499282406653 ], [ -119.100234568012041, 34.444229787653086 ], [ -119.100504063098953, 34.443960293394532 ], [ -119.101402378152827, 34.443960293277094 ], [ -119.101402378535795, 34.444858607969103 ], [ -119.10167187335216, 34.444858608444783 ], [ -119.101671872847007, 34.445397597893631 ], [ -119.10140237842397, 34.445667092238949 ], [ -119.100863389541772, 34.4458467553426 ] ] ] } },
{ "type": "Feature", "properties": { "csb_id": "061825011681929", "acres": 7.8683385227410199, "geoid": "06111" }, "geometry": { "type": "Polygon", "coordinates": [ [ [ -119.137334989590286, 34.447284059379541 ], [ -119.136436674171307, 34.446475575730631 ], [ -119.135268864678508, 34.446565407566482 ], [ -119.135268864900738, 34.446116249652171 ], [ -119.135628190374703, 34.446116249701703 ], [ -119.135628191173026, 34.445846755190857 ], [ -119.134999370187018, 34.44584675556569 ], [ -119.13499936997033, 34.445217934633419 ], [ -119.135268864383093, 34.444678945407375 ], [ -119.135897685465437, 34.444678945325848 ], [ -119.135897685604448, 34.444948440199667 ], [ -119.136167179782461, 34.445217934439796 ], [ -119.137245158582374, 34.445217934688294 ], [ -119.137245158113586, 34.445667091752057 ], [ -119.137065494560346, 34.445667091969945 ], [ -119.137065495484478, 34.445487428738957 ], [ -119.136436673970479, 34.445487429272141 ], [ -119.136436674793018, 34.445846755486876 ], [ -119.137604484081876, 34.446655239105027 ], [ -119.137604484319866, 34.447373891053289 ], [ -119.137334989590286, 34.447284059379541 ] ] ] } },
{ "type": "Feature", "properties": { "csb_id": "061825011681951", "acres": 2.6428466145771199, "geoid": "06111" }, "geometry": { "type": "Polygon", "coordinates": [ [ [ -119.148653762862693, 34.439917874587032 ], [ -119.148923256504716, 34.439917874062402 ], [ -119.148923257062592, 34.441355178528077 ], [ -119.147485952783342, 34.441355178921938 ], [ -119.147485952306596, 34.44045686305077 ], [ -119.147755447294102, 34.440456863490681 ], [ -119.147755446529743, 34.440995852427719 ], [ -119.148294435996107, 34.440995852300802 ], [ -119.148653762495627, 34.440456863202222 ], [ -119.148653762862693, 34.439917874587032 ] ] ] } },
{ "type": "Feature", "properties": { "csb_id": "061825011681954", "acres": 4.9808469454729902, "geoid": "06111" }, "geometry": { "type": "Polygon", "coordinates": [ [ [ -119.138951957300947, 34.439019559384597 ], [ -119.138951957177241, 34.43875006419762 ], [ -119.138682462499673, 34.438750065735604 ], [ -119.138682462486159, 34.439019559838961 ], [ -119.138951957300947, 34.439019559384597 ], [ -119.138951957539291, 34.439917874260793 ], [ -119.138682463308925, 34.440187369544184 ], [ -119.138143473800767, 34.440187369678078 ], [ -119.137784148115998, 34.439917875145795 ], [ -119.137784147160502, 34.439558547997983 ], [ -119.138143472802668, 34.439558547922559 ], [ -119.138143473680159, 34.438750064990529 ], [ -119.137784147264881, 34.438750065060475 ], [ -119.137784146573793, 34.438390738295944 ], [ -119.138143472705622, 34.437851749106947 ], [ -119.138412967981111, 34.437851749904439 ], [ -119.138412968359191, 34.438121244939836 ], [ -119.13868246296515, 34.438390737893059 ], [ -119.139041787971877, 34.438390739608742 ], [ -119.138951957300947, 34.439019559384597 ] ] ] } },
{ "type": "Feature", "properties": { "csb_id": "061825011681955", "acres": 4.1269358330505899, "geoid": "06111" }, "geometry": { "type": "Polygon", "coordinates": [ [ [ -119.147755446529743, 34.440995852427719 ], [ -119.147755447294102, 34.440456863490681 ], [ -119.147485952306596, 34.44045686305077 ], [ -119.147485952029427, 34.440187368779959 ], [ -119.147126625917394, 34.44018736859698 ], [ -119.147126625825464, 34.439917874458011 ], [ -119.147485952816652, 34.43991787420957 ], [ -119.147485952358878, 34.439558547983573 ], [ -119.148294436350952, 34.439378885361364 ], [ -119.148653762576259, 34.439558548150465 ], [ -119.148653762495627, 34.440456863202222 ], [ -119.148294435996107, 34.440995852300802 ], [ -119.147755446529743, 34.440995852427719 ] ] ] } },
{ "type": "Feature", "properties": { "csb_id": "061825011681959", "acres": 7.54232236958652, "geoid": "06111" }, "geometry": { "type": "Polygon", "coordinates": [ [ [ -119.146318143038926, 34.440995852511939 ], [ -119.145240163538887, 34.440995852382429 ], [ -119.145240164156675, 34.440726357837583 ], [ -119.144791006354581, 34.440456863208766 ], [ -119.144791006970763, 34.440007706533407 ], [ -119.145419827451676, 34.439289053981071 ], [ -119.145958816502954, 34.439289054040387 ], [ -119.145958816571095, 34.440187368540165 ], [ -119.146587637010654, 34.44018736895697 ], [ -119.146946962330588, 34.439648380051715 ], [ -119.146946962511748, 34.439019558858682 ], [ -119.14712662658556, 34.43901955861071 ], [ -119.147485951017316, 34.439289053648864 ], [ -119.147485952358878, 34.439558547983573 ], [ -119.14712662596952, 34.43955854844765 ], [ -119.147126625917394, 34.44018736859698 ], [ -119.147485952029427, 34.440187368779959 ], [ -119.147485952061075, 34.440995852424429 ], [ -119.147126625657776, 34.440995852462329 ], [ -119.146587637167727, 34.440726358072162 ], [ -119.146318143038926, 34.440995852511939 ] ], [ [ -119.146048648077468, 34.440816189346926 ], [ -119.146048648211661, 34.440277200066781 ], [ -119.14577915304271, 34.440277200451156 ], [ -119.145779153162835, 34.440816189300016 ], [ -119.146048648077468, 34.440816189346926 ] ] ] } },
{ "type": "Feature", "properties": { "csb_id": "061825011681962", "acres": 4.4929266806254597, "geoid": "06111" }, "geometry": { "type": "Polygon", "coordinates": [ [ [ -119.153594496526267, 34.439378884646693 ], [ -119.15224702367378, 34.439378885358742 ], [ -119.15224702363605, 34.439558548514931 ], [ -119.1512588763987, 34.43955854779945 ], [ -119.151258876598718, 34.439378885074674 ], [ -119.150719887495853, 34.439378885450743 ], [ -119.150630055784092, 34.43955854785284 ], [ -119.15063005597122, 34.439019558693765 ], [ -119.150989382235764, 34.43901955892678 ], [ -119.15098938227635, 34.438750064439638 ], [ -119.151528370992196, 34.438750064773807 ], [ -119.151528371497136, 34.439019558608756 ], [ -119.152157191718644, 34.43901955935246 ], [ -119.152157191955382, 34.438750064002427 ], [ -119.153594496229331, 34.438750064402427 ], [ -119.153594496526267, 34.439378884646693 ] ] ] } },
{ "type": "Feature", "properties": { "csb_id": "061825012787603", "acres": 5.17404458910059, "geoid": "06111" }, "geometry": { "type": "Polygon", "coordinates": [ [ [ -119.311800339787794, 34.439131513670837 ], [ -119.311800339506021, 34.438772187889271 ], [ -119.312069834283989, 34.438502692769902 ], [ -119.311980002728205, 34.437065388760047 ], [ -119.31314781269414, 34.436975556947687 ], [ -119.313147812432447, 34.438951851012234 ], [ -119.312878317608678, 34.438951850610884 ], [ -119.312878317870755, 34.437784040702965 ], [ -119.312339329104503, 34.437604377917133 ], [ -119.312339328427427, 34.437963703967469 ], [ -119.312698655330379, 34.43796370407248 ], [ -119.312698654488599, 34.439131513303579 ], [ -119.311800339787794, 34.439131513670837 ] ] ] } },
{ "type": "Feature", "properties": { "csb_id": "061825012787615", "acres": 3.1004103692168901, "geoid": "06111" }, "geometry": { "type": "Polygon", "coordinates": [ [ [ -119.153696849129531, 34.436167073296119 ], [ -119.154595164799346, 34.436167073251511 ], [ -119.154595164529908, 34.436706062421344 ], [ -119.15432567009961, 34.437065388456098 ], [ -119.152888366230471, 34.437065388580358 ], [ -119.152888365989952, 34.436706062499944 ], [ -119.153157860095376, 34.436436567842271 ], [ -119.153696849196123, 34.436436567709741 ], [ -119.153696849129531, 34.436167073296119 ] ] ] } },
{ "type": "Feature", "properties": { "csb_id": "061825012787624", "acres": 4.4118215288040004, "geoid": "06111" }, "geometry": { "type": "Polygon", "coordinates": [ [ [ -119.171573323232167, 34.434100948304646 ], [ -119.172471638946789, 34.434100948439365 ], [ -119.172471638946533, 34.434729769087191 ], [ -119.173010628542627, 34.434729768356412 ], [ -119.173190291708579, 34.435268758000589 ], [ -119.172471639326773, 34.43526875750954 ], [ -119.172471638527, 34.435897578392009 ], [ -119.172202144322043, 34.43589757826075 ], [ -119.17220214416561, 34.435538252871041 ], [ -119.171303829342591, 34.435538252627609 ], [ -119.171303828721719, 34.434729768915687 ], [ -119.171842818058224, 34.434729769030746 ], [ -119.171842817922766, 34.434999263827883 ], [ -119.17220214406592, 34.434999263096913 ], [ -119.172202144280845, 34.434729768951698 ], [ -119.171842818058224, 34.434729769030746 ], [ -119.171842818238858, 34.434370442503898 ], [ -119.171573324288033, 34.434370442865969 ], [ -119.171573323232167, 34.434100948304646 ] ] ] } },
{ "type": "Feature", "properties": { "csb_id": "061825012787628", "acres": 3.0496778217173199, "geoid": "06111" }, "geometry": { "type": "Polygon", "coordinates": [ [ [ -119.163847812407212, 34.434100948140397 ], [ -119.163847812386862, 34.434729768422201 ], [ -119.16276983360018, 34.434729769180706 ], [ -119.162769834123523, 34.434100947806023 ], [ -119.161602023655021, 34.434100948228966 ], [ -119.161602024557695, 34.433831453768448 ], [ -119.161961350039363, 34.433561958622427 ], [ -119.162230844668841, 34.433561958584207 ], [ -119.162230844888612, 34.433831453344546 ], [ -119.16312916024556, 34.433831453051049 ], [ -119.163129160396394, 34.434100948374848 ], [ -119.163847812407212, 34.434100948140397 ] ] ] } },
{ "type": "Feature", "properties": { "csb_id": "061825012787658", "acres": 3.1819637136297301, "geoid": "06111" }, "geometry": { "type": "Polygon", "coordinates": [ [ [ -119.32374793236832, 34.429699203277657 ], [ -119.324646248693654, 34.429699203397426 ], [ -119.324646248688921, 34.430058529497543 ], [ -119.324107258628473, 34.430058529431633 ], [ -119.324107258412951, 34.430328023799554 ], [ -119.324646247953652, 34.430328023432615 ], [ -119.324646247484822, 34.43059751815106 ], [ -119.324376753164088, 34.43086701317106 ], [ -119.324376753240116, 34.43122633943571 ], [ -119.323478437832762, 34.431226338966887 ], [ -119.323478438730419, 34.430867013354117 ], [ -119.323747932318966, 34.430328023526727 ], [ -119.32374793236832, 34.429699203277657 ] ] ] } },
{ "type": "Feature", "properties": { "csb_id": "061825012787763", "acres": 5.2059999266672996, "geoid": "06111" }, "geometry": { "type": "Polygon", "coordinates": [ [ [ -119.266704912928105, 34.414427844239903 ], [ -119.266076090935613, 34.414427843551621 ], [ -119.265806596833954, 34.413888854012839 ], [ -119.266345585921741, 34.413799022793022 ], [ -119.266345586181458, 34.413529528272754 ], [ -119.266884574811243, 34.413529528072196 ], [ -119.266884575361615, 34.413799022809265 ], [ -119.267513395709372, 34.413799023038685 ], [ -119.267513396429777, 34.413529528518907 ], [ -119.267782890611159, 34.41352952928257 ], [ -119.267782890827604, 34.413799023802376 ], [ -119.268052385680079, 34.413799023075015 ], [ -119.268052385004992, 34.414966832841849 ], [ -119.267243901563845, 34.414966832287675 ], [ -119.267243901250453, 34.414787169816648 ], [ -119.266704912928105, 34.414427844239903 ] ] ] } },
{ "type": "Feature", "properties": { "csb_id": "061825012787857", "acres": 7.8536929529284398, "geoid": "06111" }, "geometry": { "type": "Polygon", "coordinates": [ [ [ -119.206427956990083, 34.405983679539197 ], [ -119.206427956357331, 34.405444690344176 ], [ -119.206158460684577, 34.405444691014353 ], [ -119.206158462619939, 34.404815869606672 ], [ -119.206697450680181, 34.404097217731788 ], [ -119.207595767088591, 34.404007386076991 ], [ -119.208134754285766, 34.404546375364347 ], [ -119.208134755618332, 34.405175195876609 ], [ -119.207865261142061, 34.405714185514697 ], [ -119.207326271768395, 34.405983679520077 ], [ -119.206427956990083, 34.405983679539197 ] ] ] } },
{ "type": "Feature", "properties": { "csb_id": "061825012787858", "acres": 3.9253191263420799, "geoid": "06111" }, "geometry": { "type": "Polygon", "coordinates": [ [ [ -119.316920736160668, 34.404456543512318 ], [ -119.316920736173032, 34.403288733497568 ], [ -119.317280063252014, 34.403019239382346 ], [ -119.317819051167049, 34.403019239516524 ], [ -119.318088547514122, 34.403288733443226 ], [ -119.31808854688262, 34.40418704903459 ], [ -119.317819052445429, 34.404456543896508 ], [ -119.316920736160668, 34.404456543512318 ] ] ] } },
{ "type": "Feature", "properties": { "csb_id": "061825012787860", "acres": 2.7353603577929402, "geoid": "06111" }, "geometry": { "type": "Polygon", "coordinates": [ [ [ -119.284581386175915, 34.403648059914055 ], [ -119.284581386061234, 34.403378565034615 ], [ -119.285749196092212, 34.403109071242582 ], [ -119.285749196438204, 34.402839576193841 ], [ -119.286378016695664, 34.40283957633045 ], [ -119.286573822104074, 34.403337772940098 ], [ -119.286288185100204, 34.403558228720144 ], [ -119.286288185322647, 34.403378565819125 ], [ -119.285749196543819, 34.403378565122139 ], [ -119.285749196711379, 34.404007385870159 ], [ -119.285120376022405, 34.40400738602623 ], [ -119.285120376030264, 34.40364805972407 ], [ -119.284581386175915, 34.403648059914055 ] ] ] } },
{ "type": "Feature", "properties": { "csb_id": "061825012787916", "acres": 8.4817811682030104, "geoid": "06111" }, "geometry": { "type": "Polygon", "coordinates": [ [ [ -119.310632529727954, 34.398437831607886 ], [ -119.310632529277214, 34.397539515880297 ], [ -119.311530845426347, 34.397539516147553 ], [ -119.311530844960487, 34.397270021505378 ], [ -119.311171518951724, 34.397270021102088 ], [ -119.310902023747715, 34.396910695053087 ], [ -119.311171519421052, 34.396102211526312 ], [ -119.312069833807954, 34.39610221197114 ], [ -119.31206983414522, 34.395742885376357 ], [ -119.312878317363314, 34.395742885209764 ], [ -119.312878317656484, 34.396551368807842 ], [ -119.312698654588445, 34.396551368871393 ], [ -119.312698655028171, 34.396371705794998 ], [ -119.312339328927564, 34.396371706175572 ], [ -119.312249496864155, 34.397090358230173 ], [ -119.312339328206136, 34.397449684501488 ], [ -119.312878317805598, 34.397449684492905 ], [ -119.312878318001538, 34.397988673799269 ], [ -119.312249497703874, 34.397988673565386 ], [ -119.312249497133109, 34.397719179497543 ], [ -119.31180033974448, 34.397719179421607 ], [ -119.311530844828866, 34.397809010922238 ], [ -119.311530844852527, 34.398437831444262 ], [ -119.310632529727954, 34.398437831607886 ] ], [ [ -119.311710507707573, 34.39691069518657 ], [ -119.311800339644265, 34.396371706077986 ], [ -119.311710507919827, 34.396371705855465 ], [ -119.311710507707573, 34.39691069518657 ] ] ] } },
{ "type": "Feature", "properties": { "csb_id": "061825012787933", "acres": 3.9562327460320699, "geoid": "06111" }, "geometry": { "type": "Polygon", "coordinates": [ [ [ -119.314046128220326, 34.395203896319181 ], [ -119.313237643440544, 34.395203895917284 ], [ -119.313237643989538, 34.395473390559737 ], [ -119.313507138168802, 34.395473390739326 ], [ -119.313507138591106, 34.395742885514274 ], [ -119.312968149197843, 34.39565305410617 ], [ -119.312968149788489, 34.394934401471801 ], [ -119.312339328206477, 34.394934401512955 ], [ -119.312339328890602, 34.394575075946612 ], [ -119.312698654902107, 34.394305581073063 ], [ -119.313776632929446, 34.39430558129817 ], [ -119.31386646500755, 34.394934401721741 ], [ -119.314405454050942, 34.395473390738317 ], [ -119.314944442943471, 34.395473390492519 ], [ -119.314944443187926, 34.395653053758458 ], [ -119.314046127349386, 34.395653053794447 ], [ -119.314046128220326, 34.395203896319181 ] ] ] } },
{ "type": "Feature", "properties": { "csb_id": "061825012787999", "acres": 8.9222229769304402, "geoid": "06111" }, "geometry": { "type": "Polygon", "coordinates": [ [ [ -119.294193360037539, 34.389634341522097 ], [ -119.293923865546503, 34.388736026397346 ], [ -119.295720495840158, 34.388736026302205 ], [ -119.296528979806524, 34.388197037350821 ], [ -119.297696789226848, 34.388197037148835 ], [ -119.29755011129177, 34.38858926035676 ], [ -119.296917781603639, 34.389304491387719 ], [ -119.29652897919685, 34.389364846814388 ], [ -119.296528980304629, 34.389005520878364 ], [ -119.296259485753779, 34.389005521113788 ], [ -119.296259485285063, 34.389634341348106 ], [ -119.296528979894674, 34.38963434154676 ], [ -119.296349316983694, 34.389903836420388 ], [ -119.295091675710708, 34.389903835881618 ], [ -119.295091675488834, 34.389634341234661 ], [ -119.294193360037539, 34.389634341522097 ] ] ] } },
{ "type": "Feature", "properties": { "csb_id": "061825012788070", "acres": 6.3577857510695397, "geoid": "06111" }, "geometry": { "type": "Polygon", "coordinates": [ [ [ -119.438103468344394, 34.383705460568507 ], [ -119.438103467386895, 34.383346134807894 ], [ -119.437384815337211, 34.383346134414758 ], [ -119.436935658542282, 34.383705460761661 ], [ -119.436666163709617, 34.383705460545166 ], [ -119.436666162706999, 34.383525798014304 ], [ -119.436217006442021, 34.383346134782506 ], [ -119.434869532658936, 34.383076640314208 ], [ -119.434600038518823, 34.382807145546998 ], [ -119.43460003890722, 34.382447818777834 ], [ -119.435767848864955, 34.382447819638365 ], [ -119.435767847558168, 34.382178325109855 ], [ -119.436396668504173, 34.382268156010909 ], [ -119.436396669906486, 34.382807145150608 ], [ -119.436935658426009, 34.3830766396702 ], [ -119.437294984792686, 34.383076639635718 ], [ -119.43756447919526, 34.382807144922033 ], [ -119.437654309474652, 34.382447819752642 ], [ -119.438223478322314, 34.383136293794294 ], [ -119.438103468344394, 34.383705460568507 ] ] ] } },
{ "type": "Feature", "properties": { "csb_id": "061825012788466", "acres": 2.7371090482003102, "geoid": "06111" }, "geometry": { "type": "Polygon", "coordinates": [ [ [ -119.25179287908027, 34.353342404228989 ], [ -119.25206237304937, 34.353342404317701 ], [ -119.252691193923681, 34.353881392938199 ], [ -119.252691193990316, 34.354510213934574 ], [ -119.251792878133486, 34.354510213537012 ], [ -119.251792878288754, 34.35504920327525 ], [ -119.25152338423635, 34.35504920321484 ], [ -119.25152338375571, 34.354240719563066 ], [ -119.251792878188581, 34.354240718973543 ], [ -119.25179287908027, 34.353342404228989 ] ] ] } },
{ "type": "Feature", "properties": { "csb_id": "061825012788520", "acres": 3.4904055564648901, "geoid": "06111" }, "geometry": { "type": "Polygon", "coordinates": [ [ [ -119.26320148239337, 34.345616892606891 ], [ -119.262303167156531, 34.346605039823721 ], [ -119.261764177678828, 34.346605039142304 ], [ -119.261764178207386, 34.345976218376691 ], [ -119.261404852497748, 34.345976218849295 ], [ -119.261404852643906, 34.345706723968462 ], [ -119.262033673240964, 34.345706724149409 ], [ -119.262033672887796, 34.345976218595887 ], [ -119.26230316756822, 34.345976218191161 ], [ -119.26230316698539, 34.345706723744613 ], [ -119.262033673240964, 34.345706724149409 ], [ -119.262303167730835, 34.345437229863407 ], [ -119.262303167148005, 34.345167735245525 ], [ -119.262931988158257, 34.345167735129429 ], [ -119.26320148239337, 34.345616892606891 ] ] ] } },
{ "type": "Feature", "properties": { "csb_id": "061825012788540", "acres": 3.6126398728923301, "geoid": "06111" }, "geometry": { "type": "Polygon", "coordinates": [ [ [ -119.269938846991863, 34.343371104719097 ], [ -119.269040532336845, 34.343371104000049 ], [ -119.269040532408326, 34.343640598535337 ], [ -119.268142217023282, 34.343640598692595 ], [ -119.268142216617974, 34.343371103940022 ], [ -119.268771037012257, 34.342832115490545 ], [ -119.269669352335484, 34.342832115036387 ], [ -119.269669352829112, 34.342203294082701 ], [ -119.27047783661844, 34.342472788618338 ], [ -119.270477836550555, 34.342832114882057 ], [ -119.269938847251041, 34.342832114958171 ], [ -119.269938846991863, 34.343371104719097 ] ] ] } },
{ "type": "Feature", "properties": { "csb_id": "061825012790092", "acres": 4.1979760903042003, "geoid": "06111" }, "geometry": { "type": "Polygon", "coordinates": [ [ [ -119.102223383641615, 34.234764786928316 ], [ -119.102133552313916, 34.235124112875418 ], [ -119.102223383764027, 34.235124112551112 ], [ -119.102223383641615, 34.234764786928316 ], [ -119.102403047036191, 34.234764786724227 ], [ -119.103031867934305, 34.235303775876154 ], [ -119.103121698978384, 34.235932596288151 ], [ -119.102762372611323, 34.236112259380718 ], [ -119.102133552432022, 34.236112259650227 ], [ -119.101504731907355, 34.234944449864265 ], [ -119.101504731787145, 34.234674955653638 ], [ -119.101953889010886, 34.234405460608293 ], [ -119.102223383641615, 34.234764786928316 ] ] ] } },
{ "type": "Feature", "properties": { "csb_id": "061825012790597", "acres": 5.6087032005618802, "geoid": "06111" }, "geometry": { "type": "Polygon", "coordinates": [ [ [ -118.985711891060575, 34.165414846392771 ], [ -118.985711891619871, 34.16451653081252 ], [ -118.98634071213462, 34.164247036558471 ], [ -118.988047510543367, 34.164247036481846 ], [ -118.988047511034978, 34.164875857372209 ], [ -118.987778016793982, 34.165145351709725 ], [ -118.986610207207747, 34.16514535178451 ], [ -118.986610206679472, 34.16541484641089 ], [ -118.985711891060575, 34.165414846392771 ] ] ] } },
{ "type": "Feature", "properties": { "csb_id": "061825012790700", "acres": 5.1508511561806296, "geoid": "06111" }, "geometry": { "type": "Polygon", "coordinates": [ [ [ -118.932441794694483, 34.147897698849256 ], [ -118.932172300087004, 34.147897698543289 ], [ -118.932172300516555, 34.148167192898981 ], [ -118.931633311279157, 34.148167192802063 ], [ -118.931184153629758, 34.147807867465389 ], [ -118.931184153294808, 34.147448540814999 ], [ -118.932172300586458, 34.147268878036705 ], [ -118.932441794795238, 34.146729888959165 ], [ -118.932172300656347, 34.146370562180572 ], [ -118.932172300487906, 34.146101068097224 ], [ -118.932801121649106, 34.146101067593484 ], [ -118.933070616219041, 34.146370562701286 ], [ -118.933070615994396, 34.14672988893296 ], [ -118.932801121726428, 34.146729888990961 ], [ -118.93280112110142, 34.148436687903576 ], [ -118.932441795298374, 34.148436687898787 ], [ -118.932441794694483, 34.147897698849256 ] ], [ [ -118.931902805740648, 34.147897698480243 ], [ -118.931812974563556, 34.147807866848403 ], [ -118.931812974112276, 34.147897698970588 ], [ -118.931902805740648, 34.147897698480243 ] ] ] } },
{ "type": "Feature", "properties": { "csb_id": "061825012790721", "acres": 4.9572132670006601, "geoid": "06111" }, "geometry": { "type": "Polygon", "coordinates": [ [ [ -118.914295826144951, 34.144034942609146 ], [ -118.915463635747628, 34.144034942764129 ], [ -118.915822962297909, 34.144394269095606 ], [ -118.915822961749285, 34.144933257784039 ], [ -118.915194141653217, 34.144933258277646 ], [ -118.914924646853009, 34.145202752254349 ], [ -118.913756837187051, 34.145202752372839 ], [ -118.913756837210485, 34.144663763165681 ], [ -118.914295826144951, 34.144034942609146 ] ] ] } },
{ "type": "Feature", "properties": { "csb_id": "061825012790761", "acres": 3.47839189528103, "geoid": "06111" }, "geometry": { "type": "Polygon", "coordinates": [ [ [ -118.895610867958268, 34.138824713984867 ], [ -118.89588036307714, 34.138824714447331 ], [ -118.895880363135859, 34.13999252378234 ], [ -118.895610868738004, 34.13999252420367 ], [ -118.895610868117117, 34.140531513448785 ], [ -118.895880363320586, 34.140531513240937 ], [ -118.895880362915648, 34.141160334255019 ], [ -118.894982047417429, 34.140890839577786 ], [ -118.894982048029703, 34.139992523764143 ], [ -118.895341374340177, 34.139992523999155 ], [ -118.895341373447792, 34.139094208500815 ], [ -118.895610868178309, 34.139094208933763 ], [ -118.895610867958268, 34.138824713984867 ] ] ] } }
]
}
